; LightBurn 1.7.08
; GRBL device profile, absolute coords
; Bounds: X37.34 Y214.39 to X341.51 Y328.83
G00 G17 G40 G21 G54
G90
M4
; Cut @ 4 mm/sec, 90% power
M8
G0 X149.238Y238.997
M3
; Layer C00 Pass 1 of 3
G1 X161.642Y232.947S900F240
G1 X155.592Y220.543
G1 X143.188Y226.593
G1 X149.238Y238.997
; Layer C00 Pass 2 of 3
G1 X161.642Y232.947
G1 X155.592Y220.543
G1 X143.188Y226.593
G1 X149.238Y238.997
; Layer C00 Pass 3 of 3
G1 X161.642Y232.947
G1 X155.592Y220.543
G1 X143.188Y226.593
G1 X149.238Y238.997
G0 X129.109Y249.465
; Layer C00 Pass 1 of 3
G1 X142.438Y245.894
G1 X138.867Y232.564
G1 X125.537Y236.136
G1 X129.109Y249.465
; Layer C00 Pass 2 of 3
G1 X142.438Y245.894
G1 X138.867Y232.564
G1 X125.537Y236.136
G1 X129.109Y249.465
; Layer C00 Pass 3 of 3
G1 X142.438Y245.894
G1 X138.867Y232.564
G1 X125.537Y236.136
G1 X129.109Y249.465
G0 X134.883Y260.196
; Layer C00 Pass 1 of 3
G1 X134.867Y260.021
G1 X134.823Y259.856
G1 X134.753Y259.702
G1 X134.658Y259.564
G1 X134.541Y259.443
G1 X134.405Y259.343
G1 X134.252Y259.267
G1 X134.084Y259.217
G1 X133.934Y259.197
G1 X133.783Y259.201
G1 X133.635Y259.227
G1 X133.492Y259.276
G1 X133.315Y259.373
G1 X133.165Y259.5
G1 X133.045Y259.651
G1 X132.957Y259.821
G1 X132.902Y260.005
G1 X132.884Y260.197
G1 X132.903Y260.392
G1 X132.962Y260.585
G1 X133.045Y260.741
G1 X133.15Y260.876
G1 X133.276Y260.99
G1 X133.418Y261.081
G1 X133.573Y261.146
G1 X133.738Y261.185
G1 X133.909Y261.195
G1 X134.084Y261.175
G1 X134.252Y261.125
G1 X134.405Y261.048
G1 X134.541Y260.948
G1 X134.658Y260.827
G1 X134.752Y260.689
G1 X134.823Y260.535
G1 X134.867Y260.37
G1 X134.883Y260.196
; Layer C00 Pass 2 of 3
G1 X134.867Y260.021
G1 X134.823Y259.856
G1 X134.753Y259.702
G1 X134.658Y259.564
G1 X134.541Y259.443
G1 X134.405Y259.343
G1 X134.252Y259.267
G1 X134.084Y259.217
G1 X133.934Y259.197
G1 X133.783Y259.201
G1 X133.635Y259.227
G1 X133.492Y259.276
G1 X133.315Y259.373
G1 X133.165Y259.5
G1 X133.045Y259.651
G1 X132.957Y259.821
G1 X132.902Y260.005
G1 X132.884Y260.197
G1 X132.903Y260.392
G1 X132.962Y260.585
G1 X133.045Y260.741
G1 X133.15Y260.876
G1 X133.276Y260.99
G1 X133.418Y261.081
G1 X133.573Y261.146
G1 X133.738Y261.185
G1 X133.909Y261.195
G1 X134.084Y261.175
G1 X134.252Y261.125
G1 X134.405Y261.048
G1 X134.541Y260.948
G1 X134.658Y260.827
G1 X134.752Y260.689
G1 X134.823Y260.535
G1 X134.867Y260.37
G1 X134.883Y260.196
; Layer C00 Pass 3 of 3
G1 X134.867Y260.021
G1 X134.823Y259.856
G1 X134.753Y259.702
G1 X134.658Y259.564
G1 X134.541Y259.443
G1 X134.405Y259.343
G1 X134.252Y259.267
G1 X134.084Y259.217
G1 X133.934Y259.197
G1 X133.783Y259.201
G1 X133.635Y259.227
G1 X133.492Y259.276
G1 X133.315Y259.373
G1 X133.165Y259.5
G1 X133.045Y259.651
G1 X132.957Y259.821
G1 X132.902Y260.005
G1 X132.884Y260.197
G1 X132.903Y260.392
G1 X132.962Y260.585
G1 X133.045Y260.741
G1 X133.15Y260.876
G1 X133.276Y260.99
G1 X133.418Y261.081
G1 X133.573Y261.146
G1 X133.738Y261.185
G1 X133.909Y261.195
G1 X134.084Y261.175
G1 X134.252Y261.125
G1 X134.405Y261.048
G1 X134.541Y260.948
G1 X134.658Y260.827
G1 X134.752Y260.689
G1 X134.823Y260.535
G1 X134.867Y260.37
G1 X134.883Y260.196
G0 X138.328Y270.287
; Layer C00 Pass 1 of 3
G1 X151.917Y267.891
G1 X149.521Y254.301
G1 X135.932Y256.697
G1 X138.328Y270.287
; Layer C00 Pass 2 of 3
G1 X151.917Y267.891
G1 X149.521Y254.301
G1 X135.932Y256.697
G1 X138.328Y270.287
; Layer C00 Pass 3 of 3
G1 X151.917Y267.891
G1 X149.521Y254.301
G1 X135.932Y256.697
G1 X138.328Y270.287
G0 X120.443Y278.276
; Layer C00 Pass 1 of 3
G1 X134.033Y275.88
G1 X131.637Y262.291
G1 X118.047Y264.687
G1 X120.443Y278.276
; Layer C00 Pass 2 of 3
G1 X134.033Y275.88
G1 X131.637Y262.291
G1 X118.047Y264.687
G1 X120.443Y278.276
; Layer C00 Pass 3 of 3
G1 X134.033Y275.88
G1 X131.637Y262.291
G1 X118.047Y264.687
G1 X120.443Y278.276
G0 X116.149Y283.87
; Layer C00 Pass 1 of 3
G1 X102.559Y286.266
G1 X100.163Y272.676
G1 X113.753Y270.28
G1 X116.149Y283.87
; Layer C00 Pass 2 of 3
G1 X102.559Y286.266
G1 X100.163Y272.676
G1 X113.753Y270.28
G1 X116.149Y283.87
; Layer C00 Pass 3 of 3
G1 X102.559Y286.266
G1 X100.163Y272.676
G1 X113.753Y270.28
G1 X116.149Y283.87
G0 X101.925Y292.121
; Layer C00 Pass 1 of 3
G1 X101.91Y291.947
G1 X101.866Y291.782
G1 X101.795Y291.628
G1 X101.701Y291.49
G1 X101.584Y291.369
G1 X101.448Y291.269
G1 X101.295Y291.192
G1 X101.127Y291.143
G1 X100.977Y291.124
G1 X100.827Y291.127
G1 X100.679Y291.153
G1 X100.536Y291.201
G1 X100.359Y291.299
G1 X100.209Y291.425
G1 X100.089Y291.576
G1 X100Y291.746
G1 X99.945Y291.93
G1 X99.926Y292.122
G1 X99.946Y292.317
G1 X100.005Y292.511
G1 X100.087Y292.666
G1 X100.193Y292.802
G1 X100.318Y292.916
G1 X100.46Y293.007
G1 X100.615Y293.072
G1 X100.78Y293.111
G1 X100.952Y293.121
G1 X101.126Y293.101
G1 X101.294Y293.051
G1 X101.447Y292.974
G1 X101.583Y292.874
G1 X101.7Y292.753
G1 X101.795Y292.615
G1 X101.866Y292.461
G1 X101.91Y292.296
G1 X101.925Y292.121
; Layer C00 Pass 2 of 3
G1 X101.91Y291.947
G1 X101.866Y291.782
G1 X101.795Y291.628
G1 X101.701Y291.49
G1 X101.584Y291.369
G1 X101.448Y291.269
G1 X101.295Y291.192
G1 X101.127Y291.143
G1 X100.977Y291.124
G1 X100.827Y291.127
G1 X100.679Y291.153
G1 X100.536Y291.201
G1 X100.359Y291.299
G1 X100.209Y291.425
G1 X100.089Y291.576
G1 X100Y291.746
G1 X99.945Y291.93
G1 X99.926Y292.122
G1 X99.946Y292.317
G1 X100.005Y292.511
G1 X100.087Y292.666
G1 X100.193Y292.802
G1 X100.318Y292.916
G1 X100.46Y293.007
G1 X100.615Y293.072
G1 X100.78Y293.111
G1 X100.952Y293.121
G1 X101.126Y293.101
G1 X101.294Y293.051
G1 X101.447Y292.974
G1 X101.583Y292.874
G1 X101.7Y292.753
G1 X101.795Y292.615
G1 X101.866Y292.461
G1 X101.91Y292.296
G1 X101.925Y292.121
; Layer C00 Pass 3 of 3
G1 X101.91Y291.947
G1 X101.866Y291.782
G1 X101.795Y291.628
G1 X101.701Y291.49
G1 X101.584Y291.369
G1 X101.448Y291.269
G1 X101.295Y291.192
G1 X101.127Y291.143
G1 X100.977Y291.124
G1 X100.827Y291.127
G1 X100.679Y291.153
G1 X100.536Y291.201
G1 X100.359Y291.299
G1 X100.209Y291.425
G1 X100.089Y291.576
G1 X100Y291.746
G1 X99.945Y291.93
G1 X99.926Y292.122
G1 X99.946Y292.317
G1 X100.005Y292.511
G1 X100.087Y292.666
G1 X100.193Y292.802
G1 X100.318Y292.916
G1 X100.46Y293.007
G1 X100.615Y293.072
G1 X100.78Y293.111
G1 X100.952Y293.121
G1 X101.126Y293.101
G1 X101.294Y293.051
G1 X101.447Y292.974
G1 X101.583Y292.874
G1 X101.7Y292.753
G1 X101.795Y292.615
G1 X101.866Y292.461
G1 X101.91Y292.296
G1 X101.925Y292.121
G0 X99.918Y301.24
; Layer C00 Pass 1 of 3
G1 X86.329Y303.636
G1 X83.933Y290.046
G1 X97.522Y287.65
G1 X99.918Y301.24
; Layer C00 Pass 2 of 3
G1 X86.329Y303.636
G1 X83.933Y290.046
G1 X97.522Y287.65
G1 X99.918Y301.24
; Layer C00 Pass 3 of 3
G1 X86.329Y303.636
G1 X83.933Y290.046
G1 X97.522Y287.65
G1 X99.918Y301.24
G0 X105.867Y305.026
; Layer C00 Pass 1 of 3
G1 X119.457Y302.631
G1 X117.061Y289.041
G1 X103.471Y291.437
G1 X105.867Y305.026
; Layer C00 Pass 2 of 3
G1 X119.457Y302.631
G1 X117.061Y289.041
G1 X103.471Y291.437
G1 X105.867Y305.026
; Layer C00 Pass 3 of 3
G1 X119.457Y302.631
G1 X117.061Y289.041
G1 X103.471Y291.437
G1 X105.867Y305.026
G0 X123.751Y297.037
; Layer C00 Pass 1 of 3
G1 X137.341Y294.641
G1 X134.945Y281.051
G1 X121.355Y283.447
G1 X123.751Y297.037
; Layer C00 Pass 2 of 3
G1 X137.341Y294.641
G1 X134.945Y281.051
G1 X121.355Y283.447
G1 X123.751Y297.037
; Layer C00 Pass 3 of 3
G1 X137.341Y294.641
G1 X134.945Y281.051
G1 X121.355Y283.447
G1 X123.751Y297.037
G0 X141.636Y289.048
; Layer C00 Pass 1 of 3
G1 X155.226Y286.652
G1 X152.83Y273.062
G1 X139.24Y275.458
G1 X141.636Y289.048
; Layer C00 Pass 2 of 3
G1 X155.226Y286.652
G1 X152.83Y273.062
G1 X139.24Y275.458
G1 X141.636Y289.048
; Layer C00 Pass 3 of 3
G1 X155.226Y286.652
G1 X152.83Y273.062
G1 X139.24Y275.458
G1 X141.636Y289.048
G0 X142.817Y305.134
; Layer C00 Pass 1 of 3
G1 X142.784Y304.953
G1 X142.72Y304.784
G1 X142.627Y304.63
G1 X142.508Y304.495
G1 X142.366Y304.383
G1 X142.203Y304.297
G1 X142.023Y304.242
G1 X141.923Y304.227
G1 X141.822Y304.222
G1 X141.721Y304.227
G1 X141.621Y304.242
G1 X141.433Y304.301
G1 X141.261Y304.394
G1 X141.111Y304.518
G1 X140.987Y304.671
G1 X140.895Y304.845
G1 X140.84Y305.032
G1 X140.822Y305.227
G1 X140.843Y305.422
G1 X140.893Y305.59
G1 X140.969Y305.744
G1 X141.069Y305.88
G1 X141.19Y305.997
G1 X141.328Y306.091
G1 X141.482Y306.162
G1 X141.647Y306.206
G1 X141.822Y306.221
G1 X142.01Y306.203
G1 X142.186Y306.152
G1 X142.348Y306.071
G1 X142.492Y305.963
G1 X142.614Y305.831
G1 X142.711Y305.678
G1 X142.779Y305.508
G1 X142.816Y305.323
G1 Y305.134
; Layer C00 Pass 2 of 3
G1 X142.784Y304.953
G1 X142.72Y304.784
G1 X142.627Y304.63
G1 X142.508Y304.495
G1 X142.366Y304.383
G1 X142.203Y304.297
G1 X142.023Y304.242
G1 X141.923Y304.227
G1 X141.822Y304.222
G1 X141.721Y304.227
G1 X141.621Y304.242
G1 X141.433Y304.301
G1 X141.261Y304.394
G1 X141.111Y304.518
G1 X140.987Y304.671
G1 X140.895Y304.845
G1 X140.84Y305.032
G1 X140.822Y305.227
G1 X140.843Y305.422
G1 X140.893Y305.59
G1 X140.969Y305.744
G1 X141.069Y305.88
G1 X141.19Y305.997
G1 X141.328Y306.091
G1 X141.482Y306.162
G1 X141.647Y306.206
G1 X141.822Y306.221
G1 X142.01Y306.203
G1 X142.186Y306.152
G1 X142.348Y306.071
G1 X142.492Y305.963
G1 X142.614Y305.831
G1 X142.711Y305.678
G1 X142.779Y305.508
G1 X142.816Y305.323
G1 Y305.134
; Layer C00 Pass 3 of 3
G1 X142.784Y304.953
G1 X142.72Y304.784
G1 X142.627Y304.63
G1 X142.508Y304.495
G1 X142.366Y304.383
G1 X142.203Y304.297
G1 X142.023Y304.242
G1 X141.923Y304.227
G1 X141.822Y304.222
G1 X141.721Y304.227
G1 X141.621Y304.242
G1 X141.433Y304.301
G1 X141.261Y304.394
G1 X141.111Y304.518
G1 X140.987Y304.671
G1 X140.895Y304.845
G1 X140.84Y305.032
G1 X140.822Y305.227
G1 X140.843Y305.422
G1 X140.893Y305.59
G1 X140.969Y305.744
G1 X141.069Y305.88
G1 X141.19Y305.997
G1 X141.328Y306.091
G1 X141.482Y306.162
G1 X141.647Y306.206
G1 X141.822Y306.221
G1 X142.01Y306.203
G1 X142.186Y306.152
G1 X142.348Y306.071
G1 X142.492Y305.963
G1 X142.614Y305.831
G1 X142.711Y305.678
G1 X142.779Y305.508
G1 X142.816Y305.323
G1 Y305.134
G0 X140.649Y313.402
; Layer C00 Pass 1 of 3
G1 X127.059Y315.798
G1 X124.663Y302.208
G1 X138.253Y299.812
G1 X140.649Y313.402
; Layer C00 Pass 2 of 3
G1 X127.059Y315.798
G1 X124.663Y302.208
G1 X138.253Y299.812
G1 X140.649Y313.402
; Layer C00 Pass 3 of 3
G1 X127.059Y315.798
G1 X124.663Y302.208
G1 X138.253Y299.812
G1 X140.649Y313.402
G0 X158.534Y305.412
; Layer C00 Pass 1 of 3
G1 X156.138Y291.822
G1 X142.548Y294.218
G1 X144.943Y307.808
G1 X158.534Y305.412
; Layer C00 Pass 2 of 3
G1 X156.138Y291.822
G1 X142.548Y294.218
G1 X144.943Y307.808
G1 X158.534Y305.412
; Layer C00 Pass 3 of 3
G1 X156.138Y291.822
G1 X142.548Y294.218
G1 X144.943Y307.808
G1 X158.534Y305.412
G0 X109.175Y323.787
; Layer C00 Pass 1 of 3
G1 X122.765Y321.391
G1 X120.369Y307.801
G1 X106.779Y310.197
G1 X109.175Y323.787
; Layer C00 Pass 2 of 3
G1 X122.765Y321.391
G1 X120.369Y307.801
G1 X106.779Y310.197
G1 X109.175Y323.787
; Layer C00 Pass 3 of 3
G1 X122.765Y321.391
G1 X120.369Y307.801
G1 X106.779Y310.197
G1 X109.175Y323.787
G0 X103.227Y320
; Layer C00 Pass 1 of 3
G1 X100.831Y306.41
G1 X87.241Y308.806
G1 X89.637Y322.396
G1 X103.227Y320
; Layer C00 Pass 2 of 3
G1 X100.831Y306.41
G1 X87.241Y308.806
G1 X89.637Y322.396
G1 X103.227Y320
; Layer C00 Pass 3 of 3
G1 X100.831Y306.41
G1 X87.241Y308.806
G1 X89.637Y322.396
G1 X103.227Y320
G0 X80.38Y299.849
; Layer C00 Pass 1 of 3
G1 X66.79Y302.245
G1 X64.394Y288.655
G1 X77.984Y286.259
G1 X80.38Y299.849
; Layer C00 Pass 2 of 3
G1 X66.79Y302.245
G1 X64.394Y288.655
G1 X77.984Y286.259
G1 X80.38Y299.849
; Layer C00 Pass 3 of 3
G1 X66.79Y302.245
G1 X64.394Y288.655
G1 X77.984Y286.259
G1 X80.38Y299.849
G0 X64.668Y299.658
; Layer C00 Pass 1 of 3
G1 X64.653Y299.484
G1 X64.609Y299.318
G1 X64.538Y299.165
G1 X64.443Y299.026
G1 X64.327Y298.906
G1 X64.191Y298.805
G1 X64.037Y298.729
G1 X63.87Y298.679
G1 X63.769Y298.664
G1 X63.668Y298.659
G1 X63.567Y298.664
G1 X63.467Y298.679
G1 X63.274Y298.74
G1 X63.102Y298.835
G1 X62.954Y298.959
G1 X62.834Y299.108
G1 X62.744Y299.278
G1 X62.688Y299.463
G1 X62.669Y299.658
G1 X62.689Y299.859
G1 X62.75Y300.052
G1 X62.845Y300.224
G1 X62.969Y300.372
G1 X63.119Y300.492
G1 X63.288Y300.582
G1 X63.473Y300.638
G1 X63.668Y300.658
G1 X63.869Y300.637
G1 X64.037Y300.587
G1 X64.19Y300.511
G1 X64.326Y300.411
G1 X64.443Y300.29
G1 X64.538Y300.151
G1 X64.609Y299.998
G1 X64.653Y299.833
G1 X64.668Y299.658
; Layer C00 Pass 2 of 3
G1 X64.653Y299.484
G1 X64.609Y299.318
G1 X64.538Y299.165
G1 X64.443Y299.026
G1 X64.327Y298.906
G1 X64.191Y298.805
G1 X64.037Y298.729
G1 X63.87Y298.679
G1 X63.769Y298.664
G1 X63.668Y298.659
G1 X63.567Y298.664
G1 X63.467Y298.679
G1 X63.274Y298.74
G1 X63.102Y298.835
G1 X62.954Y298.959
G1 X62.834Y299.108
G1 X62.744Y299.278
G1 X62.688Y299.463
G1 X62.669Y299.658
G1 X62.689Y299.859
G1 X62.75Y300.052
G1 X62.845Y300.224
G1 X62.969Y300.372
G1 X63.119Y300.492
G1 X63.288Y300.582
G1 X63.473Y300.638
G1 X63.668Y300.658
G1 X63.869Y300.637
G1 X64.037Y300.587
G1 X64.19Y300.511
G1 X64.326Y300.411
G1 X64.443Y300.29
G1 X64.538Y300.151
G1 X64.609Y299.998
G1 X64.653Y299.833
G1 X64.668Y299.658
; Layer C00 Pass 3 of 3
G1 X64.653Y299.484
G1 X64.609Y299.318
G1 X64.538Y299.165
G1 X64.443Y299.026
G1 X64.327Y298.906
G1 X64.191Y298.805
G1 X64.037Y298.729
G1 X63.87Y298.679
G1 X63.769Y298.664
G1 X63.668Y298.659
G1 X63.567Y298.664
G1 X63.467Y298.679
G1 X63.274Y298.74
G1 X63.102Y298.835
G1 X62.954Y298.959
G1 X62.834Y299.108
G1 X62.744Y299.278
G1 X62.688Y299.463
G1 X62.669Y299.658
G1 X62.689Y299.859
G1 X62.75Y300.052
G1 X62.845Y300.224
G1 X62.969Y300.372
G1 X63.119Y300.492
G1 X63.288Y300.582
G1 X63.473Y300.638
G1 X63.668Y300.658
G1 X63.869Y300.637
G1 X64.037Y300.587
G1 X64.19Y300.511
G1 X64.326Y300.411
G1 X64.443Y300.29
G1 X64.538Y300.151
G1 X64.609Y299.998
G1 X64.653Y299.833
G1 X64.668Y299.658
G0 X48.079Y305.544
; Layer C00 Pass 1 of 3
G1 X61.669Y303.148
G1 X59.273Y289.558
G1 X45.683Y291.954
G1 X48.079Y305.544
; Layer C00 Pass 2 of 3
G1 X61.669Y303.148
G1 X59.273Y289.558
G1 X45.683Y291.954
G1 X48.079Y305.544
; Layer C00 Pass 3 of 3
G1 X61.669Y303.148
G1 X59.273Y289.558
G1 X45.683Y291.954
G1 X48.079Y305.544
G0 X58.361Y284.388
; Layer C00 Pass 1 of 3
G1 X44.771Y286.784
G1 X42.375Y273.193
G1 X55.965Y270.798
G1 X58.361Y284.388
; Layer C00 Pass 2 of 3
G1 X44.771Y286.784
G1 X42.375Y273.193
G1 X55.965Y270.798
G1 X58.361Y284.388
; Layer C00 Pass 3 of 3
G1 X44.771Y286.784
G1 X42.375Y273.193
G1 X55.965Y270.798
G1 X58.361Y284.388
G0 X60.037Y273.393
; Layer C00 Pass 1 of 3
G1 X60.022Y273.219
G1 X59.977Y273.054
G1 X59.907Y272.9
G1 X59.812Y272.762
G1 X59.695Y272.641
G1 X59.559Y272.541
G1 X59.406Y272.464
G1 X59.238Y272.414
G1 X59.138Y272.399
G1 X59.036Y272.394
G1 X58.935Y272.399
G1 X58.834Y272.414
G1 X58.641Y272.475
G1 X58.47Y272.57
G1 X58.322Y272.694
G1 X58.202Y272.844
G1 X58.113Y273.013
G1 X58.057Y273.198
G1 X58.038Y273.393
G1 X58.058Y273.594
G1 X58.119Y273.787
G1 X58.213Y273.959
G1 X58.338Y274.107
G1 X58.487Y274.227
G1 X58.656Y274.317
G1 X58.841Y274.373
G1 X59.037Y274.393
G1 X59.238Y274.372
G1 X59.406Y274.322
G1 X59.559Y274.246
G1 X59.695Y274.146
G1 X59.812Y274.025
G1 X59.907Y273.887
G1 X59.978Y273.733
G1 X60.022Y273.568
G1 X60.037Y273.393
; Layer C00 Pass 2 of 3
G1 X60.022Y273.219
G1 X59.977Y273.054
G1 X59.907Y272.9
G1 X59.812Y272.762
G1 X59.695Y272.641
G1 X59.559Y272.541
G1 X59.406Y272.464
G1 X59.238Y272.414
G1 X59.138Y272.399
G1 X59.036Y272.394
G1 X58.935Y272.399
G1 X58.834Y272.414
G1 X58.641Y272.475
G1 X58.47Y272.57
G1 X58.322Y272.694
G1 X58.202Y272.844
G1 X58.113Y273.013
G1 X58.057Y273.198
G1 X58.038Y273.393
G1 X58.058Y273.594
G1 X58.119Y273.787
G1 X58.213Y273.959
G1 X58.338Y274.107
G1 X58.487Y274.227
G1 X58.656Y274.317
G1 X58.841Y274.373
G1 X59.037Y274.393
G1 X59.238Y274.372
G1 X59.406Y274.322
G1 X59.559Y274.246
G1 X59.695Y274.146
G1 X59.812Y274.025
G1 X59.907Y273.887
G1 X59.978Y273.733
G1 X60.022Y273.568
G1 X60.037Y273.393
; Layer C00 Pass 3 of 3
G1 X60.022Y273.219
G1 X59.977Y273.054
G1 X59.907Y272.9
G1 X59.812Y272.762
G1 X59.695Y272.641
G1 X59.559Y272.541
G1 X59.406Y272.464
G1 X59.238Y272.414
G1 X59.138Y272.399
G1 X59.036Y272.394
G1 X58.935Y272.399
G1 X58.834Y272.414
G1 X58.641Y272.475
G1 X58.47Y272.57
G1 X58.322Y272.694
G1 X58.202Y272.844
G1 X58.113Y273.013
G1 X58.057Y273.198
G1 X58.038Y273.393
G1 X58.058Y273.594
G1 X58.119Y273.787
G1 X58.213Y273.959
G1 X58.338Y274.107
G1 X58.487Y274.227
G1 X58.656Y274.317
G1 X58.841Y274.373
G1 X59.037Y274.393
G1 X59.238Y274.372
G1 X59.406Y274.322
G1 X59.559Y274.246
G1 X59.695Y274.146
G1 X59.812Y274.025
G1 X59.907Y273.887
G1 X59.978Y273.733
G1 X60.022Y273.568
G1 X60.037Y273.393
G0 X77.072Y281.088
; Layer C00 Pass 1 of 3
G1 X74.676Y267.499
G1 X61.086Y269.894
G1 X63.482Y283.484
G1 X77.072Y281.088
; Layer C00 Pass 2 of 3
G1 X74.676Y267.499
G1 X61.086Y269.894
G1 X63.482Y283.484
G1 X77.072Y281.088
; Layer C00 Pass 3 of 3
G1 X74.676Y267.499
G1 X61.086Y269.894
G1 X63.482Y283.484
G1 X77.072Y281.088
G0 X83.021Y284.875
; Layer C00 Pass 1 of 3
G1 X96.61Y282.479
G1 X94.215Y268.889
G1 X80.625Y271.285
G1 X83.021Y284.875
; Layer C00 Pass 2 of 3
G1 X96.61Y282.479
G1 X94.215Y268.889
G1 X80.625Y271.285
G1 X83.021Y284.875
; Layer C00 Pass 3 of 3
G1 X96.61Y282.479
G1 X94.215Y268.889
G1 X80.625Y271.285
G1 X83.021Y284.875
G0 X190.424Y229.77
; Layer C00 Pass 1 of 3
G1 X190.409Y229.595
G1 X190.365Y229.43
G1 X190.294Y229.277
G1 X190.199Y229.138
G1 X190.083Y229.017
G1 X189.947Y228.917
G1 X189.794Y228.841
G1 X189.626Y228.791
G1 X189.476Y228.77
G1 X189.326Y228.773
G1 X189.178Y228.8
G1 X189.035Y228.85
G1 X188.858Y228.947
G1 X188.708Y229.074
G1 X188.588Y229.225
G1 X188.499Y229.395
G1 X188.444Y229.579
G1 X188.425Y229.771
G1 X188.445Y229.966
G1 X188.504Y230.16
G1 X188.587Y230.315
G1 X188.692Y230.451
G1 X188.818Y230.565
G1 X188.96Y230.655
G1 X189.115Y230.721
G1 X189.28Y230.76
G1 X189.451Y230.77
G1 X189.626Y230.749
G1 X189.794Y230.699
G1 X189.947Y230.622
G1 X190.083Y230.522
G1 X190.199Y230.401
G1 X190.294Y230.263
G1 X190.365Y230.109
G1 X190.409Y229.944
G1 X190.424Y229.77
; Layer C00 Pass 2 of 3
G1 X190.409Y229.595
G1 X190.365Y229.43
G1 X190.294Y229.277
G1 X190.199Y229.138
G1 X190.083Y229.017
G1 X189.947Y228.917
G1 X189.794Y228.841
G1 X189.626Y228.791
G1 X189.476Y228.77
G1 X189.326Y228.773
G1 X189.178Y228.8
G1 X189.035Y228.85
G1 X188.858Y228.947
G1 X188.708Y229.074
G1 X188.588Y229.225
G1 X188.499Y229.395
G1 X188.444Y229.579
G1 X188.425Y229.771
G1 X188.445Y229.966
G1 X188.504Y230.16
G1 X188.587Y230.315
G1 X188.692Y230.451
G1 X188.818Y230.565
G1 X188.96Y230.655
G1 X189.115Y230.721
G1 X189.28Y230.76
G1 X189.451Y230.77
G1 X189.626Y230.749
G1 X189.794Y230.699
G1 X189.947Y230.622
G1 X190.083Y230.522
G1 X190.199Y230.401
G1 X190.294Y230.263
G1 X190.365Y230.109
G1 X190.409Y229.944
G1 X190.424Y229.77
; Layer C00 Pass 3 of 3
G1 X190.409Y229.595
G1 X190.365Y229.43
G1 X190.294Y229.277
G1 X190.199Y229.138
G1 X190.083Y229.017
G1 X189.947Y228.917
G1 X189.794Y228.841
G1 X189.626Y228.791
G1 X189.476Y228.77
G1 X189.326Y228.773
G1 X189.178Y228.8
G1 X189.035Y228.85
G1 X188.858Y228.947
G1 X188.708Y229.074
G1 X188.588Y229.225
G1 X188.499Y229.395
G1 X188.444Y229.579
G1 X188.425Y229.771
G1 X188.445Y229.966
G1 X188.504Y230.16
G1 X188.587Y230.315
G1 X188.692Y230.451
G1 X188.818Y230.565
G1 X188.96Y230.655
G1 X189.115Y230.721
G1 X189.28Y230.76
G1 X189.451Y230.77
G1 X189.626Y230.749
G1 X189.794Y230.699
G1 X189.947Y230.622
G1 X190.083Y230.522
G1 X190.199Y230.401
G1 X190.294Y230.263
G1 X190.365Y230.109
G1 X190.409Y229.944
G1 X190.424Y229.77
G0 X229.611Y238.997
; Layer C00 Pass 1 of 3
G1 X217.208Y232.947
G1 X223.257Y220.543
G1 X235.661Y226.593
G1 X229.611Y238.997
; Layer C00 Pass 2 of 3
G1 X217.208Y232.947
G1 X223.257Y220.543
G1 X235.661Y226.593
G1 X229.611Y238.997
; Layer C00 Pass 3 of 3
G1 X217.208Y232.947
G1 X223.257Y220.543
G1 X235.661Y226.593
G1 X229.611Y238.997
G0 X236.411Y245.894
; Layer C00 Pass 1 of 3
G1 X239.982Y232.564
G1 X253.312Y236.136
G1 X249.74Y249.465
G1 X236.411Y245.894
; Layer C00 Pass 2 of 3
G1 X239.982Y232.564
G1 X253.312Y236.136
G1 X249.74Y249.465
G1 X236.411Y245.894
; Layer C00 Pass 3 of 3
G1 X239.982Y232.564
G1 X253.312Y236.136
G1 X249.74Y249.465
G1 X236.411Y245.894
G0 X245.967Y260.196
; Layer C00 Pass 1 of 3
G1 X245.952Y260.021
G1 X245.907Y259.856
G1 X245.837Y259.702
G1 X245.742Y259.564
G1 X245.625Y259.443
G1 X245.489Y259.343
G1 X245.335Y259.267
G1 X245.167Y259.217
G1 X245.018Y259.198
G1 X244.868Y259.202
G1 X244.721Y259.227
G1 X244.578Y259.275
G1 X244.423Y259.357
G1 X244.287Y259.462
G1 X244.173Y259.588
G1 X244.083Y259.73
G1 X244.017Y259.885
G1 X243.978Y260.05
G1 X243.968Y260.222
G1 X243.987Y260.396
G1 X244.047Y260.59
G1 X244.142Y260.762
G1 X244.266Y260.909
G1 X244.416Y261.03
G1 X244.585Y261.119
G1 X244.77Y261.176
G1 X244.966Y261.195
G1 X245.167Y261.175
G1 X245.335Y261.125
G1 X245.489Y261.048
G1 X245.625Y260.948
G1 X245.742Y260.827
G1 X245.837Y260.689
G1 X245.907Y260.535
G1 X245.952Y260.37
G1 X245.967Y260.196
; Layer C00 Pass 2 of 3
G1 X245.952Y260.021
G1 X245.907Y259.856
G1 X245.837Y259.702
G1 X245.742Y259.564
G1 X245.625Y259.443
G1 X245.489Y259.343
G1 X245.335Y259.267
G1 X245.167Y259.217
G1 X245.018Y259.198
G1 X244.868Y259.202
G1 X244.721Y259.227
G1 X244.578Y259.275
G1 X244.423Y259.357
G1 X244.287Y259.462
G1 X244.173Y259.588
G1 X244.083Y259.73
G1 X244.017Y259.885
G1 X243.978Y260.05
G1 X243.968Y260.222
G1 X243.987Y260.396
G1 X244.047Y260.59
G1 X244.142Y260.762
G1 X244.266Y260.909
G1 X244.416Y261.03
G1 X244.585Y261.119
G1 X244.77Y261.176
G1 X244.966Y261.195
G1 X245.167Y261.175
G1 X245.335Y261.125
G1 X245.489Y261.048
G1 X245.625Y260.948
G1 X245.742Y260.827
G1 X245.837Y260.689
G1 X245.907Y260.535
G1 X245.952Y260.37
G1 X245.967Y260.196
; Layer C00 Pass 3 of 3
G1 X245.952Y260.021
G1 X245.907Y259.856
G1 X245.837Y259.702
G1 X245.742Y259.564
G1 X245.625Y259.443
G1 X245.489Y259.343
G1 X245.335Y259.267
G1 X245.167Y259.217
G1 X245.018Y259.198
G1 X244.868Y259.202
G1 X244.721Y259.227
G1 X244.578Y259.275
G1 X244.423Y259.357
G1 X244.287Y259.462
G1 X244.173Y259.588
G1 X244.083Y259.73
G1 X244.017Y259.885
G1 X243.978Y260.05
G1 X243.968Y260.222
G1 X243.987Y260.396
G1 X244.047Y260.59
G1 X244.142Y260.762
G1 X244.266Y260.909
G1 X244.416Y261.03
G1 X244.585Y261.119
G1 X244.77Y261.176
G1 X244.966Y261.195
G1 X245.167Y261.175
G1 X245.335Y261.125
G1 X245.489Y261.048
G1 X245.625Y260.948
G1 X245.742Y260.827
G1 X245.837Y260.689
G1 X245.907Y260.535
G1 X245.952Y260.37
G1 X245.967Y260.196
G0 X240.521Y270.287
; Layer C00 Pass 1 of 3
G1 X226.932Y267.891
G1 X229.328Y254.301
G1 X242.917Y256.697
G1 X240.521Y270.287
; Layer C00 Pass 2 of 3
G1 X226.932Y267.891
G1 X229.328Y254.301
G1 X242.917Y256.697
G1 X240.521Y270.287
; Layer C00 Pass 3 of 3
G1 X226.932Y267.891
G1 X229.328Y254.301
G1 X242.917Y256.697
G1 X240.521Y270.287
G0 X244.816Y275.88
; Layer C00 Pass 1 of 3
G1 X247.212Y262.291
G1 X260.802Y264.687
G1 X258.406Y278.276
G1 X244.816Y275.88
; Layer C00 Pass 2 of 3
G1 X247.212Y262.291
G1 X260.802Y264.687
G1 X258.406Y278.276
G1 X244.816Y275.88
; Layer C00 Pass 3 of 3
G1 X247.212Y262.291
G1 X260.802Y264.687
G1 X258.406Y278.276
G1 X244.816Y275.88
G0 X262.7Y283.87
; Layer C00 Pass 1 of 3
G1 X265.096Y270.28
G1 X278.687Y272.676
G1 X276.291Y286.266
G1 X262.7Y283.87
; Layer C00 Pass 2 of 3
G1 X265.096Y270.28
G1 X278.687Y272.676
G1 X276.291Y286.266
G1 X262.7Y283.87
; Layer C00 Pass 3 of 3
G1 X265.096Y270.28
G1 X278.687Y272.676
G1 X276.291Y286.266
G1 X262.7Y283.87
G0 X282.239Y282.479
; Layer C00 Pass 1 of 3
G1 X284.635Y268.889
G1 X298.225Y271.285
G1 X295.829Y284.875
G1 X282.239Y282.479
; Layer C00 Pass 2 of 3
G1 X284.635Y268.889
G1 X298.225Y271.285
G1 X295.829Y284.875
G1 X282.239Y282.479
; Layer C00 Pass 3 of 3
G1 X284.635Y268.889
G1 X298.225Y271.285
G1 X295.829Y284.875
G1 X282.239Y282.479
G0 X278.918Y292.034
; Layer C00 Pass 1 of 3
G1 X278.885Y291.853
G1 X278.821Y291.684
G1 X278.728Y291.53
G1 X278.61Y291.395
G1 X278.467Y291.283
G1 X278.305Y291.198
G1 X278.125Y291.143
G1 X277.975Y291.124
G1 X277.824Y291.127
G1 X277.677Y291.153
G1 X277.534Y291.201
G1 X277.379Y291.283
G1 X277.243Y291.389
G1 X277.13Y291.514
G1 X277.04Y291.656
G1 X276.974Y291.812
G1 X276.935Y291.977
G1 X276.925Y292.148
G1 X276.944Y292.323
G1 X276.994Y292.49
G1 X277.071Y292.643
G1 X277.171Y292.779
G1 X277.292Y292.896
G1 X277.43Y292.991
G1 X277.584Y293.061
G1 X277.749Y293.105
G1 X277.923Y293.121
G1 X278.111Y293.103
G1 X278.288Y293.052
G1 X278.449Y292.971
G1 X278.593Y292.863
G1 X278.715Y292.731
G1 X278.812Y292.578
G1 X278.88Y292.408
G1 X278.917Y292.223
G1 Y292.034
; Layer C00 Pass 2 of 3
G1 X278.885Y291.853
G1 X278.821Y291.684
G1 X278.728Y291.53
G1 X278.61Y291.395
G1 X278.467Y291.283
G1 X278.305Y291.198
G1 X278.125Y291.143
G1 X277.975Y291.124
G1 X277.824Y291.127
G1 X277.677Y291.153
G1 X277.534Y291.201
G1 X277.379Y291.283
G1 X277.243Y291.389
G1 X277.13Y291.514
G1 X277.04Y291.656
G1 X276.974Y291.812
G1 X276.935Y291.977
G1 X276.925Y292.148
G1 X276.944Y292.323
G1 X276.994Y292.49
G1 X277.071Y292.643
G1 X277.171Y292.779
G1 X277.292Y292.896
G1 X277.43Y292.991
G1 X277.584Y293.061
G1 X277.749Y293.105
G1 X277.923Y293.121
G1 X278.111Y293.103
G1 X278.288Y293.052
G1 X278.449Y292.971
G1 X278.593Y292.863
G1 X278.715Y292.731
G1 X278.812Y292.578
G1 X278.88Y292.408
G1 X278.917Y292.223
G1 Y292.034
; Layer C00 Pass 3 of 3
G1 X278.885Y291.853
G1 X278.821Y291.684
G1 X278.728Y291.53
G1 X278.61Y291.395
G1 X278.467Y291.283
G1 X278.305Y291.198
G1 X278.125Y291.143
G1 X277.975Y291.124
G1 X277.824Y291.127
G1 X277.677Y291.153
G1 X277.534Y291.201
G1 X277.379Y291.283
G1 X277.243Y291.389
G1 X277.13Y291.514
G1 X277.04Y291.656
G1 X276.974Y291.812
G1 X276.935Y291.977
G1 X276.925Y292.148
G1 X276.944Y292.323
G1 X276.994Y292.49
G1 X277.071Y292.643
G1 X277.171Y292.779
G1 X277.292Y292.896
G1 X277.43Y292.991
G1 X277.584Y293.061
G1 X277.749Y293.105
G1 X277.923Y293.121
G1 X278.111Y293.103
G1 X278.288Y293.052
G1 X278.449Y292.971
G1 X278.593Y292.863
G1 X278.715Y292.731
G1 X278.812Y292.578
G1 X278.88Y292.408
G1 X278.917Y292.223
G1 Y292.034
G0 X292.521Y303.636
; Layer C00 Pass 1 of 3
G1 X278.931Y301.24
G1 X281.327Y287.65
G1 X294.917Y290.046
G1 X292.521Y303.636
; Layer C00 Pass 2 of 3
G1 X278.931Y301.24
G1 X281.327Y287.65
G1 X294.917Y290.046
G1 X292.521Y303.636
; Layer C00 Pass 3 of 3
G1 X278.931Y301.24
G1 X281.327Y287.65
G1 X294.917Y290.046
G1 X292.521Y303.636
G0 X298.469Y299.849
; Layer C00 Pass 1 of 3
G1 X300.865Y286.259
G1 X314.455Y288.655
G1 X312.059Y302.245
G1 X298.469Y299.849
; Layer C00 Pass 2 of 3
G1 X300.865Y286.259
G1 X314.455Y288.655
G1 X312.059Y302.245
G1 X298.469Y299.849
; Layer C00 Pass 3 of 3
G1 X300.865Y286.259
G1 X314.455Y288.655
G1 X312.059Y302.245
G1 X298.469Y299.849
G0 X316.179Y299.658
; Layer C00 Pass 1 of 3
G1 X316.164Y299.484
G1 X316.12Y299.318
G1 X316.049Y299.165
G1 X315.955Y299.026
G1 X315.838Y298.905
G1 X315.703Y298.805
G1 X315.55Y298.729
G1 X315.382Y298.679
G1 X315.183Y298.659
G1 X314.987Y298.678
G1 X314.797Y298.736
G1 X314.622Y298.83
G1 X314.485Y298.941
G1 X314.372Y299.071
G1 X314.285Y299.217
G1 X314.223Y299.374
G1 X314.189Y299.54
G1 X314.183Y299.709
G1 X314.206Y299.88
G1 X314.26Y300.048
G1 X314.342Y300.203
G1 X314.448Y300.339
G1 X314.573Y300.453
G1 X314.715Y300.544
G1 X314.87Y300.609
G1 X315.035Y300.648
G1 X315.207Y300.658
G1 X315.381Y300.637
G1 X315.549Y300.587
G1 X315.702Y300.511
G1 X315.838Y300.411
G1 X315.954Y300.29
G1 X316.049Y300.151
G1 X316.12Y299.998
G1 X316.164Y299.832
G1 X316.179Y299.658
; Layer C00 Pass 2 of 3
G1 X316.164Y299.484
G1 X316.12Y299.318
G1 X316.049Y299.165
G1 X315.955Y299.026
G1 X315.838Y298.905
G1 X315.703Y298.805
G1 X315.55Y298.729
G1 X315.382Y298.679
G1 X315.183Y298.659
G1 X314.987Y298.678
G1 X314.797Y298.736
G1 X314.622Y298.83
G1 X314.485Y298.941
G1 X314.372Y299.071
G1 X314.285Y299.217
G1 X314.223Y299.374
G1 X314.189Y299.54
G1 X314.183Y299.709
G1 X314.206Y299.88
G1 X314.26Y300.048
G1 X314.342Y300.203
G1 X314.448Y300.339
G1 X314.573Y300.453
G1 X314.715Y300.544
G1 X314.87Y300.609
G1 X315.035Y300.648
G1 X315.207Y300.658
G1 X315.381Y300.637
G1 X315.549Y300.587
G1 X315.702Y300.511
G1 X315.838Y300.411
G1 X315.954Y300.29
G1 X316.049Y300.151
G1 X316.12Y299.998
G1 X316.164Y299.832
G1 X316.179Y299.658
; Layer C00 Pass 3 of 3
G1 X316.164Y299.484
G1 X316.12Y299.318
G1 X316.049Y299.165
G1 X315.955Y299.026
G1 X315.838Y298.905
G1 X315.703Y298.805
G1 X315.55Y298.729
G1 X315.382Y298.679
G1 X315.183Y298.659
G1 X314.987Y298.678
G1 X314.797Y298.736
G1 X314.622Y298.83
G1 X314.485Y298.941
G1 X314.372Y299.071
G1 X314.285Y299.217
G1 X314.223Y299.374
G1 X314.189Y299.54
G1 X314.183Y299.709
G1 X314.206Y299.88
G1 X314.26Y300.048
G1 X314.342Y300.203
G1 X314.448Y300.339
G1 X314.573Y300.453
G1 X314.715Y300.544
G1 X314.87Y300.609
G1 X315.035Y300.648
G1 X315.207Y300.658
G1 X315.381Y300.637
G1 X315.549Y300.587
G1 X315.702Y300.511
G1 X315.838Y300.411
G1 X315.954Y300.29
G1 X316.049Y300.151
G1 X316.12Y299.998
G1 X316.164Y299.832
G1 X316.179Y299.658
G0 X330.771Y305.544
; Layer C00 Pass 1 of 3
G1 X317.18Y303.148
G1 X319.576Y289.558
G1 X333.167Y291.954
G1 X330.771Y305.544
; Layer C00 Pass 2 of 3
G1 X317.18Y303.148
G1 X319.576Y289.558
G1 X333.167Y291.954
G1 X330.771Y305.544
; Layer C00 Pass 3 of 3
G1 X317.18Y303.148
G1 X319.576Y289.558
G1 X333.167Y291.954
G1 X330.771Y305.544
G0 X320.488Y284.388
; Layer C00 Pass 1 of 3
G1 X334.079Y286.784
G1 X336.474Y273.193
G1 X322.884Y270.798
G1 X320.488Y284.388
; Layer C00 Pass 2 of 3
G1 X334.079Y286.784
G1 X336.474Y273.193
G1 X322.884Y270.798
G1 X320.488Y284.388
; Layer C00 Pass 3 of 3
G1 X334.079Y286.784
G1 X336.474Y273.193
G1 X322.884Y270.798
G1 X320.488Y284.388
G0 X315.367Y283.484
; Layer C00 Pass 1 of 3
G1 X301.777Y281.088
G1 X304.173Y267.499
G1 X317.763Y269.894
G1 X315.367Y283.484
; Layer C00 Pass 2 of 3
G1 X301.777Y281.088
G1 X304.173Y267.499
G1 X317.763Y269.894
G1 X315.367Y283.484
; Layer C00 Pass 3 of 3
G1 X301.777Y281.088
G1 X304.173Y267.499
G1 X317.763Y269.894
G1 X315.367Y283.484
G0 X320.811Y273.393
; Layer C00 Pass 1 of 3
G1 X320.795Y273.218
G1 X320.751Y273.053
G1 X320.681Y272.9
G1 X320.586Y272.761
G1 X320.47Y272.64
G1 X320.334Y272.54
G1 X320.181Y272.464
G1 X320.013Y272.414
G1 X319.863Y272.394
G1 X319.713Y272.398
G1 X319.564Y272.425
G1 X319.421Y272.473
G1 X319.244Y272.571
G1 X319.094Y272.698
G1 X318.974Y272.849
G1 X318.886Y273.018
G1 X318.832Y273.202
G1 X318.813Y273.394
G1 X318.832Y273.589
G1 X318.892Y273.783
G1 X318.973Y273.939
G1 X319.078Y274.075
G1 X319.204Y274.189
G1 X319.346Y274.28
G1 X319.501Y274.345
G1 X319.667Y274.384
G1 X319.839Y274.393
G1 X320.013Y274.372
G1 X320.181Y274.322
G1 X320.334Y274.245
G1 X320.47Y274.145
G1 X320.586Y274.024
G1 X320.681Y273.886
G1 X320.751Y273.732
G1 X320.795Y273.567
G1 X320.811Y273.393
; Layer C00 Pass 2 of 3
G1 X320.795Y273.218
G1 X320.751Y273.053
G1 X320.681Y272.9
G1 X320.586Y272.761
G1 X320.47Y272.64
G1 X320.334Y272.54
G1 X320.181Y272.464
G1 X320.013Y272.414
G1 X319.863Y272.394
G1 X319.713Y272.398
G1 X319.564Y272.425
G1 X319.421Y272.473
G1 X319.244Y272.571
G1 X319.094Y272.698
G1 X318.974Y272.849
G1 X318.886Y273.018
G1 X318.832Y273.202
G1 X318.813Y273.394
G1 X318.832Y273.589
G1 X318.892Y273.783
G1 X318.973Y273.939
G1 X319.078Y274.075
G1 X319.204Y274.189
G1 X319.346Y274.28
G1 X319.501Y274.345
G1 X319.667Y274.384
G1 X319.839Y274.393
G1 X320.013Y274.372
G1 X320.181Y274.322
G1 X320.334Y274.245
G1 X320.47Y274.145
G1 X320.586Y274.024
G1 X320.681Y273.886
G1 X320.751Y273.732
G1 X320.795Y273.567
G1 X320.811Y273.393
; Layer C00 Pass 3 of 3
G1 X320.795Y273.218
G1 X320.751Y273.053
G1 X320.681Y272.9
G1 X320.586Y272.761
G1 X320.47Y272.64
G1 X320.334Y272.54
G1 X320.181Y272.464
G1 X320.013Y272.414
G1 X319.863Y272.394
G1 X319.713Y272.398
G1 X319.564Y272.425
G1 X319.421Y272.473
G1 X319.244Y272.571
G1 X319.094Y272.698
G1 X318.974Y272.849
G1 X318.886Y273.018
G1 X318.832Y273.202
G1 X318.813Y273.394
G1 X318.832Y273.589
G1 X318.892Y273.783
G1 X318.973Y273.939
G1 X319.078Y274.075
G1 X319.204Y274.189
G1 X319.346Y274.28
G1 X319.501Y274.345
G1 X319.667Y274.384
G1 X319.839Y274.393
G1 X320.013Y274.372
G1 X320.181Y274.322
G1 X320.334Y274.245
G1 X320.47Y274.145
G1 X320.586Y274.024
G1 X320.681Y273.886
G1 X320.751Y273.732
G1 X320.795Y273.567
G1 X320.811Y273.393
G0 X255.098Y297.037
; Layer C00 Pass 1 of 3
G1 X241.508Y294.641
G1 X243.904Y281.051
G1 X257.494Y283.447
G1 X255.098Y297.037
; Layer C00 Pass 2 of 3
G1 X241.508Y294.641
G1 X243.904Y281.051
G1 X257.494Y283.447
G1 X255.098Y297.037
; Layer C00 Pass 3 of 3
G1 X241.508Y294.641
G1 X243.904Y281.051
G1 X257.494Y283.447
G1 X255.098Y297.037
G0 X259.393Y302.631
; Layer C00 Pass 1 of 3
G1 X272.982Y305.026
G1 X275.378Y291.437
G1 X261.788Y289.041
G1 X259.393Y302.631
; Layer C00 Pass 2 of 3
G1 X272.982Y305.026
G1 X275.378Y291.437
G1 X261.788Y289.041
G1 X259.393Y302.631
; Layer C00 Pass 3 of 3
G1 X272.982Y305.026
G1 X275.378Y291.437
G1 X261.788Y289.041
G1 X259.393Y302.631
G0 X238.028Y305.224
; Layer C00 Pass 1 of 3
G1 X238.012Y305.05
G1 X237.968Y304.884
G1 X237.897Y304.731
G1 X237.802Y304.592
G1 X237.685Y304.471
G1 X237.549Y304.37
G1 X237.396Y304.293
G1 X237.229Y304.242
G1 X237.03Y304.22
G1 X236.833Y304.239
G1 X236.644Y304.297
G1 X236.468Y304.392
G1 X236.331Y304.503
G1 X236.218Y304.632
G1 X236.13Y304.778
G1 X236.068Y304.936
G1 X236.034Y305.102
G1 X236.029Y305.272
G1 X236.053Y305.443
G1 X236.107Y305.611
G1 X236.189Y305.767
G1 X236.294Y305.903
G1 X236.42Y306.017
G1 X236.562Y306.108
G1 X236.717Y306.174
G1 X236.882Y306.212
G1 X237.054Y306.222
G1 X237.229Y306.2
G1 X237.397Y306.151
G1 X237.55Y306.076
G1 X237.686Y305.976
G1 X237.803Y305.856
G1 X237.898Y305.717
G1 X237.969Y305.564
G1 X238.013Y305.399
G1 X238.028Y305.224
; Layer C00 Pass 2 of 3
G1 X238.012Y305.05
G1 X237.968Y304.884
G1 X237.897Y304.731
G1 X237.802Y304.592
G1 X237.685Y304.471
G1 X237.549Y304.37
G1 X237.396Y304.293
G1 X237.229Y304.242
G1 X237.03Y304.22
G1 X236.833Y304.239
G1 X236.644Y304.297
G1 X236.468Y304.392
G1 X236.331Y304.503
G1 X236.218Y304.632
G1 X236.13Y304.778
G1 X236.068Y304.936
G1 X236.034Y305.102
G1 X236.029Y305.272
G1 X236.053Y305.443
G1 X236.107Y305.611
G1 X236.189Y305.767
G1 X236.294Y305.903
G1 X236.42Y306.017
G1 X236.562Y306.108
G1 X236.717Y306.174
G1 X236.882Y306.212
G1 X237.054Y306.222
G1 X237.229Y306.2
G1 X237.397Y306.151
G1 X237.55Y306.076
G1 X237.686Y305.976
G1 X237.803Y305.856
G1 X237.898Y305.717
G1 X237.969Y305.564
G1 X238.013Y305.399
G1 X238.028Y305.224
; Layer C00 Pass 3 of 3
G1 X238.012Y305.05
G1 X237.968Y304.884
G1 X237.897Y304.731
G1 X237.802Y304.592
G1 X237.685Y304.471
G1 X237.549Y304.37
G1 X237.396Y304.293
G1 X237.229Y304.242
G1 X237.03Y304.22
G1 X236.833Y304.239
G1 X236.644Y304.297
G1 X236.468Y304.392
G1 X236.331Y304.503
G1 X236.218Y304.632
G1 X236.13Y304.778
G1 X236.068Y304.936
G1 X236.034Y305.102
G1 X236.029Y305.272
G1 X236.053Y305.443
G1 X236.107Y305.611
G1 X236.189Y305.767
G1 X236.294Y305.903
G1 X236.42Y306.017
G1 X236.562Y306.108
G1 X236.717Y306.174
G1 X236.882Y306.212
G1 X237.054Y306.222
G1 X237.229Y306.2
G1 X237.397Y306.151
G1 X237.55Y306.076
G1 X237.686Y305.976
G1 X237.803Y305.856
G1 X237.898Y305.717
G1 X237.969Y305.564
G1 X238.013Y305.399
G1 X238.028Y305.224
G0 X233.906Y307.808
; Layer C00 Pass 1 of 3
G1 X220.315Y305.412
G1 X222.711Y291.822
G1 X236.302Y294.218
G1 X233.906Y307.808
; Layer C00 Pass 2 of 3
G1 X220.315Y305.412
G1 X222.711Y291.822
G1 X236.302Y294.218
G1 X233.906Y307.808
; Layer C00 Pass 3 of 3
G1 X220.315Y305.412
G1 X222.711Y291.822
G1 X236.302Y294.218
G1 X233.906Y307.808
G0 X238.2Y313.402
; Layer C00 Pass 1 of 3
G1 X240.596Y299.812
G1 X254.186Y302.208
G1 X251.79Y315.798
G1 X238.2Y313.402
; Layer C00 Pass 2 of 3
G1 X240.596Y299.812
G1 X254.186Y302.208
G1 X251.79Y315.798
G1 X238.2Y313.402
; Layer C00 Pass 3 of 3
G1 X240.596Y299.812
G1 X254.186Y302.208
G1 X251.79Y315.798
G1 X238.2Y313.402
G0 X269.674Y323.787
; Layer C00 Pass 1 of 3
G1 X256.084Y321.391
G1 X258.48Y307.801
G1 X272.07Y310.197
G1 X269.674Y323.787
; Layer C00 Pass 2 of 3
G1 X256.084Y321.391
G1 X258.48Y307.801
G1 X272.07Y310.197
G1 X269.674Y323.787
; Layer C00 Pass 3 of 3
G1 X256.084Y321.391
G1 X258.48Y307.801
G1 X272.07Y310.197
G1 X269.674Y323.787
G0 X275.623Y320
; Layer C00 Pass 1 of 3
G1 X278.019Y306.41
G1 X291.609Y308.806
G1 X289.213Y322.396
G1 X275.623Y320
; Layer C00 Pass 2 of 3
G1 X278.019Y306.41
G1 X291.609Y308.806
G1 X289.213Y322.396
G1 X275.623Y320
; Layer C00 Pass 3 of 3
G1 X278.019Y306.41
G1 X291.609Y308.806
G1 X289.213Y322.396
G1 X275.623Y320
G0 X223.624Y286.652
; Layer C00 Pass 1 of 3
G1 X226.02Y273.062
G1 X239.609Y275.458
G1 X237.214Y289.048
G1 X223.624Y286.652
; Layer C00 Pass 2 of 3
G1 X226.02Y273.062
G1 X239.609Y275.458
G1 X237.214Y289.048
G1 X223.624Y286.652
; Layer C00 Pass 3 of 3
G1 X226.02Y273.062
G1 X239.609Y275.458
G1 X237.214Y289.048
G1 X223.624Y286.652
G0 X240.762Y226.499
; Layer C00 Pass 1 of 3
G1 X240.776Y225.273
G1 X240.758Y224.973
G1 X240.698Y224.682
G1 X240.599Y224.406
G1 X240.463Y224.147
G1 X240.292Y223.909
G1 X240.09Y223.696
G1 X239.857Y223.513
G1 X239.597Y223.361
G1 X221.625Y214.596
G1 X221.515Y214.549
G1 X221.405Y214.505
G1 X221.291Y214.47
G1 X221.177Y214.439
G1 X220.942Y214.399
G1 X220.71Y214.386
G1 X158.14
G1 X157.96Y214.394
G1 X157.781Y214.417
G1 X157.606Y214.455
G1 X157.434Y214.509
G1 X157.326Y214.552
G1 X157.219Y214.599
G1 X139.252Y223.361
G1 X139.026Y223.49
G1 X138.819Y223.644
G1 X138.634Y223.821
G1 X138.472Y224.019
G1 X138.335Y224.234
G1 X138.225Y224.465
G1 X138.144Y224.71
G1 X138.092Y224.966
G1 X138.074Y225.267
G1 X138.088Y226.499
G1 X138.083Y226.661
G1 X138.064Y226.819
G1 X138.033Y226.974
G1 X137.99Y227.125
G1 X137.934Y227.27
G1 X137.867Y227.41
G1 X137.789Y227.544
G1 X137.701Y227.671
G1 X137.602Y227.79
G1 X137.494Y227.901
G1 X137.378Y228.003
G1 X137.252Y228.095
G1 X137.119Y228.178
G1 X136.978Y228.249
G1 X136.83Y228.309
G1 X136.676Y228.357
G1 X121.855Y232.329
G1 X121.681Y232.384
G1 X121.513Y232.453
G1 X121.354Y232.535
G1 X121.204Y232.63
G1 X121.064Y232.736
G1 X120.933Y232.854
G1 X120.813Y232.981
G1 X120.704Y233.118
G1 X120.607Y233.263
G1 X120.522Y233.416
G1 X120.45Y233.576
G1 X120.391Y233.742
G1 X120.346Y233.914
G1 X120.316Y234.09
G1 X120.301Y234.27
G1 Y234.454
G1 X120.326Y234.657
G1 X120.359Y234.859
G1 X125.698Y256.573
G1 X125.736Y256.766
G1 X125.753Y256.961
G1 X125.75Y257.155
G1 X125.728Y257.347
G1 X125.686Y257.536
G1 X125.625Y257.72
G1 X125.545Y257.898
G1 X125.446Y258.068
G1 X125.331Y258.227
G1 X125.2Y258.372
G1 X125.056Y258.503
G1 X124.901Y258.617
G1 X124.734Y258.716
G1 X124.557Y258.797
G1 X124.373Y258.859
G1 X124.181Y258.903
G1 X114.694Y260.576
G1 X114.489Y260.623
G1 X114.292Y260.689
G1 X114.106Y260.772
G1 X113.931Y260.872
G1 X113.768Y260.988
G1 X113.617Y261.117
G1 X113.48Y261.26
G1 X113.356Y261.415
G1 X113.248Y261.581
G1 X113.156Y261.756
G1 X113.08Y261.94
G1 X113.022Y262.131
G1 X112.982Y262.329
G1 X112.961Y262.532
G1 Y262.739
G1 X112.98Y262.948
G1 X113.107Y263.814
G1 X113.126Y264.005
G1 Y264.192
G1 X113.107Y264.376
G1 X113.071Y264.555
G1 X113.019Y264.729
G1 X112.95Y264.896
G1 X112.867Y265.055
G1 X112.769Y265.205
G1 X112.657Y265.346
G1 X112.533Y265.475
G1 X112.396Y265.593
G1 X112.248Y265.697
G1 X112.089Y265.788
G1 X111.92Y265.863
G1 X111.742Y265.923
G1 X111.556Y265.965
G1 X100.751Y267.871
G1 X100.562Y267.894
G1 X100.375Y267.899
G1 X100.191Y267.886
G1 X100.011Y267.855
G1 X99.836Y267.808
G1 X99.668Y267.744
G1 X99.507Y267.666
G1 X99.354Y267.572
G1 X99.21Y267.465
G1 X99.077Y267.344
G1 X98.956Y267.211
G1 X98.847Y267.066
G1 X98.752Y266.911
G1 X98.671Y266.745
G1 X98.607Y266.569
G1 X98.559Y266.384
G1 X98.381Y265.522
G1 X98.328Y265.319
G1 X98.256Y265.125
G1 X98.167Y264.941
G1 X98.062Y264.769
G1 X97.942Y264.609
G1 X97.808Y264.462
G1 X97.661Y264.329
G1 X97.503Y264.21
G1 X97.334Y264.107
G1 X97.156Y264.02
G1 X96.97Y263.95
G1 X96.777Y263.897
G1 X96.578Y263.863
G1 X96.375Y263.848
G1 X96.168Y263.853
G1 X95.959Y263.879
G1 X81.213Y266.479
G1 X81.024Y266.504
G1 X80.836Y266.509
G1 X80.652Y266.495
G1 X80.472Y266.465
G1 X80.297Y266.417
G1 X80.128Y266.353
G1 X79.966Y266.274
G1 X79.813Y266.181
G1 X79.67Y266.073
G1 X79.537Y265.952
G1 X79.416Y265.819
G1 X79.307Y265.673
G1 X79.212Y265.517
G1 X79.132Y265.351
G1 X79.067Y265.174
G1 X79.02Y264.989
G1 X78.842Y264.131
G1 X78.789Y263.928
G1 X78.718Y263.733
G1 X78.629Y263.55
G1 X78.524Y263.378
G1 X78.404Y263.218
G1 X78.27Y263.071
G1 X78.123Y262.938
G1 X77.964Y262.819
G1 X77.796Y262.716
G1 X77.618Y262.629
G1 X77.432Y262.559
G1 X77.239Y262.506
G1 X77.04Y262.472
G1 X76.837Y262.457
G1 X76.63Y262.463
G1 X76.421Y262.489
G1 X39.079Y269.073
G1 X38.869Y269.121
G1 X38.669Y269.189
G1 X38.48Y269.275
G1 X38.302Y269.378
G1 X38.137Y269.497
G1 X37.985Y269.631
G1 X37.847Y269.778
G1 X37.723Y269.937
G1 X37.616Y270.108
G1 X37.525Y270.288
G1 X37.451Y270.477
G1 X37.396Y270.673
G1 X37.36Y270.875
G1 X37.344Y271.082
G1 X37.349Y271.293
G1 X37.375Y271.506
G1 X43.958Y308.84
G1 X44.007Y309.05
G1 X44.074Y309.25
G1 X44.16Y309.439
G1 X44.263Y309.616
G1 X44.382Y309.782
G1 X44.516Y309.934
G1 X44.663Y310.072
G1 X44.823Y310.195
G1 X44.993Y310.303
G1 X45.173Y310.394
G1 X45.362Y310.467
G1 X45.558Y310.523
G1 X45.76Y310.559
G1 X45.967Y310.575
G1 X46.178Y310.57
G1 X46.392Y310.543
G1 X79.746Y304.663
G1 X79.933Y304.639
G1 X80.119Y304.634
G1 X80.305Y304.647
G1 X80.487Y304.678
G1 X80.666Y304.727
G1 X80.84Y304.793
G1 X81.007Y304.876
G1 X81.167Y304.976
G1 X81.315Y305.091
G1 X81.451Y305.22
G1 X81.573Y305.36
G1 X81.68Y305.511
G1 X81.772Y305.672
G1 X81.848Y305.842
G1 X81.907Y306.019
G1 X81.949Y306.202
G1 X85.507Y325.707
G1 X85.556Y325.908
G1 X85.621Y326.104
G1 X85.696Y326.272
G1 X85.785Y326.431
G1 X85.886Y326.58
G1 X85.998Y326.719
G1 X86.121Y326.847
G1 X86.254Y326.963
G1 X86.395Y327.068
G1 X86.545Y327.16
G1 X86.701Y327.24
G1 X86.864Y327.306
G1 X87.033Y327.358
G1 X87.206Y327.397
G1 X87.383Y327.421
G1 X87.562Y327.429
G1 X87.744Y327.422
G1 X87.938Y327.398
G1 X102.638Y324.806
G1 X102.828Y324.782
G1 X103.015Y324.777
G1 X103.199Y324.79
G1 X103.38Y324.821
G1 X103.555Y324.869
G1 X103.723Y324.932
G1 X103.885Y325.011
G1 X104.038Y325.105
G1 X104.181Y325.213
G1 X104.314Y325.334
G1 X104.435Y325.467
G1 X104.544Y325.612
G1 X104.639Y325.768
G1 X104.719Y325.935
G1 X104.784Y326.111
G1 X104.831Y326.296
G1 X105.009Y327.154
G1 X105.062Y327.358
G1 X105.133Y327.552
G1 X105.222Y327.735
G1 X105.327Y327.907
G1 X105.447Y328.067
G1 X105.582Y328.214
G1 X105.728Y328.347
G1 X105.887Y328.466
G1 X106.055Y328.569
G1 X106.233Y328.656
G1 X106.42Y328.727
G1 X106.613Y328.779
G1 X106.811Y328.813
G1 X107.015Y328.828
G1 X107.221Y328.823
G1 X107.43Y328.797
G1 X126.118Y325.501
G1 X126.323Y325.455
G1 X126.52Y325.389
G1 X126.706Y325.305
G1 X126.881Y325.206
G1 X127.044Y325.09
G1 X127.195Y324.96
G1 X127.332Y324.818
G1 X127.455Y324.663
G1 X127.564Y324.497
G1 X127.656Y324.322
G1 X127.732Y324.138
G1 X127.79Y323.946
G1 X127.83Y323.749
G1 X127.851Y323.546
G1 Y323.339
G1 X127.832Y323.129
G1 X127.705Y322.263
G1 X127.686Y322.073
G1 Y321.886
G1 X127.705Y321.702
G1 X127.741Y321.523
G1 X127.793Y321.349
G1 X127.862Y321.182
G1 X127.945Y321.023
G1 X128.043Y320.873
G1 X128.155Y320.732
G1 X128.28Y320.603
G1 X128.416Y320.485
G1 X128.564Y320.381
G1 X128.723Y320.29
G1 X128.892Y320.214
G1 X129.07Y320.155
G1 X129.256Y320.112
G1 X144.002Y317.512
G1 X144.18Y317.473
G1 X144.352Y317.419
G1 X144.517Y317.351
G1 X144.674Y317.271
G1 X144.822Y317.178
G1 X144.962Y317.073
G1 X145.092Y316.958
G1 X145.213Y316.832
G1 X145.322Y316.697
G1 X145.42Y316.554
G1 X145.506Y316.402
G1 X145.58Y316.243
G1 X145.64Y316.077
G1 X145.686Y315.905
G1 X145.718Y315.728
G1 X145.735Y315.546
G1 X145.716Y315.14
G1 X145.589Y314.273
G1 X145.571Y314.083
G1 Y313.896
G1 X145.589Y313.712
G1 X145.625Y313.533
G1 X145.678Y313.359
G1 X145.746Y313.193
G1 X145.83Y313.034
G1 X145.928Y312.883
G1 X146.039Y312.743
G1 X146.164Y312.613
G1 X146.301Y312.496
G1 X146.449Y312.391
G1 X146.607Y312.3
G1 X146.776Y312.225
G1 X146.954Y312.165
G1 X147.14Y312.123
G1 X163.627Y309.216
G1 X163.793Y309.194
G1 X163.961Y309.187
G1 X165.425
G1 X165.44
G1 X165.458Y309.182
G1 X165.474Y309.174
G1 X165.501Y309.152
G1 X165.519Y309.122
G1 X165.523Y309.104
G1 Y309.087
G1 Y245.56
G1 X165.536Y245.322
G1 X165.57Y245.088
G1 X165.627Y244.859
G1 X165.706Y244.638
G1 X165.806Y244.426
G1 X165.927Y244.224
G1 X166.068Y244.034
G1 X166.227Y243.857
G1 X166.404Y243.698
G1 X166.594Y243.557
G1 X166.796Y243.436
G1 X167.008Y243.336
G1 X167.23Y243.257
G1 X167.458Y243.2
G1 X167.692Y243.166
G1 X167.93Y243.155
G1 X210.92
G1 X211.158Y243.166
G1 X211.392Y243.201
G1 X211.62Y243.258
G1 X211.841Y243.337
G1 X212.053Y243.437
G1 X212.255Y243.557
G1 X212.445Y243.698
G1 X212.622Y243.858
G1 X212.782Y244.034
G1 X212.922Y244.225
G1 X213.043Y244.427
G1 X213.143Y244.639
G1 X213.222Y244.86
G1 X213.279Y245.088
G1 X213.314Y245.322
G1 X213.325Y245.56
G1 Y309.087
G1 X213.33Y309.12
G1 X213.337Y309.136
G1 X213.348Y309.15
G1 X213.378Y309.169
G1 X213.407Y309.186
G1 X213.425
G1 X214.888
G1 X215.056Y309.193
G1 X215.222Y309.216
G1 X231.709Y312.123
G1 X231.895Y312.165
G1 X232.073Y312.224
G1 X232.242Y312.3
G1 X232.401Y312.39
G1 X232.549Y312.495
G1 X232.686Y312.613
G1 X232.81Y312.742
G1 X232.922Y312.883
G1 X233.02Y313.033
G1 X233.103Y313.192
G1 X233.172Y313.359
G1 X233.224Y313.533
G1 X233.26Y313.712
G1 X233.278Y313.896
G1 Y314.084
G1 X233.26Y314.274
G1 X233.133Y315.14
G1 X233.115Y315.322
G1 X233.112Y315.501
G1 X233.124Y315.679
G1 X233.151Y315.853
G1 X233.193Y316.024
G1 X233.248Y316.19
G1 X233.316Y316.35
G1 X233.398Y316.503
G1 X233.492Y316.649
G1 X233.597Y316.788
G1 X233.714Y316.917
G1 X233.842Y317.037
G1 X233.981Y317.146
G1 X234.13Y317.244
G1 X234.288Y317.33
G1 X234.455Y317.402
G1 X234.65Y317.46
G1 X234.847Y317.512
G1 X249.593Y320.112
G1 X249.78Y320.154
G1 X249.957Y320.214
G1 X250.126Y320.289
G1 X250.285Y320.38
G1 X250.433Y320.484
G1 X250.569Y320.602
G1 X250.694Y320.732
G1 X250.806Y320.872
G1 X250.903Y321.022
G1 X250.987Y321.182
G1 X251.055Y321.348
G1 X251.108Y321.522
G1 X251.144Y321.701
G1 X251.162Y321.885
G1 Y322.073
G1 X251.144Y322.263
G1 X251.018Y323.129
G1 X250.996Y323.385
G1 X251.006Y323.638
G1 X251.046Y323.886
G1 X251.115Y324.127
G1 X251.211Y324.358
G1 X251.336Y324.577
G1 X251.486Y324.781
G1 X251.662Y324.967
G1 X251.816Y325.092
G1 X251.977Y325.21
G1 X252.153Y325.312
G1 X252.339Y325.392
G1 X252.731Y325.501
G1 X271.419Y328.797
G1 X271.726Y328.828
G1 X272.029Y328.814
G1 X272.324Y328.758
G1 X272.607Y328.66
G1 X272.873Y328.524
G1 X273.118Y328.351
G1 X273.337Y328.142
G1 X273.527Y327.899
G1 X273.627Y327.723
G1 X273.72Y327.542
G1 X273.786Y327.35
G1 X273.84Y327.154
G1 X274.018Y326.296
G1 X274.066Y326.111
G1 X274.13Y325.935
G1 X274.21Y325.769
G1 X274.305Y325.613
G1 X274.414Y325.467
G1 X274.535Y325.334
G1 X274.668Y325.213
G1 X274.812Y325.106
G1 X274.965Y325.012
G1 X275.126Y324.933
G1 X275.295Y324.869
G1 X275.47Y324.822
G1 X275.65Y324.791
G1 X275.834Y324.777
G1 X276.022Y324.782
G1 X276.211Y324.806
G1 X290.922Y327.399
G1 X291.324Y327.429
G1 X291.508Y327.417
G1 X291.688Y327.389
G1 X291.863Y327.346
G1 X292.032Y327.289
G1 X292.195Y327.218
G1 X292.35Y327.135
G1 X292.497Y327.038
G1 X292.636Y326.93
G1 X292.765Y326.811
G1 X292.884Y326.681
G1 X292.992Y326.541
G1 X293.088Y326.392
G1 X293.171Y326.235
G1 X293.242Y326.069
G1 X293.298Y325.896
G1 X293.342Y325.707
G1 X296.9Y306.202
G1 X296.942Y306.019
G1 X297.001Y305.842
G1 X297.077Y305.672
G1 X297.169Y305.511
G1 X297.276Y305.36
G1 X297.398Y305.22
G1 X297.534Y305.091
G1 X297.683Y304.976
G1 X297.842Y304.876
G1 X298.009Y304.793
G1 X298.183Y304.727
G1 X298.362Y304.678
G1 X298.544Y304.647
G1 X298.73Y304.634
G1 X298.916Y304.639
G1 X299.103Y304.663
G1 X332.468Y310.545
G1 X332.65Y310.568
G1 X332.832Y310.575
G1 X333.011Y310.567
G1 X333.187Y310.544
G1 X333.36Y310.506
G1 X333.528Y310.454
G1 X333.69Y310.388
G1 X333.847Y310.309
G1 X333.996Y310.217
G1 X334.137Y310.113
G1 X334.27Y309.997
G1 X334.393Y309.87
G1 X334.505Y309.732
G1 X334.606Y309.584
G1 X334.695Y309.426
G1 X334.778Y309.24
G1 X334.891Y308.84
G1 X341.474Y271.506
G1 X341.505Y271.194
G1 X341.49Y270.885
G1 X341.431Y270.585
G1 X341.329Y270.298
G1 X341.186Y270.029
G1 X341.006Y269.782
G1 X340.789Y269.562
G1 X340.538Y269.373
G1 X340.357Y269.273
G1 X340.17Y269.186
G1 X339.973Y269.119
G1 X339.771Y269.073
G1 X302.428Y262.489
G1 X302.247Y262.465
G1 X302.068Y262.457
G1 X301.89Y262.464
G1 X301.715Y262.486
G1 X301.544Y262.523
G1 X301.376Y262.573
G1 X301.215Y262.637
G1 X301.059Y262.714
G1 X300.91Y262.803
G1 X300.768Y262.905
G1 X300.635Y263.018
G1 X300.512Y263.142
G1 X300.399Y263.278
G1 X300.296Y263.423
G1 X300.206Y263.578
G1 X300.127Y263.743
G1 X300.007Y264.132
G1 X299.829Y264.993
G1 X299.781Y265.178
G1 X299.717Y265.354
G1 X299.636Y265.52
G1 X299.541Y265.676
G1 X299.433Y265.821
G1 X299.311Y265.955
G1 X299.178Y266.075
G1 X299.035Y266.183
G1 X298.882Y266.276
G1 X298.72Y266.355
G1 X298.552Y266.419
G1 X298.377Y266.466
G1 X298.197Y266.496
G1 X298.012Y266.509
G1 X297.825Y266.504
G1 X297.636Y266.479
G1 X282.89Y263.879
G1 X282.709Y263.855
G1 X282.53Y263.847
G1 X282.352Y263.854
G1 X282.177Y263.876
G1 X282.005Y263.913
G1 X281.838Y263.963
G1 X281.676Y264.027
G1 X281.52Y264.104
G1 X281.371Y264.193
G1 X281.23Y264.295
G1 X281.097Y264.408
G1 X280.974Y264.533
G1 X280.86Y264.668
G1 X280.758Y264.813
G1 X280.667Y264.969
G1 X280.589Y265.134
G1 X280.527Y265.327
G1 X280.469Y265.522
G1 X280.291Y266.38
G1 X280.243Y266.565
G1 X280.179Y266.741
G1 X280.098Y266.908
G1 X280.003Y267.064
G1 X279.894Y267.209
G1 X279.773Y267.342
G1 X279.64Y267.463
G1 X279.497Y267.571
G1 X279.344Y267.665
G1 X279.182Y267.744
G1 X279.014Y267.808
G1 X278.839Y267.855
G1 X278.659Y267.886
G1 X278.475Y267.899
G1 X278.288Y267.895
G1 X278.098Y267.871
G1 X267.293Y265.965
G1 X267.107Y265.923
G1 X266.929Y265.863
G1 X266.76Y265.788
G1 X266.601Y265.697
G1 X266.453Y265.592
G1 X266.316Y265.475
G1 X266.191Y265.345
G1 X266.08Y265.205
G1 X265.982Y265.055
G1 X265.898Y264.895
G1 X265.83Y264.729
G1 X265.777Y264.555
G1 X265.742Y264.376
G1 X265.723Y264.192
G1 Y264.005
G1 X265.742Y263.814
G1 X265.869Y262.948
G1 X265.887Y262.767
G1 X265.89Y262.587
G1 X265.878Y262.409
G1 X265.851Y262.235
G1 X265.809Y262.065
G1 X265.754Y261.899
G1 X265.685Y261.739
G1 X265.604Y261.586
G1 X265.51Y261.439
G1 X265.405Y261.301
G1 X265.287Y261.172
G1 X265.159Y261.052
G1 X265.021Y260.942
G1 X264.872Y260.844
G1 X264.714Y260.759
G1 X264.547Y260.686
G1 X264.351Y260.63
G1 X264.155Y260.576
G1 X254.668Y258.903
G1 X254.477Y258.859
G1 X254.292Y258.797
G1 X254.116Y258.716
G1 X253.949Y258.617
G1 X253.793Y258.502
G1 X253.65Y258.372
G1 X253.519Y258.227
G1 X253.404Y258.068
G1 X253.305Y257.898
G1 X253.225Y257.72
G1 X253.164Y257.536
G1 X253.122Y257.347
G1 X253.1Y257.155
G1 X253.097Y256.961
G1 X253.114Y256.766
G1 X253.151Y256.573
G1 X258.49Y234.859
G1 X258.524Y234.657
G1 X258.548Y234.454
G1 Y234.271
G1 X258.533Y234.091
G1 X258.503Y233.916
G1 X258.459Y233.744
G1 X258.4Y233.579
G1 X258.329Y233.419
G1 X258.244Y233.267
G1 X258.148Y233.122
G1 X258.039Y232.986
G1 X257.92Y232.858
G1 X257.79Y232.741
G1 X257.65Y232.635
G1 X257.501Y232.54
G1 X257.343Y232.457
G1 X257.177Y232.387
G1 X256.994Y232.329
G1 X242.173Y228.357
G1 X242.019Y228.309
G1 X241.871Y228.249
G1 X241.73Y228.177
G1 X241.597Y228.095
G1 X241.472Y228.002
G1 X241.355Y227.9
G1 X241.247Y227.789
G1 X241.149Y227.67
G1 X241.061Y227.544
G1 X240.983Y227.41
G1 X240.916Y227.27
G1 X240.86Y227.125
G1 X240.817Y226.974
G1 X240.785Y226.819
G1 X240.767Y226.661
G1 X240.762Y226.499
; Layer C00 Pass 2 of 3
G1 X240.776Y225.273
G1 X240.758Y224.973
G1 X240.698Y224.682
G1 X240.599Y224.406
G1 X240.463Y224.147
G1 X240.292Y223.909
G1 X240.09Y223.696
G1 X239.857Y223.513
G1 X239.597Y223.361
G1 X221.625Y214.596
G1 X221.515Y214.549
G1 X221.405Y214.505
G1 X221.291Y214.47
G1 X221.177Y214.439
G1 X220.942Y214.399
G1 X220.71Y214.386
G1 X158.14
G1 X157.96Y214.394
G1 X157.781Y214.417
G1 X157.606Y214.455
G1 X157.434Y214.509
G1 X157.326Y214.552
G1 X157.219Y214.599
G1 X139.252Y223.361
G1 X139.026Y223.49
G1 X138.819Y223.644
G1 X138.634Y223.821
G1 X138.472Y224.019
G1 X138.335Y224.234
G1 X138.225Y224.465
G1 X138.144Y224.71
G1 X138.092Y224.966
G1 X138.074Y225.267
G1 X138.088Y226.499
G1 X138.083Y226.661
G1 X138.064Y226.819
G1 X138.033Y226.974
G1 X137.99Y227.125
G1 X137.934Y227.27
G1 X137.867Y227.41
G1 X137.789Y227.544
G1 X137.701Y227.671
G1 X137.602Y227.79
G1 X137.494Y227.901
G1 X137.378Y228.003
G1 X137.252Y228.095
G1 X137.119Y228.178
G1 X136.978Y228.249
G1 X136.83Y228.309
G1 X136.676Y228.357
G1 X121.855Y232.329
G1 X121.681Y232.384
G1 X121.513Y232.453
G1 X121.354Y232.535
G1 X121.204Y232.63
G1 X121.064Y232.736
G1 X120.933Y232.854
G1 X120.813Y232.981
G1 X120.704Y233.118
G1 X120.607Y233.263
G1 X120.522Y233.416
G1 X120.45Y233.576
G1 X120.391Y233.742
G1 X120.346Y233.914
G1 X120.316Y234.09
G1 X120.301Y234.27
G1 Y234.454
G1 X120.326Y234.657
G1 X120.359Y234.859
G1 X125.698Y256.573
G1 X125.736Y256.766
G1 X125.753Y256.961
G1 X125.75Y257.155
G1 X125.728Y257.347
G1 X125.686Y257.536
G1 X125.625Y257.72
G1 X125.545Y257.898
G1 X125.446Y258.068
G1 X125.331Y258.227
G1 X125.2Y258.372
G1 X125.056Y258.503
G1 X124.901Y258.617
G1 X124.734Y258.716
G1 X124.557Y258.797
G1 X124.373Y258.859
G1 X124.181Y258.903
G1 X114.694Y260.576
G1 X114.489Y260.623
G1 X114.292Y260.689
G1 X114.106Y260.772
G1 X113.931Y260.872
G1 X113.768Y260.988
G1 X113.617Y261.117
G1 X113.48Y261.26
G1 X113.356Y261.415
G1 X113.248Y261.581
G1 X113.156Y261.756
G1 X113.08Y261.94
G1 X113.022Y262.131
G1 X112.982Y262.329
G1 X112.961Y262.532
G1 Y262.739
G1 X112.98Y262.948
G1 X113.107Y263.814
G1 X113.126Y264.005
G1 Y264.192
G1 X113.107Y264.376
G1 X113.071Y264.555
G1 X113.019Y264.729
G1 X112.95Y264.896
G1 X112.867Y265.055
G1 X112.769Y265.205
G1 X112.657Y265.346
G1 X112.533Y265.475
G1 X112.396Y265.593
G1 X112.248Y265.697
G1 X112.089Y265.788
G1 X111.92Y265.863
G1 X111.742Y265.923
G1 X111.556Y265.965
G1 X100.751Y267.871
G1 X100.562Y267.894
G1 X100.375Y267.899
G1 X100.191Y267.886
G1 X100.011Y267.855
G1 X99.836Y267.808
G1 X99.668Y267.744
G1 X99.507Y267.666
G1 X99.354Y267.572
G1 X99.21Y267.465
G1 X99.077Y267.344
G1 X98.956Y267.211
G1 X98.847Y267.066
G1 X98.752Y266.911
G1 X98.671Y266.745
G1 X98.607Y266.569
G1 X98.559Y266.384
G1 X98.381Y265.522
G1 X98.328Y265.319
G1 X98.256Y265.125
G1 X98.167Y264.941
G1 X98.062Y264.769
G1 X97.942Y264.609
G1 X97.808Y264.462
G1 X97.661Y264.329
G1 X97.503Y264.21
G1 X97.334Y264.107
G1 X97.156Y264.02
G1 X96.97Y263.95
G1 X96.777Y263.897
G1 X96.578Y263.863
G1 X96.375Y263.848
G1 X96.168Y263.853
G1 X95.959Y263.879
G1 X81.213Y266.479
G1 X81.024Y266.504
G1 X80.836Y266.509
G1 X80.652Y266.495
G1 X80.472Y266.465
G1 X80.297Y266.417
G1 X80.128Y266.353
G1 X79.966Y266.274
G1 X79.813Y266.181
G1 X79.67Y266.073
G1 X79.537Y265.952
G1 X79.416Y265.819
G1 X79.307Y265.673
G1 X79.212Y265.517
G1 X79.132Y265.351
G1 X79.067Y265.174
G1 X79.02Y264.989
G1 X78.842Y264.131
G1 X78.789Y263.928
G1 X78.718Y263.733
G1 X78.629Y263.55
G1 X78.524Y263.378
G1 X78.404Y263.218
G1 X78.27Y263.071
G1 X78.123Y262.938
G1 X77.964Y262.819
G1 X77.796Y262.716
G1 X77.618Y262.629
G1 X77.432Y262.559
G1 X77.239Y262.506
G1 X77.04Y262.472
G1 X76.837Y262.457
G1 X76.63Y262.463
G1 X76.421Y262.489
G1 X39.079Y269.073
G1 X38.869Y269.121
G1 X38.669Y269.189
G1 X38.48Y269.275
G1 X38.302Y269.378
G1 X38.137Y269.497
G1 X37.985Y269.631
G1 X37.847Y269.778
G1 X37.723Y269.937
G1 X37.616Y270.108
G1 X37.525Y270.288
G1 X37.451Y270.477
G1 X37.396Y270.673
G1 X37.36Y270.875
G1 X37.344Y271.082
G1 X37.349Y271.293
G1 X37.375Y271.506
G1 X43.958Y308.84
G1 X44.007Y309.05
G1 X44.074Y309.25
G1 X44.16Y309.439
G1 X44.263Y309.616
G1 X44.382Y309.782
G1 X44.516Y309.934
G1 X44.663Y310.072
G1 X44.823Y310.195
G1 X44.993Y310.303
G1 X45.173Y310.394
G1 X45.362Y310.467
G1 X45.558Y310.523
G1 X45.76Y310.559
G1 X45.967Y310.575
G1 X46.178Y310.57
G1 X46.392Y310.543
G1 X79.746Y304.663
G1 X79.933Y304.639
G1 X80.119Y304.634
G1 X80.305Y304.647
G1 X80.487Y304.678
G1 X80.666Y304.727
G1 X80.84Y304.793
G1 X81.007Y304.876
G1 X81.167Y304.976
G1 X81.315Y305.091
G1 X81.451Y305.22
G1 X81.573Y305.36
G1 X81.68Y305.511
G1 X81.772Y305.672
G1 X81.848Y305.842
G1 X81.907Y306.019
G1 X81.949Y306.202
G1 X85.507Y325.707
G1 X85.556Y325.908
G1 X85.621Y326.104
G1 X85.696Y326.272
G1 X85.785Y326.431
G1 X85.886Y326.58
G1 X85.998Y326.719
G1 X86.121Y326.847
G1 X86.254Y326.963
G1 X86.395Y327.068
G1 X86.545Y327.16
G1 X86.701Y327.24
G1 X86.864Y327.306
G1 X87.033Y327.358
G1 X87.206Y327.397
G1 X87.383Y327.421
G1 X87.562Y327.429
G1 X87.744Y327.422
G1 X87.938Y327.398
G1 X102.638Y324.806
G1 X102.828Y324.782
G1 X103.015Y324.777
G1 X103.199Y324.79
G1 X103.38Y324.821
G1 X103.555Y324.869
G1 X103.723Y324.932
G1 X103.885Y325.011
G1 X104.038Y325.105
G1 X104.181Y325.213
G1 X104.314Y325.334
G1 X104.435Y325.467
G1 X104.544Y325.612
G1 X104.639Y325.768
G1 X104.719Y325.935
G1 X104.784Y326.111
G1 X104.831Y326.296
G1 X105.009Y327.154
G1 X105.062Y327.358
G1 X105.133Y327.552
G1 X105.222Y327.735
G1 X105.327Y327.907
G1 X105.447Y328.067
G1 X105.582Y328.214
G1 X105.728Y328.347
G1 X105.887Y328.466
G1 X106.055Y328.569
G1 X106.233Y328.656
G1 X106.42Y328.727
G1 X106.613Y328.779
G1 X106.811Y328.813
G1 X107.015Y328.828
G1 X107.221Y328.823
G1 X107.43Y328.797
G1 X126.118Y325.501
G1 X126.323Y325.455
G1 X126.52Y325.389
G1 X126.706Y325.305
G1 X126.881Y325.206
G1 X127.044Y325.09
G1 X127.195Y324.96
G1 X127.332Y324.818
G1 X127.455Y324.663
G1 X127.564Y324.497
G1 X127.656Y324.322
G1 X127.732Y324.138
G1 X127.79Y323.946
G1 X127.83Y323.749
G1 X127.851Y323.546
G1 Y323.339
G1 X127.832Y323.129
G1 X127.705Y322.263
G1 X127.686Y322.073
G1 Y321.886
G1 X127.705Y321.702
G1 X127.741Y321.523
G1 X127.793Y321.349
G1 X127.862Y321.182
G1 X127.945Y321.023
G1 X128.043Y320.873
G1 X128.155Y320.732
G1 X128.28Y320.603
G1 X128.416Y320.485
G1 X128.564Y320.381
G1 X128.723Y320.29
G1 X128.892Y320.214
G1 X129.07Y320.155
G1 X129.256Y320.112
G1 X144.002Y317.512
G1 X144.18Y317.473
G1 X144.352Y317.419
G1 X144.517Y317.351
G1 X144.674Y317.271
G1 X144.822Y317.178
G1 X144.962Y317.073
G1 X145.092Y316.958
G1 X145.213Y316.832
G1 X145.322Y316.697
G1 X145.42Y316.554
G1 X145.506Y316.402
G1 X145.58Y316.243
G1 X145.64Y316.077
G1 X145.686Y315.905
G1 X145.718Y315.728
G1 X145.735Y315.546
G1 X145.716Y315.14
G1 X145.589Y314.273
G1 X145.571Y314.083
G1 Y313.896
G1 X145.589Y313.712
G1 X145.625Y313.533
G1 X145.678Y313.359
G1 X145.746Y313.193
G1 X145.83Y313.034
G1 X145.928Y312.883
G1 X146.039Y312.743
G1 X146.164Y312.613
G1 X146.301Y312.496
G1 X146.449Y312.391
G1 X146.607Y312.3
G1 X146.776Y312.225
G1 X146.954Y312.165
G1 X147.14Y312.123
G1 X163.627Y309.216
G1 X163.793Y309.194
G1 X163.961Y309.187
G1 X165.425
G1 X165.44
G1 X165.458Y309.182
G1 X165.474Y309.174
G1 X165.501Y309.152
G1 X165.519Y309.122
G1 X165.523Y309.104
G1 Y309.087
G1 Y245.56
G1 X165.536Y245.322
G1 X165.57Y245.088
G1 X165.627Y244.859
G1 X165.706Y244.638
G1 X165.806Y244.426
G1 X165.927Y244.224
G1 X166.068Y244.034
G1 X166.227Y243.857
G1 X166.404Y243.698
G1 X166.594Y243.557
G1 X166.796Y243.436
G1 X167.008Y243.336
G1 X167.23Y243.257
G1 X167.458Y243.2
G1 X167.692Y243.166
G1 X167.93Y243.155
G1 X210.92
G1 X211.158Y243.166
G1 X211.392Y243.201
G1 X211.62Y243.258
G1 X211.841Y243.337
G1 X212.053Y243.437
G1 X212.255Y243.557
G1 X212.445Y243.698
G1 X212.622Y243.858
G1 X212.782Y244.034
G1 X212.922Y244.225
G1 X213.043Y244.427
G1 X213.143Y244.639
G1 X213.222Y244.86
G1 X213.279Y245.088
G1 X213.314Y245.322
G1 X213.325Y245.56
G1 Y309.087
G1 X213.33Y309.12
G1 X213.337Y309.136
G1 X213.348Y309.15
G1 X213.378Y309.169
G1 X213.407Y309.186
G1 X213.425
G1 X214.888
G1 X215.056Y309.193
G1 X215.222Y309.216
G1 X231.709Y312.123
G1 X231.895Y312.165
G1 X232.073Y312.224
G1 X232.242Y312.3
G1 X232.401Y312.39
G1 X232.549Y312.495
G1 X232.686Y312.613
G1 X232.81Y312.742
G1 X232.922Y312.883
G1 X233.02Y313.033
G1 X233.103Y313.192
G1 X233.172Y313.359
G1 X233.224Y313.533
G1 X233.26Y313.712
G1 X233.278Y313.896
G1 Y314.084
G1 X233.26Y314.274
G1 X233.133Y315.14
G1 X233.115Y315.322
G1 X233.112Y315.501
G1 X233.124Y315.679
G1 X233.151Y315.853
G1 X233.193Y316.024
G1 X233.248Y316.19
G1 X233.316Y316.35
G1 X233.398Y316.503
G1 X233.492Y316.649
G1 X233.597Y316.788
G1 X233.714Y316.917
G1 X233.842Y317.037
G1 X233.981Y317.146
G1 X234.13Y317.244
G1 X234.288Y317.33
G1 X234.455Y317.402
G1 X234.65Y317.46
G1 X234.847Y317.512
G1 X249.593Y320.112
G1 X249.78Y320.154
G1 X249.957Y320.214
G1 X250.126Y320.289
G1 X250.285Y320.38
G1 X250.433Y320.484
G1 X250.569Y320.602
G1 X250.694Y320.732
G1 X250.806Y320.872
G1 X250.903Y321.022
G1 X250.987Y321.182
G1 X251.055Y321.348
G1 X251.108Y321.522
G1 X251.144Y321.701
G1 X251.162Y321.885
G1 Y322.073
G1 X251.144Y322.263
G1 X251.018Y323.129
G1 X250.996Y323.385
G1 X251.006Y323.638
G1 X251.046Y323.886
G1 X251.115Y324.127
G1 X251.211Y324.358
G1 X251.336Y324.577
G1 X251.486Y324.781
G1 X251.662Y324.967
G1 X251.816Y325.092
G1 X251.977Y325.21
G1 X252.153Y325.312
G1 X252.339Y325.392
G1 X252.731Y325.501
G1 X271.419Y328.797
G1 X271.726Y328.828
G1 X272.029Y328.814
G1 X272.324Y328.758
G1 X272.607Y328.66
G1 X272.873Y328.524
G1 X273.118Y328.351
G1 X273.337Y328.142
G1 X273.527Y327.899
G1 X273.627Y327.723
G1 X273.72Y327.542
G1 X273.786Y327.35
G1 X273.84Y327.154
G1 X274.018Y326.296
G1 X274.066Y326.111
G1 X274.13Y325.935
G1 X274.21Y325.769
G1 X274.305Y325.613
G1 X274.414Y325.467
G1 X274.535Y325.334
G1 X274.668Y325.213
G1 X274.812Y325.106
G1 X274.965Y325.012
G1 X275.126Y324.933
G1 X275.295Y324.869
G1 X275.47Y324.822
G1 X275.65Y324.791
G1 X275.834Y324.777
G1 X276.022Y324.782
G1 X276.211Y324.806
G1 X290.922Y327.399
G1 X291.324Y327.429
G1 X291.508Y327.417
G1 X291.688Y327.389
G1 X291.863Y327.346
G1 X292.032Y327.289
G1 X292.195Y327.218
G1 X292.35Y327.135
G1 X292.497Y327.038
G1 X292.636Y326.93
G1 X292.765Y326.811
G1 X292.884Y326.681
G1 X292.992Y326.541
G1 X293.088Y326.392
G1 X293.171Y326.235
G1 X293.242Y326.069
G1 X293.298Y325.896
G1 X293.342Y325.707
G1 X296.9Y306.202
G1 X296.942Y306.019
G1 X297.001Y305.842
G1 X297.077Y305.672
G1 X297.169Y305.511
G1 X297.276Y305.36
G1 X297.398Y305.22
G1 X297.534Y305.091
G1 X297.683Y304.976
G1 X297.842Y304.876
G1 X298.009Y304.793
G1 X298.183Y304.727
G1 X298.362Y304.678
G1 X298.544Y304.647
G1 X298.73Y304.634
G1 X298.916Y304.639
G1 X299.103Y304.663
G1 X332.468Y310.545
G1 X332.65Y310.568
G1 X332.832Y310.575
G1 X333.011Y310.567
G1 X333.187Y310.544
G1 X333.36Y310.506
G1 X333.528Y310.454
G1 X333.69Y310.388
G1 X333.847Y310.309
G1 X333.996Y310.217
G1 X334.137Y310.113
G1 X334.27Y309.997
G1 X334.393Y309.87
G1 X334.505Y309.732
G1 X334.606Y309.584
G1 X334.695Y309.426
G1 X334.778Y309.24
G1 X334.891Y308.84
G1 X341.474Y271.506
G1 X341.505Y271.194
G1 X341.49Y270.885
G1 X341.431Y270.585
G1 X341.329Y270.298
G1 X341.186Y270.029
G1 X341.006Y269.782
G1 X340.789Y269.562
G1 X340.538Y269.373
G1 X340.357Y269.273
G1 X340.17Y269.186
G1 X339.973Y269.119
G1 X339.771Y269.073
G1 X302.428Y262.489
G1 X302.247Y262.465
G1 X302.068Y262.457
G1 X301.89Y262.464
G1 X301.715Y262.486
G1 X301.544Y262.523
G1 X301.376Y262.573
G1 X301.215Y262.637
G1 X301.059Y262.714
G1 X300.91Y262.803
G1 X300.768Y262.905
G1 X300.635Y263.018
G1 X300.512Y263.142
G1 X300.399Y263.278
G1 X300.296Y263.423
G1 X300.206Y263.578
G1 X300.127Y263.743
G1 X300.007Y264.132
G1 X299.829Y264.993
G1 X299.781Y265.178
G1 X299.717Y265.354
G1 X299.636Y265.52
G1 X299.541Y265.676
G1 X299.433Y265.821
G1 X299.311Y265.955
G1 X299.178Y266.075
G1 X299.035Y266.183
G1 X298.882Y266.276
G1 X298.72Y266.355
G1 X298.552Y266.419
G1 X298.377Y266.466
G1 X298.197Y266.496
G1 X298.012Y266.509
G1 X297.825Y266.504
G1 X297.636Y266.479
G1 X282.89Y263.879
G1 X282.709Y263.855
G1 X282.53Y263.847
G1 X282.352Y263.854
G1 X282.177Y263.876
G1 X282.005Y263.913
G1 X281.838Y263.963
G1 X281.676Y264.027
G1 X281.52Y264.104
G1 X281.371Y264.193
G1 X281.23Y264.295
G1 X281.097Y264.408
G1 X280.974Y264.533
G1 X280.86Y264.668
G1 X280.758Y264.813
G1 X280.667Y264.969
G1 X280.589Y265.134
G1 X280.527Y265.327
G1 X280.469Y265.522
G1 X280.291Y266.38
G1 X280.243Y266.565
G1 X280.179Y266.741
G1 X280.098Y266.908
G1 X280.003Y267.064
G1 X279.894Y267.209
G1 X279.773Y267.342
G1 X279.64Y267.463
G1 X279.497Y267.571
G1 X279.344Y267.665
G1 X279.182Y267.744
G1 X279.014Y267.808
G1 X278.839Y267.855
G1 X278.659Y267.886
G1 X278.475Y267.899
G1 X278.288Y267.895
G1 X278.098Y267.871
G1 X267.293Y265.965
G1 X267.107Y265.923
G1 X266.929Y265.863
G1 X266.76Y265.788
G1 X266.601Y265.697
G1 X266.453Y265.592
G1 X266.316Y265.475
G1 X266.191Y265.345
G1 X266.08Y265.205
G1 X265.982Y265.055
G1 X265.898Y264.895
G1 X265.83Y264.729
G1 X265.777Y264.555
G1 X265.742Y264.376
G1 X265.723Y264.192
G1 Y264.005
G1 X265.742Y263.814
G1 X265.869Y262.948
G1 X265.887Y262.767
G1 X265.89Y262.587
G1 X265.878Y262.409
G1 X265.851Y262.235
G1 X265.809Y262.065
G1 X265.754Y261.899
G1 X265.685Y261.739
G1 X265.604Y261.586
G1 X265.51Y261.439
G1 X265.405Y261.301
G1 X265.287Y261.172
G1 X265.159Y261.052
G1 X265.021Y260.942
G1 X264.872Y260.844
G1 X264.714Y260.759
G1 X264.547Y260.686
G1 X264.351Y260.63
G1 X264.155Y260.576
G1 X254.668Y258.903
G1 X254.477Y258.859
G1 X254.292Y258.797
G1 X254.116Y258.716
G1 X253.949Y258.617
G1 X253.793Y258.502
G1 X253.65Y258.372
G1 X253.519Y258.227
G1 X253.404Y258.068
G1 X253.305Y257.898
G1 X253.225Y257.72
G1 X253.164Y257.536
G1 X253.122Y257.347
G1 X253.1Y257.155
G1 X253.097Y256.961
G1 X253.114Y256.766
G1 X253.151Y256.573
G1 X258.49Y234.859
G1 X258.524Y234.657
G1 X258.548Y234.454
G1 Y234.271
G1 X258.533Y234.091
G1 X258.503Y233.916
G1 X258.459Y233.744
G1 X258.4Y233.579
G1 X258.329Y233.419
G1 X258.244Y233.267
G1 X258.148Y233.122
G1 X258.039Y232.986
G1 X257.92Y232.858
G1 X257.79Y232.741
G1 X257.65Y232.635
G1 X257.501Y232.54
G1 X257.343Y232.457
G1 X257.177Y232.387
G1 X256.994Y232.329
G1 X242.173Y228.357
G1 X242.019Y228.309
G1 X241.871Y228.249
G1 X241.73Y228.177
G1 X241.597Y228.095
G1 X241.472Y228.002
G1 X241.355Y227.9
G1 X241.247Y227.789
G1 X241.149Y227.67
G1 X241.061Y227.544
G1 X240.983Y227.41
G1 X240.916Y227.27
G1 X240.86Y227.125
G1 X240.817Y226.974
G1 X240.785Y226.819
G1 X240.767Y226.661
G1 X240.762Y226.499
; Layer C00 Pass 3 of 3
G1 X240.776Y225.273
G1 X240.758Y224.973
G1 X240.698Y224.682
G1 X240.599Y224.406
G1 X240.463Y224.147
G1 X240.292Y223.909
G1 X240.09Y223.696
G1 X239.857Y223.513
G1 X239.597Y223.361
G1 X221.625Y214.596
G1 X221.515Y214.549
G1 X221.405Y214.505
G1 X221.291Y214.47
G1 X221.177Y214.439
G1 X220.942Y214.399
G1 X220.71Y214.386
G1 X158.14
G1 X157.96Y214.394
G1 X157.781Y214.417
G1 X157.606Y214.455
G1 X157.434Y214.509
G1 X157.326Y214.552
G1 X157.219Y214.599
G1 X139.252Y223.361
G1 X139.026Y223.49
G1 X138.819Y223.644
G1 X138.634Y223.821
G1 X138.472Y224.019
G1 X138.335Y224.234
G1 X138.225Y224.465
G1 X138.144Y224.71
G1 X138.092Y224.966
G1 X138.074Y225.267
G1 X138.088Y226.499
G1 X138.083Y226.661
G1 X138.064Y226.819
G1 X138.033Y226.974
G1 X137.99Y227.125
G1 X137.934Y227.27
G1 X137.867Y227.41
G1 X137.789Y227.544
G1 X137.701Y227.671
G1 X137.602Y227.79
G1 X137.494Y227.901
G1 X137.378Y228.003
G1 X137.252Y228.095
G1 X137.119Y228.178
G1 X136.978Y228.249
G1 X136.83Y228.309
G1 X136.676Y228.357
G1 X121.855Y232.329
G1 X121.681Y232.384
G1 X121.513Y232.453
G1 X121.354Y232.535
G1 X121.204Y232.63
G1 X121.064Y232.736
G1 X120.933Y232.854
G1 X120.813Y232.981
G1 X120.704Y233.118
G1 X120.607Y233.263
G1 X120.522Y233.416
G1 X120.45Y233.576
G1 X120.391Y233.742
G1 X120.346Y233.914
G1 X120.316Y234.09
G1 X120.301Y234.27
G1 Y234.454
G1 X120.326Y234.657
G1 X120.359Y234.859
G1 X125.698Y256.573
G1 X125.736Y256.766
G1 X125.753Y256.961
G1 X125.75Y257.155
G1 X125.728Y257.347
G1 X125.686Y257.536
G1 X125.625Y257.72
G1 X125.545Y257.898
G1 X125.446Y258.068
G1 X125.331Y258.227
G1 X125.2Y258.372
G1 X125.056Y258.503
G1 X124.901Y258.617
G1 X124.734Y258.716
G1 X124.557Y258.797
G1 X124.373Y258.859
G1 X124.181Y258.903
G1 X114.694Y260.576
G1 X114.489Y260.623
G1 X114.292Y260.689
G1 X114.106Y260.772
G1 X113.931Y260.872
G1 X113.768Y260.988
G1 X113.617Y261.117
G1 X113.48Y261.26
G1 X113.356Y261.415
G1 X113.248Y261.581
G1 X113.156Y261.756
G1 X113.08Y261.94
G1 X113.022Y262.131
G1 X112.982Y262.329
G1 X112.961Y262.532
G1 Y262.739
G1 X112.98Y262.948
G1 X113.107Y263.814
G1 X113.126Y264.005
G1 Y264.192
G1 X113.107Y264.376
G1 X113.071Y264.555
G1 X113.019Y264.729
G1 X112.95Y264.896
G1 X112.867Y265.055
G1 X112.769Y265.205
G1 X112.657Y265.346
G1 X112.533Y265.475
G1 X112.396Y265.593
G1 X112.248Y265.697
G1 X112.089Y265.788
G1 X111.92Y265.863
G1 X111.742Y265.923
G1 X111.556Y265.965
G1 X100.751Y267.871
G1 X100.562Y267.894
G1 X100.375Y267.899
G1 X100.191Y267.886
G1 X100.011Y267.855
G1 X99.836Y267.808
G1 X99.668Y267.744
G1 X99.507Y267.666
G1 X99.354Y267.572
G1 X99.21Y267.465
G1 X99.077Y267.344
G1 X98.956Y267.211
G1 X98.847Y267.066
G1 X98.752Y266.911
G1 X98.671Y266.745
G1 X98.607Y266.569
G1 X98.559Y266.384
G1 X98.381Y265.522
G1 X98.328Y265.319
G1 X98.256Y265.125
G1 X98.167Y264.941
G1 X98.062Y264.769
G1 X97.942Y264.609
G1 X97.808Y264.462
G1 X97.661Y264.329
G1 X97.503Y264.21
G1 X97.334Y264.107
G1 X97.156Y264.02
G1 X96.97Y263.95
G1 X96.777Y263.897
G1 X96.578Y263.863
G1 X96.375Y263.848
G1 X96.168Y263.853
G1 X95.959Y263.879
G1 X81.213Y266.479
G1 X81.024Y266.504
G1 X80.836Y266.509
G1 X80.652Y266.495
G1 X80.472Y266.465
G1 X80.297Y266.417
G1 X80.128Y266.353
G1 X79.966Y266.274
G1 X79.813Y266.181
G1 X79.67Y266.073
G1 X79.537Y265.952
G1 X79.416Y265.819
G1 X79.307Y265.673
G1 X79.212Y265.517
G1 X79.132Y265.351
G1 X79.067Y265.174
G1 X79.02Y264.989
G1 X78.842Y264.131
G1 X78.789Y263.928
G1 X78.718Y263.733
G1 X78.629Y263.55
G1 X78.524Y263.378
G1 X78.404Y263.218
G1 X78.27Y263.071
G1 X78.123Y262.938
G1 X77.964Y262.819
G1 X77.796Y262.716
G1 X77.618Y262.629
G1 X77.432Y262.559
G1 X77.239Y262.506
G1 X77.04Y262.472
G1 X76.837Y262.457
G1 X76.63Y262.463
G1 X76.421Y262.489
G1 X39.079Y269.073
G1 X38.869Y269.121
G1 X38.669Y269.189
G1 X38.48Y269.275
G1 X38.302Y269.378
G1 X38.137Y269.497
G1 X37.985Y269.631
G1 X37.847Y269.778
G1 X37.723Y269.937
G1 X37.616Y270.108
G1 X37.525Y270.288
G1 X37.451Y270.477
G1 X37.396Y270.673
G1 X37.36Y270.875
G1 X37.344Y271.082
G1 X37.349Y271.293
G1 X37.375Y271.506
G1 X43.958Y308.84
G1 X44.007Y309.05
G1 X44.074Y309.25
G1 X44.16Y309.439
G1 X44.263Y309.616
G1 X44.382Y309.782
G1 X44.516Y309.934
G1 X44.663Y310.072
G1 X44.823Y310.195
G1 X44.993Y310.303
G1 X45.173Y310.394
G1 X45.362Y310.467
G1 X45.558Y310.523
G1 X45.76Y310.559
G1 X45.967Y310.575
G1 X46.178Y310.57
G1 X46.392Y310.543
G1 X79.746Y304.663
G1 X79.933Y304.639
G1 X80.119Y304.634
G1 X80.305Y304.647
G1 X80.487Y304.678
G1 X80.666Y304.727
G1 X80.84Y304.793
G1 X81.007Y304.876
G1 X81.167Y304.976
G1 X81.315Y305.091
G1 X81.451Y305.22
G1 X81.573Y305.36
G1 X81.68Y305.511
G1 X81.772Y305.672
G1 X81.848Y305.842
G1 X81.907Y306.019
G1 X81.949Y306.202
G1 X85.507Y325.707
G1 X85.556Y325.908
G1 X85.621Y326.104
G1 X85.696Y326.272
G1 X85.785Y326.431
G1 X85.886Y326.58
G1 X85.998Y326.719
G1 X86.121Y326.847
G1 X86.254Y326.963
G1 X86.395Y327.068
G1 X86.545Y327.16
G1 X86.701Y327.24
G1 X86.864Y327.306
G1 X87.033Y327.358
G1 X87.206Y327.397
G1 X87.383Y327.421
G1 X87.562Y327.429
G1 X87.744Y327.422
G1 X87.938Y327.398
G1 X102.638Y324.806
G1 X102.828Y324.782
G1 X103.015Y324.777
G1 X103.199Y324.79
G1 X103.38Y324.821
G1 X103.555Y324.869
G1 X103.723Y324.932
G1 X103.885Y325.011
G1 X104.038Y325.105
G1 X104.181Y325.213
G1 X104.314Y325.334
G1 X104.435Y325.467
G1 X104.544Y325.612
G1 X104.639Y325.768
G1 X104.719Y325.935
G1 X104.784Y326.111
G1 X104.831Y326.296
G1 X105.009Y327.154
G1 X105.062Y327.358
G1 X105.133Y327.552
G1 X105.222Y327.735
G1 X105.327Y327.907
G1 X105.447Y328.067
G1 X105.582Y328.214
G1 X105.728Y328.347
G1 X105.887Y328.466
G1 X106.055Y328.569
G1 X106.233Y328.656
G1 X106.42Y328.727
G1 X106.613Y328.779
G1 X106.811Y328.813
G1 X107.015Y328.828
G1 X107.221Y328.823
G1 X107.43Y328.797
G1 X126.118Y325.501
G1 X126.323Y325.455
G1 X126.52Y325.389
G1 X126.706Y325.305
G1 X126.881Y325.206
G1 X127.044Y325.09
G1 X127.195Y324.96
G1 X127.332Y324.818
G1 X127.455Y324.663
G1 X127.564Y324.497
G1 X127.656Y324.322
G1 X127.732Y324.138
G1 X127.79Y323.946
G1 X127.83Y323.749
G1 X127.851Y323.546
G1 Y323.339
G1 X127.832Y323.129
G1 X127.705Y322.263
G1 X127.686Y322.073
G1 Y321.886
G1 X127.705Y321.702
G1 X127.741Y321.523
G1 X127.793Y321.349
G1 X127.862Y321.182
G1 X127.945Y321.023
G1 X128.043Y320.873
G1 X128.155Y320.732
G1 X128.28Y320.603
G1 X128.416Y320.485
G1 X128.564Y320.381
G1 X128.723Y320.29
G1 X128.892Y320.214
G1 X129.07Y320.155
G1 X129.256Y320.112
G1 X144.002Y317.512
G1 X144.18Y317.473
G1 X144.352Y317.419
G1 X144.517Y317.351
G1 X144.674Y317.271
G1 X144.822Y317.178
G1 X144.962Y317.073
G1 X145.092Y316.958
G1 X145.213Y316.832
G1 X145.322Y316.697
G1 X145.42Y316.554
G1 X145.506Y316.402
G1 X145.58Y316.243
G1 X145.64Y316.077
G1 X145.686Y315.905
G1 X145.718Y315.728
G1 X145.735Y315.546
G1 X145.716Y315.14
G1 X145.589Y314.273
G1 X145.571Y314.083
G1 Y313.896
G1 X145.589Y313.712
G1 X145.625Y313.533
G1 X145.678Y313.359
G1 X145.746Y313.193
G1 X145.83Y313.034
G1 X145.928Y312.883
G1 X146.039Y312.743
G1 X146.164Y312.613
G1 X146.301Y312.496
G1 X146.449Y312.391
G1 X146.607Y312.3
G1 X146.776Y312.225
G1 X146.954Y312.165
G1 X147.14Y312.123
G1 X163.627Y309.216
G1 X163.793Y309.194
G1 X163.961Y309.187
G1 X165.425
G1 X165.44
G1 X165.458Y309.182
G1 X165.474Y309.174
G1 X165.501Y309.152
G1 X165.519Y309.122
G1 X165.523Y309.104
G1 Y309.087
G1 Y245.56
G1 X165.536Y245.322
G1 X165.57Y245.088
G1 X165.627Y244.859
G1 X165.706Y244.638
G1 X165.806Y244.426
G1 X165.927Y244.224
G1 X166.068Y244.034
G1 X166.227Y243.857
G1 X166.404Y243.698
G1 X166.594Y243.557
G1 X166.796Y243.436
G1 X167.008Y243.336
G1 X167.23Y243.257
G1 X167.458Y243.2
G1 X167.692Y243.166
G1 X167.93Y243.155
G1 X210.92
G1 X211.158Y243.166
G1 X211.392Y243.201
G1 X211.62Y243.258
G1 X211.841Y243.337
G1 X212.053Y243.437
G1 X212.255Y243.557
G1 X212.445Y243.698
G1 X212.622Y243.858
G1 X212.782Y244.034
G1 X212.922Y244.225
G1 X213.043Y244.427
G1 X213.143Y244.639
G1 X213.222Y244.86
G1 X213.279Y245.088
G1 X213.314Y245.322
G1 X213.325Y245.56
G1 Y309.087
G1 X213.33Y309.12
G1 X213.337Y309.136
G1 X213.348Y309.15
G1 X213.378Y309.169
G1 X213.407Y309.186
G1 X213.425
G1 X214.888
G1 X215.056Y309.193
G1 X215.222Y309.216
G1 X231.709Y312.123
G1 X231.895Y312.165
G1 X232.073Y312.224
G1 X232.242Y312.3
G1 X232.401Y312.39
G1 X232.549Y312.495
G1 X232.686Y312.613
G1 X232.81Y312.742
G1 X232.922Y312.883
G1 X233.02Y313.033
G1 X233.103Y313.192
G1 X233.172Y313.359
G1 X233.224Y313.533
G1 X233.26Y313.712
G1 X233.278Y313.896
G1 Y314.084
G1 X233.26Y314.274
G1 X233.133Y315.14
G1 X233.115Y315.322
G1 X233.112Y315.501
G1 X233.124Y315.679
G1 X233.151Y315.853
G1 X233.193Y316.024
G1 X233.248Y316.19
G1 X233.316Y316.35
G1 X233.398Y316.503
G1 X233.492Y316.649
G1 X233.597Y316.788
G1 X233.714Y316.917
G1 X233.842Y317.037
G1 X233.981Y317.146
G1 X234.13Y317.244
G1 X234.288Y317.33
G1 X234.455Y317.402
G1 X234.65Y317.46
G1 X234.847Y317.512
G1 X249.593Y320.112
G1 X249.78Y320.154
G1 X249.957Y320.214
G1 X250.126Y320.289
G1 X250.285Y320.38
G1 X250.433Y320.484
G1 X250.569Y320.602
G1 X250.694Y320.732
G1 X250.806Y320.872
G1 X250.903Y321.022
G1 X250.987Y321.182
G1 X251.055Y321.348
G1 X251.108Y321.522
G1 X251.144Y321.701
G1 X251.162Y321.885
G1 Y322.073
G1 X251.144Y322.263
G1 X251.018Y323.129
G1 X250.996Y323.385
G1 X251.006Y323.638
G1 X251.046Y323.886
G1 X251.115Y324.127
G1 X251.211Y324.358
G1 X251.336Y324.577
G1 X251.486Y324.781
G1 X251.662Y324.967
G1 X251.816Y325.092
G1 X251.977Y325.21
G1 X252.153Y325.312
G1 X252.339Y325.392
G1 X252.731Y325.501
G1 X271.419Y328.797
G1 X271.726Y328.828
G1 X272.029Y328.814
G1 X272.324Y328.758
G1 X272.607Y328.66
G1 X272.873Y328.524
G1 X273.118Y328.351
G1 X273.337Y328.142
G1 X273.527Y327.899
G1 X273.627Y327.723
G1 X273.72Y327.542
G1 X273.786Y327.35
G1 X273.84Y327.154
G1 X274.018Y326.296
G1 X274.066Y326.111
G1 X274.13Y325.935
G1 X274.21Y325.769
G1 X274.305Y325.613
G1 X274.414Y325.467
G1 X274.535Y325.334
G1 X274.668Y325.213
G1 X274.812Y325.106
G1 X274.965Y325.012
G1 X275.126Y324.933
G1 X275.295Y324.869
G1 X275.47Y324.822
G1 X275.65Y324.791
G1 X275.834Y324.777
G1 X276.022Y324.782
G1 X276.211Y324.806
G1 X290.922Y327.399
G1 X291.324Y327.429
G1 X291.508Y327.417
G1 X291.688Y327.389
G1 X291.863Y327.346
G1 X292.032Y327.289
G1 X292.195Y327.218
G1 X292.35Y327.135
G1 X292.497Y327.038
G1 X292.636Y326.93
G1 X292.765Y326.811
G1 X292.884Y326.681
G1 X292.992Y326.541
G1 X293.088Y326.392
G1 X293.171Y326.235
G1 X293.242Y326.069
G1 X293.298Y325.896
G1 X293.342Y325.707
G1 X296.9Y306.202
G1 X296.942Y306.019
G1 X297.001Y305.842
G1 X297.077Y305.672
G1 X297.169Y305.511
G1 X297.276Y305.36
G1 X297.398Y305.22
G1 X297.534Y305.091
G1 X297.683Y304.976
G1 X297.842Y304.876
G1 X298.009Y304.793
G1 X298.183Y304.727
G1 X298.362Y304.678
G1 X298.544Y304.647
G1 X298.73Y304.634
G1 X298.916Y304.639
G1 X299.103Y304.663
G1 X332.468Y310.545
G1 X332.65Y310.568
G1 X332.832Y310.575
G1 X333.011Y310.567
G1 X333.187Y310.544
G1 X333.36Y310.506
G1 X333.528Y310.454
G1 X333.69Y310.388
G1 X333.847Y310.309
G1 X333.996Y310.217
G1 X334.137Y310.113
G1 X334.27Y309.997
G1 X334.393Y309.87
G1 X334.505Y309.732
G1 X334.606Y309.584
G1 X334.695Y309.426
G1 X334.778Y309.24
G1 X334.891Y308.84
G1 X341.474Y271.506
G1 X341.505Y271.194
G1 X341.49Y270.885
G1 X341.431Y270.585
G1 X341.329Y270.298
G1 X341.186Y270.029
G1 X341.006Y269.782
G1 X340.789Y269.562
G1 X340.538Y269.373
G1 X340.357Y269.273
G1 X340.17Y269.186
G1 X339.973Y269.119
G1 X339.771Y269.073
G1 X302.428Y262.489
G1 X302.247Y262.465
G1 X302.068Y262.457
G1 X301.89Y262.464
G1 X301.715Y262.486
G1 X301.544Y262.523
G1 X301.376Y262.573
G1 X301.215Y262.637
G1 X301.059Y262.714
G1 X300.91Y262.803
G1 X300.768Y262.905
G1 X300.635Y263.018
G1 X300.512Y263.142
G1 X300.399Y263.278
G1 X300.296Y263.423
G1 X300.206Y263.578
G1 X300.127Y263.743
G1 X300.007Y264.132
G1 X299.829Y264.993
G1 X299.781Y265.178
G1 X299.717Y265.354
G1 X299.636Y265.52
G1 X299.541Y265.676
G1 X299.433Y265.821
G1 X299.311Y265.955
G1 X299.178Y266.075
G1 X299.035Y266.183
G1 X298.882Y266.276
G1 X298.72Y266.355
G1 X298.552Y266.419
G1 X298.377Y266.466
G1 X298.197Y266.496
G1 X298.012Y266.509
G1 X297.825Y266.504
G1 X297.636Y266.479
G1 X282.89Y263.879
G1 X282.709Y263.855
G1 X282.53Y263.847
G1 X282.352Y263.854
G1 X282.177Y263.876
G1 X282.005Y263.913
G1 X281.838Y263.963
G1 X281.676Y264.027
G1 X281.52Y264.104
G1 X281.371Y264.193
G1 X281.23Y264.295
G1 X281.097Y264.408
G1 X280.974Y264.533
G1 X280.86Y264.668
G1 X280.758Y264.813
G1 X280.667Y264.969
G1 X280.589Y265.134
G1 X280.527Y265.327
G1 X280.469Y265.522
G1 X280.291Y266.38
G1 X280.243Y266.565
G1 X280.179Y266.741
G1 X280.098Y266.908
G1 X280.003Y267.064
G1 X279.894Y267.209
G1 X279.773Y267.342
G1 X279.64Y267.463
G1 X279.497Y267.571
G1 X279.344Y267.665
G1 X279.182Y267.744
G1 X279.014Y267.808
G1 X278.839Y267.855
G1 X278.659Y267.886
G1 X278.475Y267.899
G1 X278.288Y267.895
G1 X278.098Y267.871
G1 X267.293Y265.965
G1 X267.107Y265.923
G1 X266.929Y265.863
G1 X266.76Y265.788
G1 X266.601Y265.697
G1 X266.453Y265.592
G1 X266.316Y265.475
G1 X266.191Y265.345
G1 X266.08Y265.205
G1 X265.982Y265.055
G1 X265.898Y264.895
G1 X265.83Y264.729
G1 X265.777Y264.555
G1 X265.742Y264.376
G1 X265.723Y264.192
G1 Y264.005
G1 X265.742Y263.814
G1 X265.869Y262.948
G1 X265.887Y262.767
G1 X265.89Y262.587
G1 X265.878Y262.409
G1 X265.851Y262.235
G1 X265.809Y262.065
G1 X265.754Y261.899
G1 X265.685Y261.739
G1 X265.604Y261.586
G1 X265.51Y261.439
G1 X265.405Y261.301
G1 X265.287Y261.172
G1 X265.159Y261.052
G1 X265.021Y260.942
G1 X264.872Y260.844
G1 X264.714Y260.759
G1 X264.547Y260.686
G1 X264.351Y260.63
G1 X264.155Y260.576
G1 X254.668Y258.903
G1 X254.477Y258.859
G1 X254.292Y258.797
G1 X254.116Y258.716
G1 X253.949Y258.617
G1 X253.793Y258.502
G1 X253.65Y258.372
G1 X253.519Y258.227
G1 X253.404Y258.068
G1 X253.305Y257.898
G1 X253.225Y257.72
G1 X253.164Y257.536
G1 X253.122Y257.347
G1 X253.1Y257.155
G1 X253.097Y256.961
G1 X253.114Y256.766
G1 X253.151Y256.573
G1 X258.49Y234.859
G1 X258.524Y234.657
G1 X258.548Y234.454
G1 Y234.271
G1 X258.533Y234.091
G1 X258.503Y233.916
G1 X258.459Y233.744
G1 X258.4Y233.579
G1 X258.329Y233.419
G1 X258.244Y233.267
G1 X258.148Y233.122
G1 X258.039Y232.986
G1 X257.92Y232.858
G1 X257.79Y232.741
G1 X257.65Y232.635
G1 X257.501Y232.54
G1 X257.343Y232.457
G1 X257.177Y232.387
G1 X256.994Y232.329
G1 X242.173Y228.357
G1 X242.019Y228.309
G1 X241.871Y228.249
G1 X241.73Y228.177
G1 X241.597Y228.095
G1 X241.472Y228.002
G1 X241.355Y227.9
G1 X241.247Y227.789
G1 X241.149Y227.67
G1 X241.061Y227.544
G1 X240.983Y227.41
G1 X240.916Y227.27
G1 X240.86Y227.125
G1 X240.817Y226.974
G1 X240.785Y226.819
G1 X240.767Y226.661
G1 X240.762Y226.499
M9
G1 S0
M5
G90
; return to user-defined finish pos
G0 X0Y0
M2
