; LightBurn 1.7.08
; GRBL device profile, absolute coords
; Bounds: X48.02 Y150.38 to X351.98 Y264.62
G00 G17 G40 G21 G54
G90
M4
; Cut @ 12 mm/sec, 90% power
M8
G0 X159.768Y175.023
; Layer C00 Pass 1 of 2
G1 X172.351Y168.886S900F720
G1 X166.213Y156.303
G1 X153.63Y162.44
G1 X159.768Y175.023
; Layer C00 Pass 2 of 2
G1 X172.351Y168.886
G1 X166.213Y156.303
G1 X153.63Y162.44
G1 X159.768Y175.023
G0 X139.614Y185.48
; Layer C00 Pass 1 of 2
G1 X153.137Y181.857
G1 X149.513Y168.334
G1 X135.99Y171.958
G1 X139.614Y185.48
; Layer C00 Pass 2 of 2
G1 X153.137Y181.857
G1 X149.513Y168.334
G1 X135.99Y171.958
G1 X139.614Y185.48
G0 X146.608Y196.146
; Layer C00 Pass 1 of 2
G1 X146.605Y195.96
G1 X146.586Y195.777
G1 X146.552Y195.597
G1 X146.502Y195.422
G1 X146.439Y195.252
G1 X146.361Y195.088
G1 X146.27Y194.931
G1 X146.166Y194.782
G1 X146.049Y194.642
G1 X145.921Y194.512
G1 X145.781Y194.393
G1 X145.629Y194.285
G1 X145.467Y194.189
G1 X145.295Y194.107
G1 X144.892Y193.982
G1 X144.458Y193.938
G1 X144.268Y193.947
G1 X144.083Y193.971
G1 X143.902Y194.011
G1 X143.727Y194.066
G1 X143.559Y194.135
G1 X143.397Y194.218
G1 X143.244Y194.314
G1 X143.099Y194.422
G1 X142.964Y194.542
G1 X142.839Y194.673
G1 X142.726Y194.814
G1 X142.624Y194.965
G1 X142.535Y195.126
G1 X142.459Y195.294
G1 X142.398Y195.471
G1 X142.352Y195.655
G1 X142.318Y195.873
G1 X142.307Y196.089
G1 X142.318Y196.301
G1 X142.349Y196.509
G1 X142.4Y196.711
G1 X142.469Y196.907
G1 X142.557Y197.094
G1 X142.663Y197.271
G1 X142.784Y197.438
G1 X142.921Y197.593
G1 X143.073Y197.734
G1 X143.239Y197.86
G1 X143.418Y197.971
G1 X143.609Y198.065
G1 X143.812Y198.14
G1 X144.025Y198.195
G1 X144.242Y198.228
G1 X144.458Y198.239
G1 X144.671Y198.229
G1 X144.879Y198.198
G1 X145.081Y198.147
G1 X145.276Y198.077
G1 X145.464Y197.989
G1 X145.641Y197.884
G1 X145.808Y197.763
G1 X145.962Y197.625
G1 X146.104Y197.474
G1 X146.23Y197.308
G1 X146.341Y197.129
G1 X146.434Y196.938
G1 X146.509Y196.735
G1 X146.564Y196.522
G1 X146.595Y196.334
G1 X146.608Y196.146
; Layer C00 Pass 2 of 2
G1 X146.605Y195.96
G1 X146.586Y195.777
G1 X146.552Y195.597
G1 X146.502Y195.422
G1 X146.439Y195.252
G1 X146.361Y195.088
G1 X146.27Y194.931
G1 X146.166Y194.782
G1 X146.049Y194.642
G1 X145.921Y194.512
G1 X145.781Y194.393
G1 X145.629Y194.285
G1 X145.467Y194.189
G1 X145.295Y194.107
G1 X144.892Y193.982
G1 X144.458Y193.938
G1 X144.268Y193.947
G1 X144.083Y193.971
G1 X143.902Y194.011
G1 X143.727Y194.066
G1 X143.559Y194.135
G1 X143.397Y194.218
G1 X143.244Y194.314
G1 X143.099Y194.422
G1 X142.964Y194.542
G1 X142.839Y194.673
G1 X142.726Y194.814
G1 X142.624Y194.965
G1 X142.535Y195.126
G1 X142.459Y195.294
G1 X142.398Y195.471
G1 X142.352Y195.655
G1 X142.318Y195.873
G1 X142.307Y196.089
G1 X142.318Y196.301
G1 X142.349Y196.509
G1 X142.4Y196.711
G1 X142.469Y196.907
G1 X142.557Y197.094
G1 X142.663Y197.271
G1 X142.784Y197.438
G1 X142.921Y197.593
G1 X143.073Y197.734
G1 X143.239Y197.86
G1 X143.418Y197.971
G1 X143.609Y198.065
G1 X143.812Y198.14
G1 X144.025Y198.195
G1 X144.242Y198.228
G1 X144.458Y198.239
G1 X144.671Y198.229
G1 X144.879Y198.198
G1 X145.081Y198.147
G1 X145.276Y198.077
G1 X145.464Y197.989
G1 X145.641Y197.884
G1 X145.808Y197.763
G1 X145.962Y197.625
G1 X146.104Y197.474
G1 X146.23Y197.308
G1 X146.341Y197.129
G1 X146.434Y196.938
G1 X146.509Y196.735
G1 X146.564Y196.522
G1 X146.595Y196.334
G1 X146.608Y196.146
G0 X148.822Y206.296
; Layer C00 Pass 1 of 2
G1 X162.609Y203.865
G1 X160.178Y190.078
G1 X146.391Y192.509
G1 X148.822Y206.296
; Layer C00 Pass 2 of 2
G1 X162.609Y203.865
G1 X160.178Y190.078
G1 X146.391Y192.509
G1 X148.822Y206.296
G0 X130.938Y214.286
; Layer C00 Pass 1 of 2
G1 X144.725Y211.854
G1 X142.294Y198.067
G1 X128.506Y200.498
G1 X130.938Y214.286
; Layer C00 Pass 2 of 2
G1 X144.725Y211.854
G1 X142.294Y198.067
G1 X128.506Y200.498
G1 X130.938Y214.286
G0 X126.84Y219.844
; Layer C00 Pass 1 of 2
G1 X113.053Y222.275
G1 X110.622Y208.488
G1 X124.41Y206.057
G1 X126.84Y219.844
; Layer C00 Pass 2 of 2
G1 X113.053Y222.275
G1 X110.622Y208.488
G1 X124.41Y206.057
G1 X126.84Y219.844
G0 X113.651Y228.071
; Layer C00 Pass 1 of 2
G1 X113.648Y227.886
G1 X113.629Y227.702
G1 X113.595Y227.522
G1 X113.546Y227.347
G1 X113.482Y227.177
G1 X113.405Y227.013
G1 X113.314Y226.856
G1 X113.209Y226.707
G1 X113.093Y226.567
G1 X112.964Y226.437
G1 X112.824Y226.318
G1 X112.672Y226.21
G1 X112.51Y226.115
G1 X112.338Y226.033
G1 X111.935Y225.908
G1 X111.719Y225.875
G1 X111.501Y225.865
G1 X111.284Y225.875
G1 X111.068Y225.908
G1 X110.884Y225.954
G1 X110.707Y226.015
G1 X110.538Y226.091
G1 X110.378Y226.18
G1 X110.227Y226.282
G1 X110.085Y226.396
G1 X109.954Y226.52
G1 X109.835Y226.655
G1 X109.726Y226.8
G1 X109.631Y226.953
G1 X109.548Y227.115
G1 X109.479Y227.283
G1 X109.424Y227.458
G1 X109.384Y227.639
G1 X109.359Y227.825
G1 X109.351Y228.014
G1 X109.359Y228.204
G1 X109.384Y228.389
G1 X109.424Y228.57
G1 X109.479Y228.745
G1 X109.548Y228.913
G1 X109.631Y229.075
G1 X109.726Y229.228
G1 X109.835Y229.373
G1 X109.954Y229.508
G1 X110.085Y229.633
G1 X110.227Y229.746
G1 X110.378Y229.848
G1 X110.538Y229.937
G1 X110.707Y230.013
G1 X110.884Y230.074
G1 X111.068Y230.121
G1 X111.285Y230.154
G1 X111.501Y230.165
G1 X111.714Y230.154
G1 X111.922Y230.123
G1 X112.124Y230.073
G1 X112.32Y230.003
G1 X112.507Y229.915
G1 X112.684Y229.81
G1 X112.851Y229.688
G1 X113.005Y229.551
G1 X113.147Y229.399
G1 X113.273Y229.233
G1 X113.384Y229.054
G1 X113.477Y228.863
G1 X113.552Y228.66
G1 X113.607Y228.447
G1 X113.638Y228.259
G1 X113.651Y228.071
; Layer C00 Pass 2 of 2
G1 X113.648Y227.886
G1 X113.629Y227.702
G1 X113.595Y227.522
G1 X113.546Y227.347
G1 X113.482Y227.177
G1 X113.405Y227.013
G1 X113.314Y226.856
G1 X113.209Y226.707
G1 X113.093Y226.567
G1 X112.964Y226.437
G1 X112.824Y226.318
G1 X112.672Y226.21
G1 X112.51Y226.115
G1 X112.338Y226.033
G1 X111.935Y225.908
G1 X111.719Y225.875
G1 X111.501Y225.865
G1 X111.284Y225.875
G1 X111.068Y225.908
G1 X110.884Y225.954
G1 X110.707Y226.015
G1 X110.538Y226.091
G1 X110.378Y226.18
G1 X110.227Y226.282
G1 X110.085Y226.396
G1 X109.954Y226.52
G1 X109.835Y226.655
G1 X109.726Y226.8
G1 X109.631Y226.953
G1 X109.548Y227.115
G1 X109.479Y227.283
G1 X109.424Y227.458
G1 X109.384Y227.639
G1 X109.359Y227.825
G1 X109.351Y228.014
G1 X109.359Y228.204
G1 X109.384Y228.389
G1 X109.424Y228.57
G1 X109.479Y228.745
G1 X109.548Y228.913
G1 X109.631Y229.075
G1 X109.726Y229.228
G1 X109.835Y229.373
G1 X109.954Y229.508
G1 X110.085Y229.633
G1 X110.227Y229.746
G1 X110.378Y229.848
G1 X110.538Y229.937
G1 X110.707Y230.013
G1 X110.884Y230.074
G1 X111.068Y230.121
G1 X111.285Y230.154
G1 X111.501Y230.165
G1 X111.714Y230.154
G1 X111.922Y230.123
G1 X112.124Y230.073
G1 X112.32Y230.003
G1 X112.507Y229.915
G1 X112.684Y229.81
G1 X112.851Y229.688
G1 X113.005Y229.551
G1 X113.147Y229.399
G1 X113.273Y229.233
G1 X113.384Y229.054
G1 X113.477Y228.863
G1 X113.552Y228.66
G1 X113.607Y228.447
G1 X113.638Y228.259
G1 X113.651Y228.071
G0 X110.61Y237.213
; Layer C00 Pass 1 of 2
G1 X96.823Y239.645
G1 X94.392Y225.857
G1 X108.179Y223.426
G1 X110.61Y237.213
; Layer C00 Pass 2 of 2
G1 X96.823Y239.645
G1 X94.392Y225.857
G1 X108.179Y223.426
G1 X110.61Y237.213
G0 X116.361Y241.036
; Layer C00 Pass 1 of 2
G1 X130.148Y238.604
G1 X127.717Y224.817
G1 X113.93Y227.248
G1 X116.361Y241.036
; Layer C00 Pass 2 of 2
G1 X130.148Y238.604
G1 X127.717Y224.817
G1 X113.93Y227.248
G1 X116.361Y241.036
G0 X134.246Y233.046
; Layer C00 Pass 1 of 2
G1 X148.033Y230.615
G1 X145.602Y216.828
G1 X131.814Y219.259
G1 X134.246Y233.046
; Layer C00 Pass 2 of 2
G1 X148.033Y230.615
G1 X145.602Y216.828
G1 X131.814Y219.259
G1 X134.246Y233.046
G0 X152.13Y225.057
; Layer C00 Pass 1 of 2
G1 X165.917Y222.625
G1 X163.486Y208.838
G1 X149.699Y211.269
G1 X152.13Y225.057
; Layer C00 Pass 2 of 2
G1 X165.917Y222.625
G1 X163.486Y208.838
G1 X149.699Y211.269
G1 X152.13Y225.057
G0 X154.548Y241.114
; Layer C00 Pass 1 of 2
G1 X154.537Y240.906
G1 X154.507Y240.701
G1 X154.458Y240.5
G1 X154.389Y240.305
G1 X154.303Y240.118
G1 X154.198Y239.94
G1 X154.077Y239.771
G1 X153.939Y239.615
G1 X153.785Y239.471
G1 X153.616Y239.342
G1 X153.432Y239.229
G1 X153.234Y239.133
G1 X152.831Y239.008
G1 X152.397Y238.964
G1 X152.208Y238.972
G1 X152.022Y238.997
G1 X151.842Y239.037
G1 X151.667Y239.092
G1 X151.498Y239.161
G1 X151.337Y239.244
G1 X151.184Y239.339
G1 X151.039Y239.448
G1 X150.904Y239.567
G1 X150.779Y239.698
G1 X150.665Y239.84
G1 X150.564Y239.991
G1 X150.475Y240.151
G1 X150.399Y240.32
G1 X150.337Y240.497
G1 X150.291Y240.681
G1 X150.258Y240.898
G1 X150.247Y241.114
G1 X150.257Y241.326
G1 X150.288Y241.534
G1 X150.339Y241.737
G1 X150.409Y241.932
G1 X150.496Y242.119
G1 X150.602Y242.297
G1 X150.723Y242.463
G1 X150.86Y242.618
G1 X151.012Y242.759
G1 X151.178Y242.886
G1 X151.357Y242.997
G1 X151.548Y243.09
G1 X151.751Y243.165
G1 X151.964Y243.22
G1 X152.152Y243.25
G1 X152.34Y243.264
G1 X152.525Y243.261
G1 X152.709Y243.242
G1 X152.889Y243.208
G1 X153.064Y243.159
G1 X153.234Y243.095
G1 X153.398Y243.018
G1 X153.555Y242.927
G1 X153.704Y242.822
G1 X153.844Y242.706
G1 X153.974Y242.577
G1 X154.093Y242.437
G1 X154.201Y242.285
G1 X154.297Y242.123
G1 X154.378Y241.951
G1 X154.454Y241.744
G1 X154.506Y241.535
G1 X154.538Y241.324
G1 X154.548Y241.114
; Layer C00 Pass 2 of 2
G1 X154.537Y240.906
G1 X154.507Y240.701
G1 X154.458Y240.5
G1 X154.389Y240.305
G1 X154.303Y240.118
G1 X154.198Y239.94
G1 X154.077Y239.771
G1 X153.939Y239.615
G1 X153.785Y239.471
G1 X153.616Y239.342
G1 X153.432Y239.229
G1 X153.234Y239.133
G1 X152.831Y239.008
G1 X152.397Y238.964
G1 X152.208Y238.972
G1 X152.022Y238.997
G1 X151.842Y239.037
G1 X151.667Y239.092
G1 X151.498Y239.161
G1 X151.337Y239.244
G1 X151.184Y239.339
G1 X151.039Y239.448
G1 X150.904Y239.567
G1 X150.779Y239.698
G1 X150.665Y239.84
G1 X150.564Y239.991
G1 X150.475Y240.151
G1 X150.399Y240.32
G1 X150.337Y240.497
G1 X150.291Y240.681
G1 X150.258Y240.898
G1 X150.247Y241.114
G1 X150.257Y241.326
G1 X150.288Y241.534
G1 X150.339Y241.737
G1 X150.409Y241.932
G1 X150.496Y242.119
G1 X150.602Y242.297
G1 X150.723Y242.463
G1 X150.86Y242.618
G1 X151.012Y242.759
G1 X151.178Y242.886
G1 X151.357Y242.997
G1 X151.548Y243.09
G1 X151.751Y243.165
G1 X151.964Y243.22
G1 X152.152Y243.25
G1 X152.34Y243.264
G1 X152.525Y243.261
G1 X152.709Y243.242
G1 X152.889Y243.208
G1 X153.064Y243.159
G1 X153.234Y243.095
G1 X153.398Y243.018
G1 X153.555Y242.927
G1 X153.704Y242.822
G1 X153.844Y242.706
G1 X153.974Y242.577
G1 X154.093Y242.437
G1 X154.201Y242.285
G1 X154.297Y242.123
G1 X154.378Y241.951
G1 X154.454Y241.744
G1 X154.506Y241.535
G1 X154.538Y241.324
G1 X154.548Y241.114
G0 X151.341Y249.375
; Layer C00 Pass 1 of 2
G1 X137.554Y251.807
G1 X135.123Y238.02
G1 X148.91Y235.588
G1 X151.341Y249.375
; Layer C00 Pass 2 of 2
G1 X137.554Y251.807
G1 X135.123Y238.02
G1 X148.91Y235.588
G1 X151.341Y249.375
G0 X169.225Y241.386
; Layer C00 Pass 1 of 2
G1 X166.794Y227.599
G1 X153.007Y230.03
G1 X155.438Y243.817
G1 X169.225Y241.386
; Layer C00 Pass 2 of 2
G1 X166.794Y227.599
G1 X153.007Y230.03
G1 X155.438Y243.817
G1 X169.225Y241.386
G0 X119.669Y259.796
; Layer C00 Pass 1 of 2
G1 X133.457Y257.365
G1 X131.025Y243.578
G1 X117.238Y246.009
G1 X119.669Y259.796
; Layer C00 Pass 2 of 2
G1 X133.457Y257.365
G1 X131.025Y243.578
G1 X117.238Y246.009
G1 X119.669Y259.796
G0 X113.918Y255.974
; Layer C00 Pass 1 of 2
G1 X111.487Y242.187
G1 X97.7Y244.618
G1 X100.131Y258.405
G1 X113.918Y255.974
; Layer C00 Pass 2 of 2
G1 X111.487Y242.187
G1 X97.7Y244.618
G1 X100.131Y258.405
G1 X113.918Y255.974
G0 X91.072Y235.823
; Layer C00 Pass 1 of 2
G1 X77.285Y238.254
G1 X74.854Y224.466
G1 X88.641Y222.036
G1 X91.072Y235.823
; Layer C00 Pass 2 of 2
G1 X77.285Y238.254
G1 X74.854Y224.466
G1 X88.641Y222.036
G1 X91.072Y235.823
G0 X76.394Y235.566
; Layer C00 Pass 1 of 2
G1 X76.386Y235.356
G1 X76.356Y235.148
G1 X76.307Y234.943
G1 X76.236Y234.742
G1 X76.147Y234.549
G1 X76.039Y234.367
G1 X75.915Y234.197
G1 X75.775Y234.041
G1 X75.621Y233.899
G1 X75.453Y233.772
G1 X75.272Y233.662
G1 X75.081Y233.57
G1 X74.677Y233.444
G1 X74.244Y233.401
G1 X74.024Y233.412
G1 X73.811Y233.444
G1 X73.605Y233.497
G1 X73.407Y233.57
G1 X73.219Y233.66
G1 X73.042Y233.768
G1 X72.876Y233.892
G1 X72.724Y234.03
G1 X72.585Y234.183
G1 X72.461Y234.349
G1 X72.353Y234.526
G1 X72.263Y234.714
G1 X72.19Y234.911
G1 X72.137Y235.117
G1 X72.105Y235.331
G1 X72.094Y235.551
G1 X72.102Y235.74
G1 X72.126Y235.926
G1 X72.167Y236.107
G1 X72.221Y236.282
G1 X72.291Y236.45
G1 X72.373Y236.612
G1 X72.469Y236.765
G1 X72.577Y236.91
G1 X72.697Y237.045
G1 X72.828Y237.169
G1 X72.969Y237.283
G1 X73.121Y237.385
G1 X73.281Y237.474
G1 X73.45Y237.55
G1 X73.627Y237.611
G1 X73.811Y237.657
G1 X73.999Y237.687
G1 X74.186Y237.701
G1 X74.372Y237.698
G1 X74.555Y237.679
G1 X74.735Y237.645
G1 X74.911Y237.595
G1 X75.081Y237.532
G1 X75.245Y237.454
G1 X75.402Y237.363
G1 X75.55Y237.259
G1 X75.69Y237.142
G1 X75.821Y237.014
G1 X75.94Y236.873
G1 X76.048Y236.722
G1 X76.143Y236.56
G1 X76.225Y236.388
G1 X76.298Y236.188
G1 X76.351Y235.983
G1 X76.383Y235.775
G1 X76.394Y235.566
; Layer C00 Pass 2 of 2
G1 X76.386Y235.356
G1 X76.356Y235.148
G1 X76.307Y234.943
G1 X76.236Y234.742
G1 X76.147Y234.549
G1 X76.039Y234.367
G1 X75.915Y234.197
G1 X75.775Y234.041
G1 X75.621Y233.899
G1 X75.453Y233.772
G1 X75.272Y233.662
G1 X75.081Y233.57
G1 X74.677Y233.444
G1 X74.244Y233.401
G1 X74.024Y233.412
G1 X73.811Y233.444
G1 X73.605Y233.497
G1 X73.407Y233.57
G1 X73.219Y233.66
G1 X73.042Y233.768
G1 X72.876Y233.892
G1 X72.724Y234.03
G1 X72.585Y234.183
G1 X72.461Y234.349
G1 X72.353Y234.526
G1 X72.263Y234.714
G1 X72.19Y234.911
G1 X72.137Y235.117
G1 X72.105Y235.331
G1 X72.094Y235.551
G1 X72.102Y235.74
G1 X72.126Y235.926
G1 X72.167Y236.107
G1 X72.221Y236.282
G1 X72.291Y236.45
G1 X72.373Y236.612
G1 X72.469Y236.765
G1 X72.577Y236.91
G1 X72.697Y237.045
G1 X72.828Y237.169
G1 X72.969Y237.283
G1 X73.121Y237.385
G1 X73.281Y237.474
G1 X73.45Y237.55
G1 X73.627Y237.611
G1 X73.811Y237.657
G1 X73.999Y237.687
G1 X74.186Y237.701
G1 X74.372Y237.698
G1 X74.555Y237.679
G1 X74.735Y237.645
G1 X74.911Y237.595
G1 X75.081Y237.532
G1 X75.245Y237.454
G1 X75.402Y237.363
G1 X75.55Y237.259
G1 X75.69Y237.142
G1 X75.821Y237.014
G1 X75.94Y236.873
G1 X76.048Y236.722
G1 X76.143Y236.56
G1 X76.225Y236.388
G1 X76.298Y236.188
G1 X76.351Y235.983
G1 X76.383Y235.775
G1 X76.394Y235.566
G0 X58.573Y241.553
; Layer C00 Pass 1 of 2
G1 X72.36Y239.122
G1 X69.929Y225.335
G1 X56.142Y227.766
G1 X58.573Y241.553
; Layer C00 Pass 2 of 2
G1 X72.36Y239.122
G1 X69.929Y225.335
G1 X56.142Y227.766
G1 X58.573Y241.553
G0 X69.052Y220.361
; Layer C00 Pass 1 of 2
G1 X55.265Y222.792
G1 X52.834Y209.005
G1 X66.622Y206.574
G1 X69.052Y220.361
; Layer C00 Pass 2 of 2
G1 X55.265Y222.792
G1 X52.834Y209.005
G1 X66.622Y206.574
G1 X69.052Y220.361
G0 X71.763Y209.343
; Layer C00 Pass 1 of 2
G1 X71.76Y209.158
G1 X71.741Y208.974
G1 X71.706Y208.795
G1 X71.657Y208.619
G1 X71.594Y208.449
G1 X71.516Y208.285
G1 X71.425Y208.128
G1 X71.321Y207.979
G1 X71.204Y207.839
G1 X71.075Y207.709
G1 X70.935Y207.59
G1 X70.784Y207.482
G1 X70.622Y207.387
G1 X70.45Y207.305
G1 X70.046Y207.18
G1 X69.613Y207.136
G1 X69.393Y207.147
G1 X69.179Y207.179
G1 X68.973Y207.232
G1 X68.776Y207.305
G1 X68.588Y207.395
G1 X68.411Y207.503
G1 X68.245Y207.627
G1 X68.092Y207.766
G1 X67.954Y207.918
G1 X67.83Y208.084
G1 X67.722Y208.261
G1 X67.632Y208.449
G1 X67.559Y208.647
G1 X67.506Y208.853
G1 X67.474Y209.066
G1 X67.463Y209.286
G1 X67.473Y209.499
G1 X67.504Y209.708
G1 X67.556Y209.911
G1 X67.626Y210.109
G1 X67.716Y210.299
G1 X67.824Y210.479
G1 X67.949Y210.649
G1 X68.092Y210.807
G1 X68.25Y210.949
G1 X68.42Y211.075
G1 X68.6Y211.183
G1 X68.79Y211.273
G1 X68.987Y211.343
G1 X69.191Y211.395
G1 X69.4Y211.426
G1 X69.613Y211.436
G1 X69.802Y211.428
G1 X69.988Y211.403
G1 X70.169Y211.363
G1 X70.344Y211.308
G1 X70.512Y211.239
G1 X70.674Y211.156
G1 X70.827Y211.061
G1 X70.972Y210.953
G1 X71.107Y210.833
G1 X71.231Y210.702
G1 X71.345Y210.56
G1 X71.447Y210.409
G1 X71.536Y210.249
G1 X71.612Y210.08
G1 X71.673Y209.903
G1 X71.719Y209.719
G1 X71.749Y209.531
G1 X71.763Y209.343
; Layer C00 Pass 2 of 2
G1 X71.76Y209.158
G1 X71.741Y208.974
G1 X71.706Y208.795
G1 X71.657Y208.619
G1 X71.594Y208.449
G1 X71.516Y208.285
G1 X71.425Y208.128
G1 X71.321Y207.979
G1 X71.204Y207.839
G1 X71.075Y207.709
G1 X70.935Y207.59
G1 X70.784Y207.482
G1 X70.622Y207.387
G1 X70.45Y207.305
G1 X70.046Y207.18
G1 X69.613Y207.136
G1 X69.393Y207.147
G1 X69.179Y207.179
G1 X68.973Y207.232
G1 X68.776Y207.305
G1 X68.588Y207.395
G1 X68.411Y207.503
G1 X68.245Y207.627
G1 X68.092Y207.766
G1 X67.954Y207.918
G1 X67.83Y208.084
G1 X67.722Y208.261
G1 X67.632Y208.449
G1 X67.559Y208.647
G1 X67.506Y208.853
G1 X67.474Y209.066
G1 X67.463Y209.286
G1 X67.473Y209.499
G1 X67.504Y209.708
G1 X67.556Y209.911
G1 X67.626Y210.109
G1 X67.716Y210.299
G1 X67.824Y210.479
G1 X67.949Y210.649
G1 X68.092Y210.807
G1 X68.25Y210.949
G1 X68.42Y211.075
G1 X68.6Y211.183
G1 X68.79Y211.273
G1 X68.987Y211.343
G1 X69.191Y211.395
G1 X69.4Y211.426
G1 X69.613Y211.436
G1 X69.802Y211.428
G1 X69.988Y211.403
G1 X70.169Y211.363
G1 X70.344Y211.308
G1 X70.512Y211.239
G1 X70.674Y211.156
G1 X70.827Y211.061
G1 X70.972Y210.953
G1 X71.107Y210.833
G1 X71.231Y210.702
G1 X71.345Y210.56
G1 X71.447Y210.409
G1 X71.536Y210.249
G1 X71.612Y210.08
G1 X71.673Y209.903
G1 X71.719Y209.719
G1 X71.749Y209.531
G1 X71.763Y209.343
G0 X87.764Y217.062
; Layer C00 Pass 1 of 2
G1 X85.333Y203.275
G1 X71.545Y205.706
G1 X73.977Y219.493
G1 X87.764Y217.062
; Layer C00 Pass 2 of 2
G1 X85.333Y203.275
G1 X71.545Y205.706
G1 X73.977Y219.493
G1 X87.764Y217.062
G0 X93.515Y220.884
; Layer C00 Pass 1 of 2
G1 X107.302Y218.453
G1 X104.871Y204.666
G1 X91.084Y207.097
G1 X93.515Y220.884
; Layer C00 Pass 2 of 2
G1 X107.302Y218.453
G1 X104.871Y204.666
G1 X91.084Y207.097
G1 X93.515Y220.884
G0 X202.15Y165.72
; Layer C00 Pass 1 of 2
G1 X202.147Y165.535
G1 X202.128Y165.351
G1 X202.094Y165.172
G1 X202.045Y164.996
G1 X201.981Y164.826
G1 X201.903Y164.662
G1 X201.812Y164.505
G1 X201.708Y164.356
G1 X201.592Y164.216
G1 X201.463Y164.086
G1 X201.323Y163.967
G1 X201.171Y163.859
G1 X201.009Y163.764
G1 X200.837Y163.682
G1 X200.433Y163.557
G1 X200.217Y163.523
G1 X200Y163.512
G1 X199.783Y163.523
G1 X199.567Y163.557
G1 X199.383Y163.603
G1 X199.206Y163.664
G1 X199.037Y163.74
G1 X198.877Y163.829
G1 X198.726Y163.931
G1 X198.584Y164.044
G1 X198.453Y164.169
G1 X198.333Y164.304
G1 X198.225Y164.449
G1 X198.13Y164.602
G1 X198.047Y164.763
G1 X197.978Y164.932
G1 X197.923Y165.107
G1 X197.883Y165.288
G1 X197.858Y165.473
G1 X197.85Y165.663
G1 X197.861Y165.882
G1 X197.894Y166.096
G1 X197.947Y166.302
G1 X198.019Y166.5
G1 X198.109Y166.688
G1 X198.217Y166.865
G1 X198.341Y167.03
G1 X198.479Y167.183
G1 X198.632Y167.322
G1 X198.798Y167.446
G1 X198.975Y167.553
G1 X199.163Y167.644
G1 X199.361Y167.716
G1 X199.567Y167.769
G1 X199.78Y167.802
G1 X200Y167.813
G1 X200.19Y167.805
G1 X200.375Y167.78
G1 X200.556Y167.741
G1 X200.731Y167.686
G1 X200.899Y167.617
G1 X201.061Y167.534
G1 X201.214Y167.438
G1 X201.359Y167.33
G1 X201.494Y167.21
G1 X201.619Y167.079
G1 X201.732Y166.938
G1 X201.834Y166.786
G1 X201.923Y166.626
G1 X201.999Y166.457
G1 X202.06Y166.28
G1 X202.106Y166.096
G1 X202.137Y165.908
G1 X202.15Y165.72
; Layer C00 Pass 2 of 2
G1 X202.147Y165.535
G1 X202.128Y165.351
G1 X202.094Y165.172
G1 X202.045Y164.996
G1 X201.981Y164.826
G1 X201.903Y164.662
G1 X201.812Y164.505
G1 X201.708Y164.356
G1 X201.592Y164.216
G1 X201.463Y164.086
G1 X201.323Y163.967
G1 X201.171Y163.859
G1 X201.009Y163.764
G1 X200.837Y163.682
G1 X200.433Y163.557
G1 X200.217Y163.523
G1 X200Y163.512
G1 X199.783Y163.523
G1 X199.567Y163.557
G1 X199.383Y163.603
G1 X199.206Y163.664
G1 X199.037Y163.74
G1 X198.877Y163.829
G1 X198.726Y163.931
G1 X198.584Y164.044
G1 X198.453Y164.169
G1 X198.333Y164.304
G1 X198.225Y164.449
G1 X198.13Y164.602
G1 X198.047Y164.763
G1 X197.978Y164.932
G1 X197.923Y165.107
G1 X197.883Y165.288
G1 X197.858Y165.473
G1 X197.85Y165.663
G1 X197.861Y165.882
G1 X197.894Y166.096
G1 X197.947Y166.302
G1 X198.019Y166.5
G1 X198.109Y166.688
G1 X198.217Y166.865
G1 X198.341Y167.03
G1 X198.479Y167.183
G1 X198.632Y167.322
G1 X198.798Y167.446
G1 X198.975Y167.553
G1 X199.163Y167.644
G1 X199.361Y167.716
G1 X199.567Y167.769
G1 X199.78Y167.802
G1 X200Y167.813
G1 X200.19Y167.805
G1 X200.375Y167.78
G1 X200.556Y167.741
G1 X200.731Y167.686
G1 X200.899Y167.617
G1 X201.061Y167.534
G1 X201.214Y167.438
G1 X201.359Y167.33
G1 X201.494Y167.21
G1 X201.619Y167.079
G1 X201.732Y166.938
G1 X201.834Y166.786
G1 X201.923Y166.626
G1 X201.999Y166.457
G1 X202.06Y166.28
G1 X202.106Y166.096
G1 X202.137Y165.908
G1 X202.15Y165.72
G0 X240.232Y175.023
; Layer C00 Pass 1 of 2
G1 X227.649Y168.886
G1 X233.787Y156.303
G1 X246.37Y162.44
G1 X240.232Y175.023
; Layer C00 Pass 2 of 2
G1 X227.649Y168.886
G1 X233.787Y156.303
G1 X246.37Y162.44
G1 X240.232Y175.023
G0 X246.863Y181.857
; Layer C00 Pass 1 of 2
G1 X250.487Y168.334
G1 X264.01Y171.958
G1 X260.387Y185.48
G1 X246.863Y181.857
; Layer C00 Pass 2 of 2
G1 X250.487Y168.334
G1 X264.01Y171.958
G1 X260.387Y185.48
G1 X246.863Y181.857
G0 X257.693Y196.089
; Layer C00 Pass 1 of 2
G1 X257.682Y195.88
G1 X257.652Y195.675
G1 X257.602Y195.474
G1 X257.534Y195.28
G1 X257.447Y195.092
G1 X257.343Y194.914
G1 X257.222Y194.746
G1 X257.084Y194.589
G1 X256.93Y194.446
G1 X256.761Y194.316
G1 X256.577Y194.203
G1 X256.379Y194.107
G1 X255.975Y193.982
G1 X255.542Y193.938
G1 X255.322Y193.95
G1 X255.109Y193.982
G1 X254.903Y194.035
G1 X254.705Y194.107
G1 X254.517Y194.198
G1 X254.34Y194.306
G1 X254.174Y194.429
G1 X254.022Y194.568
G1 X253.883Y194.721
G1 X253.759Y194.886
G1 X253.652Y195.064
G1 X253.561Y195.252
G1 X253.489Y195.449
G1 X253.436Y195.655
G1 X253.403Y195.869
G1 X253.392Y196.089
G1 X253.4Y196.278
G1 X253.425Y196.464
G1 X253.465Y196.644
G1 X253.52Y196.819
G1 X253.589Y196.988
G1 X253.672Y197.149
G1 X253.767Y197.303
G1 X253.876Y197.447
G1 X253.995Y197.582
G1 X254.126Y197.707
G1 X254.268Y197.821
G1 X254.419Y197.923
G1 X254.579Y198.012
G1 X254.748Y198.087
G1 X254.924Y198.148
G1 X255.108Y198.195
G1 X255.297Y198.225
G1 X255.484Y198.238
G1 X255.67
G1 X255.853Y198.217
G1 X256.033Y198.182
G1 X256.208Y198.133
G1 X256.379Y198.07
G1 X256.542Y197.992
G1 X256.699Y197.901
G1 X256.848Y197.797
G1 X256.988Y197.68
G1 X257.118Y197.552
G1 X257.238Y197.411
G1 X257.346Y197.26
G1 X257.441Y197.098
G1 X257.523Y196.926
G1 X257.598Y196.719
G1 X257.651Y196.509
G1 X257.682Y196.299
G1 X257.693Y196.089
; Layer C00 Pass 2 of 2
G1 X257.682Y195.88
G1 X257.652Y195.675
G1 X257.602Y195.474
G1 X257.534Y195.28
G1 X257.447Y195.092
G1 X257.343Y194.914
G1 X257.222Y194.746
G1 X257.084Y194.589
G1 X256.93Y194.446
G1 X256.761Y194.316
G1 X256.577Y194.203
G1 X256.379Y194.107
G1 X255.975Y193.982
G1 X255.542Y193.938
G1 X255.322Y193.95
G1 X255.109Y193.982
G1 X254.903Y194.035
G1 X254.705Y194.107
G1 X254.517Y194.198
G1 X254.34Y194.306
G1 X254.174Y194.429
G1 X254.022Y194.568
G1 X253.883Y194.721
G1 X253.759Y194.886
G1 X253.652Y195.064
G1 X253.561Y195.252
G1 X253.489Y195.449
G1 X253.436Y195.655
G1 X253.403Y195.869
G1 X253.392Y196.089
G1 X253.4Y196.278
G1 X253.425Y196.464
G1 X253.465Y196.644
G1 X253.52Y196.819
G1 X253.589Y196.988
G1 X253.672Y197.149
G1 X253.767Y197.303
G1 X253.876Y197.447
G1 X253.995Y197.582
G1 X254.126Y197.707
G1 X254.268Y197.821
G1 X254.419Y197.923
G1 X254.579Y198.012
G1 X254.748Y198.087
G1 X254.924Y198.148
G1 X255.108Y198.195
G1 X255.297Y198.225
G1 X255.484Y198.238
G1 X255.67
G1 X255.853Y198.217
G1 X256.033Y198.182
G1 X256.208Y198.133
G1 X256.379Y198.07
G1 X256.542Y197.992
G1 X256.699Y197.901
G1 X256.848Y197.797
G1 X256.988Y197.68
G1 X257.118Y197.552
G1 X257.238Y197.411
G1 X257.346Y197.26
G1 X257.441Y197.098
G1 X257.523Y196.926
G1 X257.598Y196.719
G1 X257.651Y196.509
G1 X257.682Y196.299
G1 X257.693Y196.089
G0 X251.178Y206.296
; Layer C00 Pass 1 of 2
G1 X237.391Y203.865
G1 X239.822Y190.078
G1 X253.609Y192.509
G1 X251.178Y206.296
; Layer C00 Pass 2 of 2
G1 X237.391Y203.865
G1 X239.822Y190.078
G1 X253.609Y192.509
G1 X251.178Y206.296
G0 X255.275Y211.854
; Layer C00 Pass 1 of 2
G1 X257.706Y198.067
G1 X271.494Y200.498
G1 X269.063Y214.286
G1 X255.275Y211.854
; Layer C00 Pass 2 of 2
G1 X257.706Y198.067
G1 X271.494Y200.498
G1 X269.063Y214.286
G1 X255.275Y211.854
G0 X273.16Y219.844
; Layer C00 Pass 1 of 2
G1 X275.591Y206.057
G1 X289.378Y208.488
G1 X286.947Y222.275
G1 X273.16Y219.844
; Layer C00 Pass 2 of 2
G1 X275.591Y206.057
G1 X289.378Y208.488
G1 X286.947Y222.275
G1 X273.16Y219.844
G0 X292.698Y218.453
; Layer C00 Pass 1 of 2
G1 X295.129Y204.666
G1 X308.917Y207.097
G1 X306.485Y220.884
G1 X292.698Y218.453
; Layer C00 Pass 2 of 2
G1 X295.129Y204.666
G1 X308.917Y207.097
G1 X306.485Y220.884
G1 X292.698Y218.453
G0 X290.65Y228.029
; Layer C00 Pass 1 of 2
G1 X290.641Y227.82
G1 X290.612Y227.612
G1 X290.562Y227.406
G1 X290.492Y227.205
G1 X290.402Y227.012
G1 X290.294Y226.831
G1 X290.17Y226.661
G1 X290.03Y226.505
G1 X289.875Y226.363
G1 X289.707Y226.236
G1 X289.527Y226.126
G1 X289.335Y226.033
G1 X288.932Y225.908
G1 X288.499Y225.864
G1 X288.309Y225.873
G1 X288.124Y225.897
G1 X287.943Y225.937
G1 X287.768Y225.992
G1 X287.6Y226.061
G1 X287.438Y226.144
G1 X287.285Y226.24
G1 X287.14Y226.348
G1 X287.005Y226.468
G1 X286.88Y226.599
G1 X286.767Y226.74
G1 X286.665Y226.891
G1 X286.576Y227.051
G1 X286.5Y227.22
G1 X286.439Y227.397
G1 X286.393Y227.581
G1 X286.362Y227.769
G1 X286.349Y227.957
G1 X286.352Y228.143
G1 X286.371Y228.326
G1 X286.405Y228.506
G1 X286.455Y228.681
G1 X286.518Y228.851
G1 X286.596Y229.015
G1 X286.687Y229.172
G1 X286.791Y229.321
G1 X286.908Y229.461
G1 X287.036Y229.591
G1 X287.177Y229.71
G1 X287.328Y229.818
G1 X287.49Y229.913
G1 X287.662Y229.995
G1 X287.869Y230.07
G1 X288.078Y230.123
G1 X288.289Y230.154
G1 X288.499Y230.164
G1 X288.707Y230.154
G1 X288.913Y230.124
G1 X289.113Y230.074
G1 X289.308Y230.006
G1 X289.495Y229.919
G1 X289.674Y229.815
G1 X289.842Y229.694
G1 X289.998Y229.556
G1 X290.142Y229.402
G1 X290.271Y229.233
G1 X290.384Y229.049
G1 X290.48Y228.851
G1 X290.553Y228.651
G1 X290.606Y228.447
G1 X290.638Y228.239
G1 X290.65Y228.029
; Layer C00 Pass 2 of 2
G1 X290.641Y227.82
G1 X290.612Y227.612
G1 X290.562Y227.406
G1 X290.492Y227.205
G1 X290.402Y227.012
G1 X290.294Y226.831
G1 X290.17Y226.661
G1 X290.03Y226.505
G1 X289.875Y226.363
G1 X289.707Y226.236
G1 X289.527Y226.126
G1 X289.335Y226.033
G1 X288.932Y225.908
G1 X288.499Y225.864
G1 X288.309Y225.873
G1 X288.124Y225.897
G1 X287.943Y225.937
G1 X287.768Y225.992
G1 X287.6Y226.061
G1 X287.438Y226.144
G1 X287.285Y226.24
G1 X287.14Y226.348
G1 X287.005Y226.468
G1 X286.88Y226.599
G1 X286.767Y226.74
G1 X286.665Y226.891
G1 X286.576Y227.051
G1 X286.5Y227.22
G1 X286.439Y227.397
G1 X286.393Y227.581
G1 X286.362Y227.769
G1 X286.349Y227.957
G1 X286.352Y228.143
G1 X286.371Y228.326
G1 X286.405Y228.506
G1 X286.455Y228.681
G1 X286.518Y228.851
G1 X286.596Y229.015
G1 X286.687Y229.172
G1 X286.791Y229.321
G1 X286.908Y229.461
G1 X287.036Y229.591
G1 X287.177Y229.71
G1 X287.328Y229.818
G1 X287.49Y229.913
G1 X287.662Y229.995
G1 X287.869Y230.07
G1 X288.078Y230.123
G1 X288.289Y230.154
G1 X288.499Y230.164
G1 X288.707Y230.154
G1 X288.913Y230.124
G1 X289.113Y230.074
G1 X289.308Y230.006
G1 X289.495Y229.919
G1 X289.674Y229.815
G1 X289.842Y229.694
G1 X289.998Y229.556
G1 X290.142Y229.402
G1 X290.271Y229.233
G1 X290.384Y229.049
G1 X290.48Y228.851
G1 X290.553Y228.651
G1 X290.606Y228.447
G1 X290.638Y228.239
G1 X290.65Y228.029
G0 X303.177Y239.645
; Layer C00 Pass 1 of 2
G1 X289.39Y237.213
G1 X291.821Y223.426
G1 X305.608Y225.857
G1 X303.177Y239.645
; Layer C00 Pass 2 of 2
G1 X289.39Y237.213
G1 X291.821Y223.426
G1 X305.608Y225.857
G1 X303.177Y239.645
G0 X308.928Y235.823
; Layer C00 Pass 1 of 2
G1 X311.359Y222.036
G1 X325.146Y224.466
G1 X322.715Y238.254
G1 X308.928Y235.823
; Layer C00 Pass 2 of 2
G1 X311.359Y222.036
G1 X325.146Y224.466
G1 X322.715Y238.254
G1 X308.928Y235.823
G0 X327.906Y235.608
; Layer C00 Pass 1 of 2
G1 X327.903Y235.422
G1 X327.884Y235.239
G1 X327.849Y235.059
G1 X327.8Y234.883
G1 X327.737Y234.713
G1 X327.659Y234.549
G1 X327.568Y234.392
G1 X327.464Y234.243
G1 X327.348Y234.104
G1 X327.219Y233.974
G1 X327.079Y233.854
G1 X326.927Y233.747
G1 X326.765Y233.651
G1 X326.593Y233.57
G1 X326.189Y233.444
G1 X325.974Y233.411
G1 X325.756Y233.4
G1 X325.539Y233.411
G1 X325.323Y233.444
G1 X325.139Y233.491
G1 X324.962Y233.552
G1 X324.793Y233.628
G1 X324.632Y233.717
G1 X324.481Y233.818
G1 X324.34Y233.932
G1 X324.209Y234.057
G1 X324.089Y234.192
G1 X323.981Y234.336
G1 X323.885Y234.49
G1 X323.802Y234.651
G1 X323.733Y234.82
G1 X323.678Y234.995
G1 X323.638Y235.176
G1 X323.614Y235.361
G1 X323.606Y235.551
G1 X323.614Y235.74
G1 X323.638Y235.926
G1 X323.678Y236.107
G1 X323.733Y236.282
G1 X323.802Y236.45
G1 X323.885Y236.612
G1 X323.981Y236.765
G1 X324.089Y236.91
G1 X324.209Y237.045
G1 X324.34Y237.17
G1 X324.481Y237.283
G1 X324.633Y237.385
G1 X324.793Y237.474
G1 X324.962Y237.55
G1 X325.139Y237.611
G1 X325.323Y237.657
G1 X325.533Y237.69
G1 X325.744Y237.702
G1 X325.954Y237.693
G1 X326.162Y237.664
G1 X326.365Y237.614
G1 X326.564Y237.545
G1 X326.755Y237.456
G1 X326.939Y237.347
G1 X327.11Y237.221
G1 X327.268Y237.08
G1 X327.41Y236.925
G1 X327.535Y236.757
G1 X327.645Y236.578
G1 X327.736Y236.388
G1 X327.809Y236.19
G1 X327.862Y235.984
G1 X327.892Y235.796
G1 X327.906Y235.608
; Layer C00 Pass 2 of 2
G1 X327.903Y235.422
G1 X327.884Y235.239
G1 X327.849Y235.059
G1 X327.8Y234.883
G1 X327.737Y234.713
G1 X327.659Y234.549
G1 X327.568Y234.392
G1 X327.464Y234.243
G1 X327.348Y234.104
G1 X327.219Y233.974
G1 X327.079Y233.854
G1 X326.927Y233.747
G1 X326.765Y233.651
G1 X326.593Y233.57
G1 X326.189Y233.444
G1 X325.974Y233.411
G1 X325.756Y233.4
G1 X325.539Y233.411
G1 X325.323Y233.444
G1 X325.139Y233.491
G1 X324.962Y233.552
G1 X324.793Y233.628
G1 X324.632Y233.717
G1 X324.481Y233.818
G1 X324.34Y233.932
G1 X324.209Y234.057
G1 X324.089Y234.192
G1 X323.981Y234.336
G1 X323.885Y234.49
G1 X323.802Y234.651
G1 X323.733Y234.82
G1 X323.678Y234.995
G1 X323.638Y235.176
G1 X323.614Y235.361
G1 X323.606Y235.551
G1 X323.614Y235.74
G1 X323.638Y235.926
G1 X323.678Y236.107
G1 X323.733Y236.282
G1 X323.802Y236.45
G1 X323.885Y236.612
G1 X323.981Y236.765
G1 X324.089Y236.91
G1 X324.209Y237.045
G1 X324.34Y237.17
G1 X324.481Y237.283
G1 X324.633Y237.385
G1 X324.793Y237.474
G1 X324.962Y237.55
G1 X325.139Y237.611
G1 X325.323Y237.657
G1 X325.533Y237.69
G1 X325.744Y237.702
G1 X325.954Y237.693
G1 X326.162Y237.664
G1 X326.365Y237.614
G1 X326.564Y237.545
G1 X326.755Y237.456
G1 X326.939Y237.347
G1 X327.11Y237.221
G1 X327.268Y237.08
G1 X327.41Y236.925
G1 X327.535Y236.757
G1 X327.645Y236.578
G1 X327.736Y236.388
G1 X327.809Y236.19
G1 X327.862Y235.984
G1 X327.892Y235.796
G1 X327.906Y235.608
G0 X341.427Y241.553
; Layer C00 Pass 1 of 2
G1 X327.64Y239.122
G1 X330.071Y225.335
G1 X343.858Y227.766
G1 X341.427Y241.553
; Layer C00 Pass 2 of 2
G1 X327.64Y239.122
G1 X330.071Y225.335
G1 X343.858Y227.766
G1 X341.427Y241.553
G0 X330.948Y220.361
; Layer C00 Pass 1 of 2
G1 X344.735Y222.792
G1 X347.166Y209.005
G1 X333.378Y206.574
G1 X330.948Y220.361
; Layer C00 Pass 2 of 2
G1 X344.735Y222.792
G1 X347.166Y209.005
G1 X333.378Y206.574
G1 X330.948Y220.361
G0 X326.023Y219.493
; Layer C00 Pass 1 of 2
G1 X312.236Y217.062
G1 X314.667Y203.275
G1 X328.455Y205.706
G1 X326.023Y219.493
; Layer C00 Pass 2 of 2
G1 X312.236Y217.062
G1 X314.667Y203.275
G1 X328.455Y205.706
G1 X326.023Y219.493
G0 X332.537Y209.342
; Layer C00 Pass 1 of 2
G1 X332.523Y209.043
G1 X332.468Y208.744
G1 X332.371Y208.456
G1 X332.236Y208.189
G1 X332.067Y207.945
G1 X331.868Y207.727
G1 X331.64Y207.539
G1 X331.387Y207.383
G1 X331.113Y207.262
G1 X330.821Y207.18
G1 X330.603Y207.146
G1 X330.388Y207.135
G1 X330.175Y207.146
G1 X329.967Y207.177
G1 X329.765Y207.228
G1 X329.569Y207.297
G1 X329.382Y207.385
G1 X329.205Y207.491
G1 X329.038Y207.612
G1 X328.883Y207.749
G1 X328.742Y207.901
G1 X328.616Y208.067
G1 X328.505Y208.246
G1 X328.411Y208.437
G1 X328.336Y208.639
G1 X328.281Y208.853
G1 X328.25Y209.041
G1 X328.237Y209.228
G1 X328.24Y209.414
G1 X328.259Y209.597
G1 X328.293Y209.777
G1 X328.342Y209.953
G1 X328.406Y210.123
G1 X328.484Y210.287
G1 X328.575Y210.444
G1 X328.679Y210.593
G1 X328.795Y210.732
G1 X328.924Y210.863
G1 X329.065Y210.982
G1 X329.216Y211.09
G1 X329.378Y211.185
G1 X329.55Y211.267
G1 X329.838Y211.365
G1 X330.132Y211.422
G1 X330.428Y211.437
G1 X330.722Y211.411
G1 X331.01Y211.345
G1 X331.288Y211.239
G1 X331.55Y211.095
G1 X331.794Y210.913
G1 X332.009Y210.699
G1 X332.189Y210.46
G1 X332.333Y210.201
G1 X332.44Y209.925
G1 X332.508Y209.638
G1 X332.537Y209.342
; Layer C00 Pass 2 of 2
G1 X332.523Y209.043
G1 X332.468Y208.744
G1 X332.371Y208.456
G1 X332.236Y208.189
G1 X332.067Y207.945
G1 X331.868Y207.727
G1 X331.64Y207.539
G1 X331.387Y207.383
G1 X331.113Y207.262
G1 X330.821Y207.18
G1 X330.603Y207.146
G1 X330.388Y207.135
G1 X330.175Y207.146
G1 X329.967Y207.177
G1 X329.765Y207.228
G1 X329.569Y207.297
G1 X329.382Y207.385
G1 X329.205Y207.491
G1 X329.038Y207.612
G1 X328.883Y207.749
G1 X328.742Y207.901
G1 X328.616Y208.067
G1 X328.505Y208.246
G1 X328.411Y208.437
G1 X328.336Y208.639
G1 X328.281Y208.853
G1 X328.25Y209.041
G1 X328.237Y209.228
G1 X328.24Y209.414
G1 X328.259Y209.597
G1 X328.293Y209.777
G1 X328.342Y209.953
G1 X328.406Y210.123
G1 X328.484Y210.287
G1 X328.575Y210.444
G1 X328.679Y210.593
G1 X328.795Y210.732
G1 X328.924Y210.863
G1 X329.065Y210.982
G1 X329.216Y211.09
G1 X329.378Y211.185
G1 X329.55Y211.267
G1 X329.838Y211.365
G1 X330.132Y211.422
G1 X330.428Y211.437
G1 X330.722Y211.411
G1 X331.01Y211.345
G1 X331.288Y211.239
G1 X331.55Y211.095
G1 X331.794Y210.913
G1 X332.009Y210.699
G1 X332.189Y210.46
G1 X332.333Y210.201
G1 X332.44Y209.925
G1 X332.508Y209.638
G1 X332.537Y209.342
G0 X265.754Y233.046
; Layer C00 Pass 1 of 2
G1 X251.967Y230.615
G1 X254.398Y216.828
G1 X268.186Y219.259
G1 X265.754Y233.046
; Layer C00 Pass 2 of 2
G1 X251.967Y230.615
G1 X254.398Y216.828
G1 X268.186Y219.259
G1 X265.754Y233.046
G0 X269.852Y238.604
; Layer C00 Pass 1 of 2
G1 X283.639Y241.036
G1 X286.07Y227.248
G1 X272.283Y224.817
G1 X269.852Y238.604
; Layer C00 Pass 2 of 2
G1 X283.639Y241.036
G1 X286.07Y227.248
G1 X272.283Y224.817
G1 X269.852Y238.604
G0 X249.752Y241.172
; Layer C00 Pass 1 of 2
G1 X249.749Y240.986
G1 X249.73Y240.803
G1 X249.696Y240.623
G1 X249.647Y240.447
G1 X249.583Y240.277
G1 X249.506Y240.113
G1 X249.415Y239.956
G1 X249.311Y239.808
G1 X249.194Y239.668
G1 X249.065Y239.537
G1 X248.925Y239.418
G1 X248.774Y239.31
G1 X248.612Y239.215
G1 X248.439Y239.133
G1 X248.036Y239.008
G1 X247.82Y238.974
G1 X247.603Y238.963
G1 X247.385Y238.974
G1 X247.169Y239.008
G1 X246.985Y239.054
G1 X246.809Y239.116
G1 X246.64Y239.191
G1 X246.48Y239.28
G1 X246.328Y239.382
G1 X246.187Y239.496
G1 X246.056Y239.621
G1 X245.936Y239.756
G1 X245.828Y239.9
G1 X245.733Y240.054
G1 X245.65Y240.215
G1 X245.581Y240.384
G1 X245.526Y240.559
G1 X245.486Y240.739
G1 X245.461Y240.925
G1 X245.453Y241.114
G1 X245.464Y241.334
G1 X245.496Y241.548
G1 X245.549Y241.754
G1 X245.622Y241.951
G1 X245.712Y242.139
G1 X245.82Y242.316
G1 X245.944Y242.482
G1 X246.082Y242.634
G1 X246.235Y242.773
G1 X246.401Y242.897
G1 X246.578Y243.005
G1 X246.766Y243.095
G1 X246.963Y243.167
G1 X247.169Y243.22
G1 X247.383Y243.253
G1 X247.603Y243.264
G1 X247.792Y243.256
G1 X247.978Y243.232
G1 X248.158Y243.192
G1 X248.333Y243.137
G1 X248.502Y243.068
G1 X248.663Y242.985
G1 X248.817Y242.889
G1 X248.961Y242.781
G1 X249.096Y242.661
G1 X249.221Y242.53
G1 X249.335Y242.389
G1 X249.437Y242.237
G1 X249.526Y242.077
G1 X249.601Y241.908
G1 X249.663Y241.731
G1 X249.709Y241.547
G1 X249.739Y241.359
G1 X249.752Y241.172
; Layer C00 Pass 2 of 2
G1 X249.749Y240.986
G1 X249.73Y240.803
G1 X249.696Y240.623
G1 X249.647Y240.447
G1 X249.583Y240.277
G1 X249.506Y240.113
G1 X249.415Y239.956
G1 X249.311Y239.808
G1 X249.194Y239.668
G1 X249.065Y239.537
G1 X248.925Y239.418
G1 X248.774Y239.31
G1 X248.612Y239.215
G1 X248.439Y239.133
G1 X248.036Y239.008
G1 X247.82Y238.974
G1 X247.603Y238.963
G1 X247.385Y238.974
G1 X247.169Y239.008
G1 X246.985Y239.054
G1 X246.809Y239.116
G1 X246.64Y239.191
G1 X246.48Y239.28
G1 X246.328Y239.382
G1 X246.187Y239.496
G1 X246.056Y239.621
G1 X245.936Y239.756
G1 X245.828Y239.9
G1 X245.733Y240.054
G1 X245.65Y240.215
G1 X245.581Y240.384
G1 X245.526Y240.559
G1 X245.486Y240.739
G1 X245.461Y240.925
G1 X245.453Y241.114
G1 X245.464Y241.334
G1 X245.496Y241.548
G1 X245.549Y241.754
G1 X245.622Y241.951
G1 X245.712Y242.139
G1 X245.82Y242.316
G1 X245.944Y242.482
G1 X246.082Y242.634
G1 X246.235Y242.773
G1 X246.401Y242.897
G1 X246.578Y243.005
G1 X246.766Y243.095
G1 X246.963Y243.167
G1 X247.169Y243.22
G1 X247.383Y243.253
G1 X247.603Y243.264
G1 X247.792Y243.256
G1 X247.978Y243.232
G1 X248.158Y243.192
G1 X248.333Y243.137
G1 X248.502Y243.068
G1 X248.663Y242.985
G1 X248.817Y242.889
G1 X248.961Y242.781
G1 X249.096Y242.661
G1 X249.221Y242.53
G1 X249.335Y242.389
G1 X249.437Y242.237
G1 X249.526Y242.077
G1 X249.601Y241.908
G1 X249.663Y241.731
G1 X249.709Y241.547
G1 X249.739Y241.359
G1 X249.752Y241.172
G0 X244.562Y243.817
; Layer C00 Pass 1 of 2
G1 X230.775Y241.386
G1 X233.206Y227.599
G1 X246.993Y230.03
G1 X244.562Y243.817
; Layer C00 Pass 2 of 2
G1 X230.775Y241.386
G1 X233.206Y227.599
G1 X246.993Y230.03
G1 X244.562Y243.817
G0 X248.659Y249.375
; Layer C00 Pass 1 of 2
G1 X251.09Y235.588
G1 X264.877Y238.02
G1 X262.446Y251.807
G1 X248.659Y249.375
; Layer C00 Pass 2 of 2
G1 X251.09Y235.588
G1 X264.877Y238.02
G1 X262.446Y251.807
G1 X248.659Y249.375
G0 X280.331Y259.796
; Layer C00 Pass 1 of 2
G1 X266.543Y257.365
G1 X268.975Y243.578
G1 X282.762Y246.009
G1 X280.331Y259.796
; Layer C00 Pass 2 of 2
G1 X266.543Y257.365
G1 X268.975Y243.578
G1 X282.762Y246.009
G1 X280.331Y259.796
G0 X286.082Y255.974
; Layer C00 Pass 1 of 2
G1 X288.513Y242.187
G1 X302.3Y244.618
G1 X299.869Y258.405
G1 X286.082Y255.974
; Layer C00 Pass 2 of 2
G1 X288.513Y242.187
G1 X302.3Y244.618
G1 X299.869Y258.405
G1 X286.082Y255.974
G0 X234.083Y222.625
; Layer C00 Pass 1 of 2
G1 X236.514Y208.838
G1 X250.301Y211.269
G1 X247.87Y225.057
G1 X234.083Y222.625
; Layer C00 Pass 2 of 2
G1 X236.514Y208.838
G1 X250.301Y211.269
G1 X247.87Y225.057
G1 X234.083Y222.625
G0 X251.237Y162.391
; Layer C00 Pass 1 of 2
G1 X251.251Y161.165
G1 X251.234Y160.879
G1 X251.177Y160.602
G1 X251.083Y160.339
G1 X250.954Y160.092
G1 X250.791Y159.865
G1 X250.598Y159.663
G1 X250.376Y159.488
G1 X250.128Y159.344
G1 X232.162Y150.582
G1 X231.953Y150.494
G1 X231.735Y150.43
G1 X231.512Y150.392
G1 X231.285Y150.379
G1 X168.715
G1 X168.488Y150.392
G1 X168.265Y150.43
G1 X168.047Y150.494
G1 X167.838Y150.582
G1 X149.872Y159.344
G1 X149.624Y159.488
G1 X149.402Y159.663
G1 X149.209Y159.865
G1 X149.046Y160.092
G1 X148.917Y160.338
G1 X148.823Y160.602
G1 X148.766Y160.879
G1 X148.749Y161.165
G1 X148.763Y162.391
G1 X148.758Y162.561
G1 X148.739Y162.727
G1 X148.706Y162.89
G1 X148.66Y163.049
G1 X148.602Y163.202
G1 X148.532Y163.349
G1 X148.45Y163.489
G1 X148.357Y163.622
G1 X148.254Y163.748
G1 X148.141Y163.864
G1 X148.018Y163.972
G1 X147.886Y164.069
G1 X147.746Y164.156
G1 X147.598Y164.232
G1 X147.443Y164.295
G1 X147.281Y164.346
G1 X132.457Y168.318
G1 X132.264Y168.38
G1 X132.083Y168.459
G1 X131.912Y168.555
G1 X131.754Y168.665
G1 X131.608Y168.789
G1 X131.475Y168.926
G1 X131.357Y169.074
G1 X131.253Y169.232
G1 X131.164Y169.4
G1 X131.091Y169.575
G1 X131.036Y169.757
G1 X130.997Y169.945
G1 X130.977Y170.137
G1 Y170.332
G1 X130.994Y170.529
G1 X131.032Y170.728
G1 X136.372Y192.447
G1 X136.41Y192.65
G1 X136.428Y192.854
G1 X136.425Y193.058
G1 X136.401Y193.26
G1 X136.357Y193.458
G1 X136.293Y193.652
G1 X136.209Y193.838
G1 X136.105Y194.017
G1 X135.984Y194.184
G1 X135.847Y194.336
G1 X135.696Y194.473
G1 X135.532Y194.593
G1 X135.357Y194.697
G1 X135.172Y194.782
G1 X134.978Y194.848
G1 X134.777Y194.894
G1 X125.287Y196.567
G1 X125.091Y196.612
G1 X124.905Y196.674
G1 X124.727Y196.754
G1 X124.561Y196.849
G1 X124.405Y196.959
G1 X124.261Y197.082
G1 X124.13Y197.218
G1 X124.013Y197.366
G1 X123.91Y197.523
G1 X123.822Y197.69
G1 X123.75Y197.866
G1 X123.694Y198.048
G1 X123.656Y198.236
G1 X123.637Y198.429
G1 Y198.626
G1 X123.655Y198.826
G1 X123.783Y199.698
G1 X123.802Y199.897
G1 Y200.094
G1 X123.781Y200.288
G1 X123.743Y200.476
G1 X123.688Y200.658
G1 X123.616Y200.833
G1 X123.528Y201
G1 X123.425Y201.158
G1 X123.307Y201.305
G1 X123.176Y201.441
G1 X123.033Y201.565
G1 X122.877Y201.675
G1 X122.71Y201.77
G1 X122.533Y201.849
G1 X122.346Y201.912
G1 X122.151Y201.957
G1 X111.342Y203.862
G1 X111.143Y203.887
G1 X110.946Y203.893
G1 X110.753Y203.879
G1 X110.563Y203.846
G1 X110.379Y203.796
G1 X110.202Y203.729
G1 X110.033Y203.646
G1 X109.872Y203.548
G1 X109.721Y203.435
G1 X109.581Y203.308
G1 X109.454Y203.168
G1 X109.339Y203.016
G1 X109.239Y202.852
G1 X109.155Y202.677
G1 X109.087Y202.492
G1 X109.037Y202.298
G1 X108.858Y201.436
G1 X108.808Y201.241
G1 X108.74Y201.056
G1 X108.655Y200.882
G1 X108.555Y200.718
G1 X108.441Y200.565
G1 X108.313Y200.425
G1 X108.173Y200.298
G1 X108.023Y200.185
G1 X107.862Y200.087
G1 X107.692Y200.004
G1 X107.515Y199.937
G1 X107.331Y199.887
G1 X107.142Y199.855
G1 X106.948Y199.841
G1 X106.751Y199.846
G1 X106.552Y199.871
G1 X91.804Y202.472
G1 X91.605Y202.497
G1 X91.408Y202.502
G1 X91.214Y202.488
G1 X91.025Y202.455
G1 X90.841Y202.405
G1 X90.664Y202.338
G1 X90.494Y202.255
G1 X90.334Y202.157
G1 X90.183Y202.044
G1 X90.043Y201.917
G1 X89.915Y201.777
G1 X89.801Y201.625
G1 X89.701Y201.461
G1 X89.616Y201.286
G1 X89.548Y201.101
G1 X89.498Y200.907
G1 X89.32Y200.044
G1 X89.27Y199.85
G1 X89.202Y199.665
G1 X89.117Y199.491
G1 X89.017Y199.327
G1 X88.902Y199.174
G1 X88.775Y199.034
G1 X88.635Y198.908
G1 X88.484Y198.795
G1 X88.323Y198.696
G1 X88.154Y198.613
G1 X87.976Y198.546
G1 X87.793Y198.496
G1 X87.603Y198.464
G1 X87.41Y198.45
G1 X87.213Y198.455
G1 X87.014Y198.48
G1 X49.672Y205.064
G1 X49.472Y205.11
G1 X49.282Y205.174
G1 X49.102Y205.256
G1 X48.932Y205.354
G1 X48.775Y205.468
G1 X48.63Y205.595
G1 X48.498Y205.735
G1 X48.381Y205.887
G1 X48.278Y206.049
G1 X48.192Y206.221
G1 X48.122Y206.401
G1 X48.069Y206.587
G1 X48.035Y206.78
G1 X48.019Y206.977
G1 X48.024Y207.178
G1 X48.049Y207.381
G1 X54.632Y244.715
G1 X54.678Y244.915
G1 X54.742Y245.105
G1 X54.824Y245.285
G1 X54.922Y245.455
G1 X55.036Y245.612
G1 X55.163Y245.757
G1 X55.303Y245.889
G1 X55.455Y246.007
G1 X55.617Y246.109
G1 X55.789Y246.196
G1 X55.968Y246.266
G1 X56.155Y246.318
G1 X56.348Y246.353
G1 X56.545Y246.368
G1 X56.746Y246.363
G1 X56.949Y246.338
G1 X90.306Y240.456
G1 X90.509Y240.431
G1 X90.709Y240.426
G1 X90.905Y240.441
G1 X91.097Y240.475
G1 X91.283Y240.527
G1 X91.463Y240.596
G1 X91.634Y240.682
G1 X91.796Y240.784
G1 X91.947Y240.9
G1 X92.087Y241.031
G1 X92.215Y241.175
G1 X92.328Y241.332
G1 X92.427Y241.5
G1 X92.509Y241.679
G1 X92.574Y241.868
G1 X92.621Y242.067
G1 X96.181Y261.581
G1 X96.227Y261.78
G1 X96.292Y261.969
G1 X96.374Y262.148
G1 X96.473Y262.316
G1 X96.586Y262.473
G1 X96.714Y262.617
G1 X96.854Y262.748
G1 X97.006Y262.864
G1 X97.168Y262.966
G1 X97.339Y263.052
G1 X97.518Y263.121
G1 X97.704Y263.173
G1 X97.896Y263.207
G1 X98.093Y263.222
G1 X98.293Y263.217
G1 X98.496Y263.192
G1 X113.198Y260.6
G1 X113.397Y260.574
G1 X113.594Y260.569
G1 X113.788Y260.583
G1 X113.977Y260.616
G1 X114.161Y260.666
G1 X114.338Y260.732
G1 X114.508Y260.815
G1 X114.669Y260.914
G1 X114.819Y261.027
G1 X114.959Y261.154
G1 X115.087Y261.294
G1 X115.201Y261.446
G1 X115.301Y261.61
G1 X115.386Y261.785
G1 X115.454Y261.97
G1 X115.504Y262.164
G1 X115.682Y263.026
G1 X115.732Y263.221
G1 X115.801Y263.405
G1 X115.885Y263.58
G1 X115.985Y263.744
G1 X116.1Y263.896
G1 X116.227Y264.036
G1 X116.367Y264.163
G1 X116.518Y264.276
G1 X116.679Y264.375
G1 X116.848Y264.458
G1 X117.026Y264.525
G1 X117.209Y264.575
G1 X117.399Y264.607
G1 X117.592Y264.621
G1 X117.789Y264.616
G1 X117.988Y264.591
G1 X136.676Y261.296
G1 X136.872Y261.251
G1 X137.059Y261.189
G1 X137.236Y261.109
G1 X137.403Y261.014
G1 X137.558Y260.904
G1 X137.702Y260.781
G1 X137.833Y260.645
G1 X137.95Y260.497
G1 X138.053Y260.34
G1 X138.141Y260.173
G1 X138.213Y259.997
G1 X138.269Y259.815
G1 X138.307Y259.627
G1 X138.326Y259.434
G1 Y259.237
G1 X138.308Y259.037
G1 X138.181Y258.166
G1 X138.161Y257.966
G1 Y257.769
G1 X138.182Y257.576
G1 X138.22Y257.387
G1 X138.275Y257.205
G1 X138.347Y257.03
G1 X138.435Y256.863
G1 X138.538Y256.705
G1 X138.655Y256.558
G1 X138.786Y256.422
G1 X138.93Y256.298
G1 X139.086Y256.188
G1 X139.252Y256.093
G1 X139.43Y256.014
G1 X139.616Y255.951
G1 X139.812Y255.907
G1 X154.561Y253.306
G1 X154.756Y253.262
G1 X154.943Y253.199
G1 X155.12Y253.12
G1 X155.287Y253.025
G1 X155.442Y252.915
G1 X155.586Y252.791
G1 X155.717Y252.655
G1 X155.834Y252.508
G1 X155.937Y252.35
G1 X156.025Y252.183
G1 X156.097Y252.008
G1 X156.153Y251.826
G1 X156.191Y251.637
G1 X156.211Y251.444
G1 Y251.247
G1 X156.192Y251.047
G1 X156.065Y250.176
G1 X156.046Y249.976
G1 Y249.779
G1 X156.066Y249.586
G1 X156.104Y249.398
G1 X156.159Y249.216
G1 X156.231Y249.04
G1 X156.319Y248.873
G1 X156.423Y248.716
G1 X156.54Y248.568
G1 X156.671Y248.432
G1 X156.815Y248.309
G1 X156.97Y248.199
G1 X157.137Y248.104
G1 X157.314Y248.025
G1 X157.501Y247.962
G1 X157.697Y247.917
G1 X174.185Y245.01
G1 X174.358Y244.987
G1 X174.532Y244.979
G1 X176
G1 Y181.447
G1 X176.013Y181.192
G1 X176.051Y180.943
G1 X176.113Y180.704
G1 X176.197Y180.474
G1 X176.302Y180.256
G1 X176.427Y180.05
G1 X176.571Y179.857
G1 X176.732Y179.68
G1 X176.91Y179.518
G1 X177.102Y179.374
G1 X177.308Y179.249
G1 X177.527Y179.144
G1 X177.757Y179.06
G1 X177.996Y178.998
G1 X178.244Y178.96
G1 X178.5Y178.947
G1 X221.5
G1 X221.689Y178.954
G1 X221.876Y178.975
G1 X222.061Y179.011
G1 X222.244Y179.06
G1 X222.526Y179.167
G1 X222.793Y179.308
G1 X223.041Y179.479
G1 X223.268Y179.68
G1 X223.434Y179.863
G1 X223.58Y180.06
G1 X223.706Y180.27
G1 X223.811Y180.49
G1 X223.893Y180.72
G1 X223.952Y180.957
G1 X223.988Y181.2
G1 X224Y181.447
G1 Y244.979
G1 X225.468
G1 X225.642Y244.987
G1 X225.815Y245.01
G1 X242.304Y247.917
G1 X242.499Y247.962
G1 X242.686Y248.024
G1 X242.863Y248.104
G1 X243.03Y248.199
G1 X243.186Y248.309
G1 X243.33Y248.432
G1 X243.46Y248.568
G1 X243.578Y248.715
G1 X243.681Y248.873
G1 X243.769Y249.04
G1 X243.841Y249.215
G1 X243.896Y249.398
G1 X243.934Y249.586
G1 X243.954Y249.779
G1 Y249.976
G1 X243.935Y250.176
G1 X243.808Y251.047
G1 X243.789Y251.247
G1 Y251.444
G1 X243.81Y251.637
G1 X243.847Y251.825
G1 X243.903Y252.008
G1 X243.975Y252.183
G1 X244.063Y252.35
G1 X244.166Y252.508
G1 X244.283Y252.655
G1 X244.414Y252.791
G1 X244.558Y252.915
G1 X244.713Y253.024
G1 X244.88Y253.12
G1 X245.057Y253.199
G1 X245.244Y253.262
G1 X245.439Y253.306
G1 X260.188Y255.907
G1 X260.384Y255.951
G1 X260.57Y256.013
G1 X260.748Y256.093
G1 X260.915Y256.188
G1 X261.07Y256.298
G1 X261.214Y256.421
G1 X261.345Y256.557
G1 X261.462Y256.705
G1 X261.565Y256.863
G1 X261.653Y257.03
G1 X261.725Y257.205
G1 X261.781Y257.387
G1 X261.818Y257.576
G1 X261.838Y257.769
G1 Y257.966
G1 X261.819Y258.166
G1 X261.692Y259.037
G1 X261.673Y259.237
G1 Y259.434
G1 X261.693Y259.627
G1 X261.731Y259.815
G1 X261.787Y259.998
G1 X261.859Y260.173
G1 X261.947Y260.34
G1 X262.05Y260.498
G1 X262.167Y260.645
G1 X262.298Y260.781
G1 X262.442Y260.905
G1 X262.597Y261.015
G1 X262.764Y261.11
G1 X262.941Y261.189
G1 X263.128Y261.251
G1 X263.324Y261.296
G1 X282.012Y264.591
G1 X282.211Y264.616
G1 X282.408Y264.621
G1 X282.601Y264.607
G1 X282.791Y264.575
G1 X282.975Y264.525
G1 X283.152Y264.458
G1 X283.321Y264.375
G1 X283.482Y264.277
G1 X283.633Y264.164
G1 X283.773Y264.037
G1 X283.901Y263.897
G1 X284.015Y263.744
G1 X284.115Y263.58
G1 X284.2Y263.406
G1 X284.268Y263.221
G1 X284.318Y263.026
G1 X284.496Y262.164
G1 X284.546Y261.97
G1 X284.614Y261.785
G1 X284.698Y261.61
G1 X284.798Y261.446
G1 X284.912Y261.293
G1 X285.04Y261.153
G1 X285.18Y261.026
G1 X285.331Y260.913
G1 X285.492Y260.815
G1 X285.661Y260.732
G1 X285.839Y260.665
G1 X286.023Y260.615
G1 X286.212Y260.583
G1 X286.406Y260.569
G1 X286.603Y260.574
G1 X286.802Y260.6
G1 X301.504Y263.192
G1 X301.707Y263.217
G1 X301.907Y263.222
G1 X302.104Y263.208
G1 X302.296Y263.174
G1 X302.482Y263.122
G1 X302.662Y263.052
G1 X302.833Y262.967
G1 X302.995Y262.865
G1 X303.147Y262.748
G1 X303.287Y262.618
G1 X303.414Y262.473
G1 X303.528Y262.317
G1 X303.626Y262.148
G1 X303.708Y261.969
G1 X303.773Y261.78
G1 X303.819Y261.581
G1 X307.379Y242.067
G1 X307.426Y241.868
G1 X307.491Y241.679
G1 X307.573Y241.5
G1 X307.671Y241.331
G1 X307.785Y241.175
G1 X307.912Y241.031
G1 X308.052Y240.9
G1 X308.204Y240.783
G1 X308.366Y240.682
G1 X308.537Y240.596
G1 X308.716Y240.526
G1 X308.903Y240.474
G1 X309.095Y240.44
G1 X309.291Y240.426
G1 X309.491Y240.431
G1 X309.694Y240.456
G1 X343.051Y246.338
G1 X343.254Y246.363
G1 X343.455Y246.368
G1 X343.652Y246.353
G1 X343.845Y246.318
G1 X344.031Y246.266
G1 X344.211Y246.196
G1 X344.383Y246.109
G1 X344.545Y246.007
G1 X344.697Y245.889
G1 X344.837Y245.757
G1 X344.964Y245.612
G1 X345.077Y245.455
G1 X345.176Y245.285
G1 X345.257Y245.105
G1 X345.322Y244.915
G1 X345.368Y244.715
G1 X351.951Y207.381
G1 X351.976Y207.178
G1 X351.981Y206.977
G1 X351.966Y206.78
G1 X351.931Y206.587
G1 X351.879Y206.401
G1 X351.809Y206.221
G1 X351.722Y206.049
G1 X351.62Y205.887
G1 X351.502Y205.735
G1 X351.37Y205.595
G1 X351.225Y205.468
G1 X351.068Y205.355
G1 X350.898Y205.256
G1 X350.718Y205.175
G1 X350.528Y205.11
G1 X350.328Y205.064
G1 X312.986Y198.48
G1 X312.787Y198.455
G1 X312.59Y198.45
G1 X312.397Y198.464
G1 X312.207Y198.496
G1 X312.023Y198.546
G1 X311.846Y198.613
G1 X311.677Y198.696
G1 X311.516Y198.794
G1 X311.365Y198.907
G1 X311.225Y199.034
G1 X311.097Y199.174
G1 X310.983Y199.327
G1 X310.883Y199.491
G1 X310.798Y199.665
G1 X310.73Y199.85
G1 X310.68Y200.044
G1 X310.502Y200.907
G1 X310.452Y201.101
G1 X310.383Y201.286
G1 X310.299Y201.461
G1 X310.199Y201.625
G1 X310.084Y201.777
G1 X309.957Y201.917
G1 X309.817Y202.043
G1 X309.666Y202.156
G1 X309.505Y202.255
G1 X309.336Y202.338
G1 X309.159Y202.405
G1 X308.975Y202.455
G1 X308.786Y202.487
G1 X308.592Y202.501
G1 X308.395Y202.497
G1 X308.196Y202.472
G1 X293.448Y199.871
G1 X293.249Y199.846
G1 X293.052Y199.841
G1 X292.858Y199.855
G1 X292.669Y199.887
G1 X292.485Y199.937
G1 X292.308Y200.004
G1 X292.138Y200.087
G1 X291.977Y200.185
G1 X291.826Y200.298
G1 X291.687Y200.425
G1 X291.559Y200.565
G1 X291.445Y200.718
G1 X291.345Y200.882
G1 X291.26Y201.056
G1 X291.192Y201.241
G1 X291.142Y201.436
G1 X290.963Y202.298
G1 X290.913Y202.492
G1 X290.845Y202.677
G1 X290.761Y202.852
G1 X290.661Y203.016
G1 X290.546Y203.168
G1 X290.419Y203.308
G1 X290.279Y203.435
G1 X290.128Y203.548
G1 X289.967Y203.646
G1 X289.798Y203.729
G1 X289.62Y203.796
G1 X289.437Y203.846
G1 X289.247Y203.879
G1 X289.054Y203.893
G1 X288.857Y203.887
G1 X288.658Y203.862
G1 X277.849Y201.957
G1 X277.653Y201.912
G1 X277.467Y201.85
G1 X277.289Y201.77
G1 X277.123Y201.675
G1 X276.967Y201.566
G1 X276.823Y201.442
G1 X276.692Y201.306
G1 X276.575Y201.159
G1 X276.472Y201.001
G1 X276.384Y200.834
G1 X276.312Y200.658
G1 X276.256Y200.476
G1 X276.219Y200.288
G1 X276.199Y200.094
G1 Y199.897
G1 X276.218Y199.698
G1 X276.345Y198.826
G1 X276.364Y198.626
G1 Y198.429
G1 X276.344Y198.236
G1 X276.306Y198.048
G1 X276.251Y197.866
G1 X276.179Y197.69
G1 X276.091Y197.523
G1 X275.988Y197.366
G1 X275.87Y197.218
G1 X275.739Y197.082
G1 X275.596Y196.959
G1 X275.44Y196.849
G1 X275.273Y196.754
G1 X275.096Y196.674
G1 X274.909Y196.612
G1 X274.713Y196.567
G1 X265.223Y194.894
G1 X265.022Y194.848
G1 X264.828Y194.782
G1 X264.643Y194.696
G1 X264.468Y194.593
G1 X264.304Y194.473
G1 X264.153Y194.336
G1 X264.016Y194.184
G1 X263.895Y194.017
G1 X263.791Y193.838
G1 X263.707Y193.651
G1 X263.643Y193.458
G1 X263.598Y193.26
G1 X263.575Y193.058
G1 X263.572Y192.854
G1 X263.589Y192.65
G1 X263.628Y192.447
G1 X268.968Y170.728
G1 X269.006Y170.529
G1 X269.024Y170.332
G1 Y170.137
G1 X269.003Y169.945
G1 X268.965Y169.757
G1 X268.909Y169.575
G1 X268.836Y169.4
G1 X268.748Y169.232
G1 X268.644Y169.074
G1 X268.525Y168.926
G1 X268.392Y168.789
G1 X268.246Y168.665
G1 X268.088Y168.555
G1 X267.917Y168.459
G1 X267.736Y168.38
G1 X267.543Y168.318
G1 X252.719Y164.346
G1 X252.557Y164.295
G1 X252.402Y164.232
G1 X252.254Y164.156
G1 X252.114Y164.069
G1 X251.982Y163.972
G1 X251.859Y163.864
G1 X251.746Y163.748
G1 X251.643Y163.622
G1 X251.55Y163.489
G1 X251.468Y163.349
G1 X251.398Y163.202
G1 X251.34Y163.049
G1 X251.294Y162.89
G1 X251.261Y162.727
G1 X251.242Y162.561
G1 X251.237Y162.391
; Layer C00 Pass 2 of 2
G1 X251.251Y161.165
G1 X251.234Y160.879
G1 X251.177Y160.602
G1 X251.083Y160.339
G1 X250.954Y160.092
G1 X250.791Y159.865
G1 X250.598Y159.663
G1 X250.376Y159.488
G1 X250.128Y159.344
G1 X232.162Y150.582
G1 X231.953Y150.494
G1 X231.735Y150.43
G1 X231.512Y150.392
G1 X231.285Y150.379
G1 X168.715
G1 X168.488Y150.392
G1 X168.265Y150.43
G1 X168.047Y150.494
G1 X167.838Y150.582
G1 X149.872Y159.344
G1 X149.624Y159.488
G1 X149.402Y159.663
G1 X149.209Y159.865
G1 X149.046Y160.092
G1 X148.917Y160.338
G1 X148.823Y160.602
G1 X148.766Y160.879
G1 X148.749Y161.165
G1 X148.763Y162.391
G1 X148.758Y162.561
G1 X148.739Y162.727
G1 X148.706Y162.89
G1 X148.66Y163.049
G1 X148.602Y163.202
G1 X148.532Y163.349
G1 X148.45Y163.489
G1 X148.357Y163.622
G1 X148.254Y163.748
G1 X148.141Y163.864
G1 X148.018Y163.972
G1 X147.886Y164.069
G1 X147.746Y164.156
G1 X147.598Y164.232
G1 X147.443Y164.295
G1 X147.281Y164.346
G1 X132.457Y168.318
G1 X132.264Y168.38
G1 X132.083Y168.459
G1 X131.912Y168.555
G1 X131.754Y168.665
G1 X131.608Y168.789
G1 X131.475Y168.926
G1 X131.357Y169.074
G1 X131.253Y169.232
G1 X131.164Y169.4
G1 X131.091Y169.575
G1 X131.036Y169.757
G1 X130.997Y169.945
G1 X130.977Y170.137
G1 Y170.332
G1 X130.994Y170.529
G1 X131.032Y170.728
G1 X136.372Y192.447
G1 X136.41Y192.65
G1 X136.428Y192.854
G1 X136.425Y193.058
G1 X136.401Y193.26
G1 X136.357Y193.458
G1 X136.293Y193.652
G1 X136.209Y193.838
G1 X136.105Y194.017
G1 X135.984Y194.184
G1 X135.847Y194.336
G1 X135.696Y194.473
G1 X135.532Y194.593
G1 X135.357Y194.697
G1 X135.172Y194.782
G1 X134.978Y194.848
G1 X134.777Y194.894
G1 X125.287Y196.567
G1 X125.091Y196.612
G1 X124.905Y196.674
G1 X124.727Y196.754
G1 X124.561Y196.849
G1 X124.405Y196.959
G1 X124.261Y197.082
G1 X124.13Y197.218
G1 X124.013Y197.366
G1 X123.91Y197.523
G1 X123.822Y197.69
G1 X123.75Y197.866
G1 X123.694Y198.048
G1 X123.656Y198.236
G1 X123.637Y198.429
G1 Y198.626
G1 X123.655Y198.826
G1 X123.783Y199.698
G1 X123.802Y199.897
G1 Y200.094
G1 X123.781Y200.288
G1 X123.743Y200.476
G1 X123.688Y200.658
G1 X123.616Y200.833
G1 X123.528Y201
G1 X123.425Y201.158
G1 X123.307Y201.305
G1 X123.176Y201.441
G1 X123.033Y201.565
G1 X122.877Y201.675
G1 X122.71Y201.77
G1 X122.533Y201.849
G1 X122.346Y201.912
G1 X122.151Y201.957
G1 X111.342Y203.862
G1 X111.143Y203.887
G1 X110.946Y203.893
G1 X110.753Y203.879
G1 X110.563Y203.846
G1 X110.379Y203.796
G1 X110.202Y203.729
G1 X110.033Y203.646
G1 X109.872Y203.548
G1 X109.721Y203.435
G1 X109.581Y203.308
G1 X109.454Y203.168
G1 X109.339Y203.016
G1 X109.239Y202.852
G1 X109.155Y202.677
G1 X109.087Y202.492
G1 X109.037Y202.298
G1 X108.858Y201.436
G1 X108.808Y201.241
G1 X108.74Y201.056
G1 X108.655Y200.882
G1 X108.555Y200.718
G1 X108.441Y200.565
G1 X108.313Y200.425
G1 X108.173Y200.298
G1 X108.023Y200.185
G1 X107.862Y200.087
G1 X107.692Y200.004
G1 X107.515Y199.937
G1 X107.331Y199.887
G1 X107.142Y199.855
G1 X106.948Y199.841
G1 X106.751Y199.846
G1 X106.552Y199.871
G1 X91.804Y202.472
G1 X91.605Y202.497
G1 X91.408Y202.502
G1 X91.214Y202.488
G1 X91.025Y202.455
G1 X90.841Y202.405
G1 X90.664Y202.338
G1 X90.494Y202.255
G1 X90.334Y202.157
G1 X90.183Y202.044
G1 X90.043Y201.917
G1 X89.915Y201.777
G1 X89.801Y201.625
G1 X89.701Y201.461
G1 X89.616Y201.286
G1 X89.548Y201.101
G1 X89.498Y200.907
G1 X89.32Y200.044
G1 X89.27Y199.85
G1 X89.202Y199.665
G1 X89.117Y199.491
G1 X89.017Y199.327
G1 X88.902Y199.174
G1 X88.775Y199.034
G1 X88.635Y198.908
G1 X88.484Y198.795
G1 X88.323Y198.696
G1 X88.154Y198.613
G1 X87.976Y198.546
G1 X87.793Y198.496
G1 X87.603Y198.464
G1 X87.41Y198.45
G1 X87.213Y198.455
G1 X87.014Y198.48
G1 X49.672Y205.064
G1 X49.472Y205.11
G1 X49.282Y205.174
G1 X49.102Y205.256
G1 X48.932Y205.354
G1 X48.775Y205.468
G1 X48.63Y205.595
G1 X48.498Y205.735
G1 X48.381Y205.887
G1 X48.278Y206.049
G1 X48.192Y206.221
G1 X48.122Y206.401
G1 X48.069Y206.587
G1 X48.035Y206.78
G1 X48.019Y206.977
G1 X48.024Y207.178
G1 X48.049Y207.381
G1 X54.632Y244.715
G1 X54.678Y244.915
G1 X54.742Y245.105
G1 X54.824Y245.285
G1 X54.922Y245.455
G1 X55.036Y245.612
G1 X55.163Y245.757
G1 X55.303Y245.889
G1 X55.455Y246.007
G1 X55.617Y246.109
G1 X55.789Y246.196
G1 X55.968Y246.266
G1 X56.155Y246.318
G1 X56.348Y246.353
G1 X56.545Y246.368
G1 X56.746Y246.363
G1 X56.949Y246.338
G1 X90.306Y240.456
G1 X90.509Y240.431
G1 X90.709Y240.426
G1 X90.905Y240.441
G1 X91.097Y240.475
G1 X91.283Y240.527
G1 X91.463Y240.596
G1 X91.634Y240.682
G1 X91.796Y240.784
G1 X91.947Y240.9
G1 X92.087Y241.031
G1 X92.215Y241.175
G1 X92.328Y241.332
G1 X92.427Y241.5
G1 X92.509Y241.679
G1 X92.574Y241.868
G1 X92.621Y242.067
G1 X96.181Y261.581
G1 X96.227Y261.78
G1 X96.292Y261.969
G1 X96.374Y262.148
G1 X96.473Y262.316
G1 X96.586Y262.473
G1 X96.714Y262.617
G1 X96.854Y262.748
G1 X97.006Y262.864
G1 X97.168Y262.966
G1 X97.339Y263.052
G1 X97.518Y263.121
G1 X97.704Y263.173
G1 X97.896Y263.207
G1 X98.093Y263.222
G1 X98.293Y263.217
G1 X98.496Y263.192
G1 X113.198Y260.6
G1 X113.397Y260.574
G1 X113.594Y260.569
G1 X113.788Y260.583
G1 X113.977Y260.616
G1 X114.161Y260.666
G1 X114.338Y260.732
G1 X114.508Y260.815
G1 X114.669Y260.914
G1 X114.819Y261.027
G1 X114.959Y261.154
G1 X115.087Y261.294
G1 X115.201Y261.446
G1 X115.301Y261.61
G1 X115.386Y261.785
G1 X115.454Y261.97
G1 X115.504Y262.164
G1 X115.682Y263.026
G1 X115.732Y263.221
G1 X115.801Y263.405
G1 X115.885Y263.58
G1 X115.985Y263.744
G1 X116.1Y263.896
G1 X116.227Y264.036
G1 X116.367Y264.163
G1 X116.518Y264.276
G1 X116.679Y264.375
G1 X116.848Y264.458
G1 X117.026Y264.525
G1 X117.209Y264.575
G1 X117.399Y264.607
G1 X117.592Y264.621
G1 X117.789Y264.616
G1 X117.988Y264.591
G1 X136.676Y261.296
G1 X136.872Y261.251
G1 X137.059Y261.189
G1 X137.236Y261.109
G1 X137.403Y261.014
G1 X137.558Y260.904
G1 X137.702Y260.781
G1 X137.833Y260.645
G1 X137.95Y260.497
G1 X138.053Y260.34
G1 X138.141Y260.173
G1 X138.213Y259.997
G1 X138.269Y259.815
G1 X138.307Y259.627
G1 X138.326Y259.434
G1 Y259.237
G1 X138.308Y259.037
G1 X138.181Y258.166
G1 X138.161Y257.966
G1 Y257.769
G1 X138.182Y257.576
G1 X138.22Y257.387
G1 X138.275Y257.205
G1 X138.347Y257.03
G1 X138.435Y256.863
G1 X138.538Y256.705
G1 X138.655Y256.558
G1 X138.786Y256.422
G1 X138.93Y256.298
G1 X139.086Y256.188
G1 X139.252Y256.093
G1 X139.43Y256.014
G1 X139.616Y255.951
G1 X139.812Y255.907
G1 X154.561Y253.306
G1 X154.756Y253.262
G1 X154.943Y253.199
G1 X155.12Y253.12
G1 X155.287Y253.025
G1 X155.442Y252.915
G1 X155.586Y252.791
G1 X155.717Y252.655
G1 X155.834Y252.508
G1 X155.937Y252.35
G1 X156.025Y252.183
G1 X156.097Y252.008
G1 X156.153Y251.826
G1 X156.191Y251.637
G1 X156.211Y251.444
G1 Y251.247
G1 X156.192Y251.047
G1 X156.065Y250.176
G1 X156.046Y249.976
G1 Y249.779
G1 X156.066Y249.586
G1 X156.104Y249.398
G1 X156.159Y249.216
G1 X156.231Y249.04
G1 X156.319Y248.873
G1 X156.423Y248.716
G1 X156.54Y248.568
G1 X156.671Y248.432
G1 X156.815Y248.309
G1 X156.97Y248.199
G1 X157.137Y248.104
G1 X157.314Y248.025
G1 X157.501Y247.962
G1 X157.697Y247.917
G1 X174.185Y245.01
G1 X174.358Y244.987
G1 X174.532Y244.979
G1 X176
G1 Y181.447
G1 X176.013Y181.192
G1 X176.051Y180.943
G1 X176.113Y180.704
G1 X176.197Y180.474
G1 X176.302Y180.256
G1 X176.427Y180.05
G1 X176.571Y179.857
G1 X176.732Y179.68
G1 X176.91Y179.518
G1 X177.102Y179.374
G1 X177.308Y179.249
G1 X177.527Y179.144
G1 X177.757Y179.06
G1 X177.996Y178.998
G1 X178.244Y178.96
G1 X178.5Y178.947
G1 X221.5
G1 X221.689Y178.954
G1 X221.876Y178.975
G1 X222.061Y179.011
G1 X222.244Y179.06
G1 X222.526Y179.167
G1 X222.793Y179.308
G1 X223.041Y179.479
G1 X223.268Y179.68
G1 X223.434Y179.863
G1 X223.58Y180.06
G1 X223.706Y180.27
G1 X223.811Y180.49
G1 X223.893Y180.72
G1 X223.952Y180.957
G1 X223.988Y181.2
G1 X224Y181.447
G1 Y244.979
G1 X225.468
G1 X225.642Y244.987
G1 X225.815Y245.01
G1 X242.304Y247.917
G1 X242.499Y247.962
G1 X242.686Y248.024
G1 X242.863Y248.104
G1 X243.03Y248.199
G1 X243.186Y248.309
G1 X243.33Y248.432
G1 X243.46Y248.568
G1 X243.578Y248.715
G1 X243.681Y248.873
G1 X243.769Y249.04
G1 X243.841Y249.215
G1 X243.896Y249.398
G1 X243.934Y249.586
G1 X243.954Y249.779
G1 Y249.976
G1 X243.935Y250.176
G1 X243.808Y251.047
G1 X243.789Y251.247
G1 Y251.444
G1 X243.81Y251.637
G1 X243.847Y251.825
G1 X243.903Y252.008
G1 X243.975Y252.183
G1 X244.063Y252.35
G1 X244.166Y252.508
G1 X244.283Y252.655
G1 X244.414Y252.791
G1 X244.558Y252.915
G1 X244.713Y253.024
G1 X244.88Y253.12
G1 X245.057Y253.199
G1 X245.244Y253.262
G1 X245.439Y253.306
G1 X260.188Y255.907
G1 X260.384Y255.951
G1 X260.57Y256.013
G1 X260.748Y256.093
G1 X260.915Y256.188
G1 X261.07Y256.298
G1 X261.214Y256.421
G1 X261.345Y256.557
G1 X261.462Y256.705
G1 X261.565Y256.863
G1 X261.653Y257.03
G1 X261.725Y257.205
G1 X261.781Y257.387
G1 X261.818Y257.576
G1 X261.838Y257.769
G1 Y257.966
G1 X261.819Y258.166
G1 X261.692Y259.037
G1 X261.673Y259.237
G1 Y259.434
G1 X261.693Y259.627
G1 X261.731Y259.815
G1 X261.787Y259.998
G1 X261.859Y260.173
G1 X261.947Y260.34
G1 X262.05Y260.498
G1 X262.167Y260.645
G1 X262.298Y260.781
G1 X262.442Y260.905
G1 X262.597Y261.015
G1 X262.764Y261.11
G1 X262.941Y261.189
G1 X263.128Y261.251
G1 X263.324Y261.296
G1 X282.012Y264.591
G1 X282.211Y264.616
G1 X282.408Y264.621
G1 X282.601Y264.607
G1 X282.791Y264.575
G1 X282.975Y264.525
G1 X283.152Y264.458
G1 X283.321Y264.375
G1 X283.482Y264.277
G1 X283.633Y264.164
G1 X283.773Y264.037
G1 X283.901Y263.897
G1 X284.015Y263.744
G1 X284.115Y263.58
G1 X284.2Y263.406
G1 X284.268Y263.221
G1 X284.318Y263.026
G1 X284.496Y262.164
G1 X284.546Y261.97
G1 X284.614Y261.785
G1 X284.698Y261.61
G1 X284.798Y261.446
G1 X284.912Y261.293
G1 X285.04Y261.153
G1 X285.18Y261.026
G1 X285.331Y260.913
G1 X285.492Y260.815
G1 X285.661Y260.732
G1 X285.839Y260.665
G1 X286.023Y260.615
G1 X286.212Y260.583
G1 X286.406Y260.569
G1 X286.603Y260.574
G1 X286.802Y260.6
G1 X301.504Y263.192
G1 X301.707Y263.217
G1 X301.907Y263.222
G1 X302.104Y263.208
G1 X302.296Y263.174
G1 X302.482Y263.122
G1 X302.662Y263.052
G1 X302.833Y262.967
G1 X302.995Y262.865
G1 X303.147Y262.748
G1 X303.287Y262.618
G1 X303.414Y262.473
G1 X303.528Y262.317
G1 X303.626Y262.148
G1 X303.708Y261.969
G1 X303.773Y261.78
G1 X303.819Y261.581
G1 X307.379Y242.067
G1 X307.426Y241.868
G1 X307.491Y241.679
G1 X307.573Y241.5
G1 X307.671Y241.331
G1 X307.785Y241.175
G1 X307.912Y241.031
G1 X308.052Y240.9
G1 X308.204Y240.783
G1 X308.366Y240.682
G1 X308.537Y240.596
G1 X308.716Y240.526
G1 X308.903Y240.474
G1 X309.095Y240.44
G1 X309.291Y240.426
G1 X309.491Y240.431
G1 X309.694Y240.456
G1 X343.051Y246.338
G1 X343.254Y246.363
G1 X343.455Y246.368
G1 X343.652Y246.353
G1 X343.845Y246.318
G1 X344.031Y246.266
G1 X344.211Y246.196
G1 X344.383Y246.109
G1 X344.545Y246.007
G1 X344.697Y245.889
G1 X344.837Y245.757
G1 X344.964Y245.612
G1 X345.077Y245.455
G1 X345.176Y245.285
G1 X345.257Y245.105
G1 X345.322Y244.915
G1 X345.368Y244.715
G1 X351.951Y207.381
G1 X351.976Y207.178
G1 X351.981Y206.977
G1 X351.966Y206.78
G1 X351.931Y206.587
G1 X351.879Y206.401
G1 X351.809Y206.221
G1 X351.722Y206.049
G1 X351.62Y205.887
G1 X351.502Y205.735
G1 X351.37Y205.595
G1 X351.225Y205.468
G1 X351.068Y205.355
G1 X350.898Y205.256
G1 X350.718Y205.175
G1 X350.528Y205.11
G1 X350.328Y205.064
G1 X312.986Y198.48
G1 X312.787Y198.455
G1 X312.59Y198.45
G1 X312.397Y198.464
G1 X312.207Y198.496
G1 X312.023Y198.546
G1 X311.846Y198.613
G1 X311.677Y198.696
G1 X311.516Y198.794
G1 X311.365Y198.907
G1 X311.225Y199.034
G1 X311.097Y199.174
G1 X310.983Y199.327
G1 X310.883Y199.491
G1 X310.798Y199.665
G1 X310.73Y199.85
G1 X310.68Y200.044
G1 X310.502Y200.907
G1 X310.452Y201.101
G1 X310.383Y201.286
G1 X310.299Y201.461
G1 X310.199Y201.625
G1 X310.084Y201.777
G1 X309.957Y201.917
G1 X309.817Y202.043
G1 X309.666Y202.156
G1 X309.505Y202.255
G1 X309.336Y202.338
G1 X309.159Y202.405
G1 X308.975Y202.455
G1 X308.786Y202.487
G1 X308.592Y202.501
G1 X308.395Y202.497
G1 X308.196Y202.472
G1 X293.448Y199.871
G1 X293.249Y199.846
G1 X293.052Y199.841
G1 X292.858Y199.855
G1 X292.669Y199.887
G1 X292.485Y199.937
G1 X292.308Y200.004
G1 X292.138Y200.087
G1 X291.977Y200.185
G1 X291.826Y200.298
G1 X291.687Y200.425
G1 X291.559Y200.565
G1 X291.445Y200.718
G1 X291.345Y200.882
G1 X291.26Y201.056
G1 X291.192Y201.241
G1 X291.142Y201.436
G1 X290.963Y202.298
G1 X290.913Y202.492
G1 X290.845Y202.677
G1 X290.761Y202.852
G1 X290.661Y203.016
G1 X290.546Y203.168
G1 X290.419Y203.308
G1 X290.279Y203.435
G1 X290.128Y203.548
G1 X289.967Y203.646
G1 X289.798Y203.729
G1 X289.62Y203.796
G1 X289.437Y203.846
G1 X289.247Y203.879
G1 X289.054Y203.893
G1 X288.857Y203.887
G1 X288.658Y203.862
G1 X277.849Y201.957
G1 X277.653Y201.912
G1 X277.467Y201.85
G1 X277.289Y201.77
G1 X277.123Y201.675
G1 X276.967Y201.566
G1 X276.823Y201.442
G1 X276.692Y201.306
G1 X276.575Y201.159
G1 X276.472Y201.001
G1 X276.384Y200.834
G1 X276.312Y200.658
G1 X276.256Y200.476
G1 X276.219Y200.288
G1 X276.199Y200.094
G1 Y199.897
G1 X276.218Y199.698
G1 X276.345Y198.826
G1 X276.364Y198.626
G1 Y198.429
G1 X276.344Y198.236
G1 X276.306Y198.048
G1 X276.251Y197.866
G1 X276.179Y197.69
G1 X276.091Y197.523
G1 X275.988Y197.366
G1 X275.87Y197.218
G1 X275.739Y197.082
G1 X275.596Y196.959
G1 X275.44Y196.849
G1 X275.273Y196.754
G1 X275.096Y196.674
G1 X274.909Y196.612
G1 X274.713Y196.567
G1 X265.223Y194.894
G1 X265.022Y194.848
G1 X264.828Y194.782
G1 X264.643Y194.696
G1 X264.468Y194.593
G1 X264.304Y194.473
G1 X264.153Y194.336
G1 X264.016Y194.184
G1 X263.895Y194.017
G1 X263.791Y193.838
G1 X263.707Y193.651
G1 X263.643Y193.458
G1 X263.598Y193.26
G1 X263.575Y193.058
G1 X263.572Y192.854
G1 X263.589Y192.65
G1 X263.628Y192.447
G1 X268.968Y170.728
G1 X269.006Y170.529
G1 X269.024Y170.332
G1 Y170.137
G1 X269.003Y169.945
G1 X268.965Y169.757
G1 X268.909Y169.575
G1 X268.836Y169.4
G1 X268.748Y169.232
G1 X268.644Y169.074
G1 X268.525Y168.926
G1 X268.392Y168.789
G1 X268.246Y168.665
G1 X268.088Y168.555
G1 X267.917Y168.459
G1 X267.736Y168.38
G1 X267.543Y168.318
G1 X252.719Y164.346
G1 X252.557Y164.295
G1 X252.402Y164.232
G1 X252.254Y164.156
G1 X252.114Y164.069
G1 X251.982Y163.972
G1 X251.859Y163.864
G1 X251.746Y163.748
G1 X251.643Y163.622
G1 X251.55Y163.489
G1 X251.468Y163.349
G1 X251.398Y163.202
G1 X251.34Y163.049
G1 X251.294Y162.89
G1 X251.261Y162.727
G1 X251.242Y162.561
G1 X251.237Y162.391
M9
G1 S0
M5
G90
; return to user-defined finish pos
G0 X0Y0
M2
