; LightBurn 1.7.08
; GRBL device profile, absolute coords
; Bounds: X47.82 Y150.18 to X352.18 Y264.82
G00 G17 G40 G21 G54
G90
M4
; Cut @ 5 mm/sec, 100% power
M8
G0 X201.1Y165.663
; Layer C01 Pass 1 of 2
G1 X201.078Y165.441S1000F300
G1 X201.014Y165.235
G1 X200.912Y165.048
G1 X200.778Y164.885
G1 X200.615Y164.751
G1 X200.428Y164.649
G1 X200.222Y164.585
G1 X200Y164.563
G1 X199.778Y164.585
G1 X199.572Y164.649
G1 X199.385Y164.751
G1 X199.222Y164.885
G1 X199.088Y165.048
G1 X198.986Y165.235
G1 X198.922Y165.441
G1 X198.9Y165.663
G1 X198.922Y165.884
G1 X198.986Y166.091
G1 X199.088Y166.278
G1 X199.222Y166.441
G1 X199.385Y166.575
G1 X199.572Y166.676
G1 X199.778Y166.74
G1 X200Y166.763
G1 X200.222Y166.74
G1 X200.428Y166.676
G1 X200.615Y166.575
G1 X200.778Y166.441
G1 X200.912Y166.278
G1 X201.014Y166.091
G1 X201.078Y165.884
G1 X201.1Y165.663
; Layer C01 Pass 2 of 2
G1 X201.078Y165.441
G1 X201.014Y165.235
G1 X200.912Y165.048
G1 X200.778Y164.885
G1 X200.615Y164.751
G1 X200.428Y164.649
G1 X200.222Y164.585
G1 X200Y164.563
G1 X199.778Y164.585
G1 X199.572Y164.649
G1 X199.385Y164.751
G1 X199.222Y164.885
G1 X199.088Y165.048
G1 X198.986Y165.235
G1 X198.922Y165.441
G1 X198.9Y165.663
G1 X198.922Y165.884
G1 X198.986Y166.091
G1 X199.088Y166.278
G1 X199.222Y166.441
G1 X199.385Y166.575
G1 X199.572Y166.676
G1 X199.778Y166.74
G1 X200Y166.763
G1 X200.222Y166.74
G1 X200.428Y166.676
G1 X200.615Y166.575
G1 X200.778Y166.441
G1 X200.912Y166.278
G1 X201.014Y166.091
G1 X201.078Y165.884
G1 X201.1Y165.663
G0 X256.642Y196.089
; Layer C01 Pass 1 of 2
G1 X256.62Y195.867
G1 X256.555Y195.661
G1 X256.454Y195.474
G1 X256.32Y195.311
G1 X256.157Y195.177
G1 X255.97Y195.075
G1 X255.764Y195.011
G1 X255.542Y194.989
G1 X255.32Y195.011
G1 X255.114Y195.075
G1 X254.927Y195.177
G1 X254.764Y195.311
G1 X254.63Y195.474
G1 X254.528Y195.661
G1 X254.464Y195.867
G1 X254.442Y196.089
G1 X254.464Y196.31
G1 X254.528Y196.517
G1 X254.63Y196.704
G1 X254.764Y196.866
G1 X254.927Y197.001
G1 X255.114Y197.102
G1 X255.32Y197.166
G1 X255.542Y197.189
G1 X255.764Y197.166
G1 X255.97Y197.102
G1 X256.157Y197.001
G1 X256.32Y196.866
G1 X256.454Y196.704
G1 X256.555Y196.517
G1 X256.62Y196.31
G1 X256.642Y196.089
; Layer C01 Pass 2 of 2
G1 X256.62Y195.867
G1 X256.555Y195.661
G1 X256.454Y195.474
G1 X256.32Y195.311
G1 X256.157Y195.177
G1 X255.97Y195.075
G1 X255.764Y195.011
G1 X255.542Y194.989
G1 X255.32Y195.011
G1 X255.114Y195.075
G1 X254.927Y195.177
G1 X254.764Y195.311
G1 X254.63Y195.474
G1 X254.528Y195.661
G1 X254.464Y195.867
G1 X254.442Y196.089
G1 X254.464Y196.31
G1 X254.528Y196.517
G1 X254.63Y196.704
G1 X254.764Y196.866
G1 X254.927Y197.001
G1 X255.114Y197.102
G1 X255.32Y197.166
G1 X255.542Y197.189
G1 X255.764Y197.166
G1 X255.97Y197.102
G1 X256.157Y197.001
G1 X256.32Y196.866
G1 X256.454Y196.704
G1 X256.555Y196.517
G1 X256.62Y196.31
G1 X256.642Y196.089
G0 X289.599Y228.014
; Layer C01 Pass 1 of 2
G1 X289.576Y227.792
G1 X289.512Y227.586
G1 X289.411Y227.399
G1 X289.277Y227.236
G1 X289.114Y227.102
G1 X288.927Y227.001
G1 X288.72Y226.936
G1 X288.499Y226.914
G1 X288.277Y226.936
G1 X288.071Y227.001
G1 X287.884Y227.102
G1 X287.721Y227.236
G1 X287.587Y227.399
G1 X287.485Y227.586
G1 X287.421Y227.792
G1 X287.399Y228.014
G1 X287.421Y228.236
G1 X287.485Y228.442
G1 X287.587Y228.629
G1 X287.721Y228.792
G1 X287.884Y228.926
G1 X288.071Y229.028
G1 X288.277Y229.092
G1 X288.499Y229.114
G1 X288.72Y229.092
G1 X288.927Y229.028
G1 X289.114Y228.926
G1 X289.277Y228.792
G1 X289.411Y228.629
G1 X289.512Y228.442
G1 X289.576Y228.236
G1 X289.599Y228.014
; Layer C01 Pass 2 of 2
G1 X289.576Y227.792
G1 X289.512Y227.586
G1 X289.411Y227.399
G1 X289.277Y227.236
G1 X289.114Y227.102
G1 X288.927Y227.001
G1 X288.72Y226.936
G1 X288.499Y226.914
G1 X288.277Y226.936
G1 X288.071Y227.001
G1 X287.884Y227.102
G1 X287.721Y227.236
G1 X287.587Y227.399
G1 X287.485Y227.586
G1 X287.421Y227.792
G1 X287.399Y228.014
G1 X287.421Y228.236
G1 X287.485Y228.442
G1 X287.587Y228.629
G1 X287.721Y228.792
G1 X287.884Y228.926
G1 X288.071Y229.028
G1 X288.277Y229.092
G1 X288.499Y229.114
G1 X288.72Y229.092
G1 X288.927Y229.028
G1 X289.114Y228.926
G1 X289.277Y228.792
G1 X289.411Y228.629
G1 X289.512Y228.442
G1 X289.576Y228.236
G1 X289.599Y228.014
G0 X326.856Y235.551
; Layer C01 Pass 1 of 2
G1 X326.834Y235.329
G1 X326.77Y235.123
G1 X326.668Y234.936
G1 X326.534Y234.773
G1 X326.371Y234.639
G1 X326.184Y234.537
G1 X325.978Y234.473
G1 X325.756Y234.451
G1 X325.534Y234.473
G1 X325.328Y234.537
G1 X325.141Y234.639
G1 X324.978Y234.773
G1 X324.844Y234.936
G1 X324.743Y235.123
G1 X324.678Y235.329
G1 X324.656Y235.551
G1 X324.678Y235.772
G1 X324.743Y235.979
G1 X324.844Y236.166
G1 X324.978Y236.329
G1 X325.141Y236.463
G1 X325.328Y236.564
G1 X325.534Y236.628
G1 X325.756Y236.651
G1 X325.978Y236.628
G1 X326.184Y236.564
G1 X326.371Y236.463
G1 X326.534Y236.329
G1 X326.668Y236.166
G1 X326.77Y235.979
G1 X326.834Y235.772
G1 X326.856Y235.551
; Layer C01 Pass 2 of 2
G1 X326.834Y235.329
G1 X326.77Y235.123
G1 X326.668Y234.936
G1 X326.534Y234.773
G1 X326.371Y234.639
G1 X326.184Y234.537
G1 X325.978Y234.473
G1 X325.756Y234.451
G1 X325.534Y234.473
G1 X325.328Y234.537
G1 X325.141Y234.639
G1 X324.978Y234.773
G1 X324.844Y234.936
G1 X324.743Y235.123
G1 X324.678Y235.329
G1 X324.656Y235.551
G1 X324.678Y235.772
G1 X324.743Y235.979
G1 X324.844Y236.166
G1 X324.978Y236.329
G1 X325.141Y236.463
G1 X325.328Y236.564
G1 X325.534Y236.628
G1 X325.756Y236.651
G1 X325.978Y236.628
G1 X326.184Y236.564
G1 X326.371Y236.463
G1 X326.534Y236.329
G1 X326.668Y236.166
G1 X326.77Y235.979
G1 X326.834Y235.772
G1 X326.856Y235.551
G0 X331.487Y209.286
; Layer C01 Pass 1 of 2
G1 X331.465Y209.064
G1 X331.401Y208.858
G1 X331.299Y208.671
G1 X331.165Y208.508
G1 X331.002Y208.374
G1 X330.815Y208.272
G1 X330.609Y208.208
G1 X330.387Y208.186
G1 X330.166Y208.208
G1 X329.959Y208.272
G1 X329.772Y208.374
G1 X329.609Y208.508
G1 X329.475Y208.671
G1 X329.374Y208.858
G1 X329.31Y209.064
G1 X329.287Y209.286
G1 X329.31Y209.508
G1 X329.374Y209.714
G1 X329.475Y209.901
G1 X329.609Y210.064
G1 X329.772Y210.198
G1 X329.959Y210.299
G1 X330.166Y210.364
G1 X330.387Y210.386
G1 X330.609Y210.364
G1 X330.815Y210.299
G1 X331.002Y210.198
G1 X331.165Y210.064
G1 X331.299Y209.901
G1 X331.401Y209.714
G1 X331.465Y209.508
G1 X331.487Y209.286
; Layer C01 Pass 2 of 2
G1 X331.465Y209.064
G1 X331.401Y208.858
G1 X331.299Y208.671
G1 X331.165Y208.508
G1 X331.002Y208.374
G1 X330.815Y208.272
G1 X330.609Y208.208
G1 X330.387Y208.186
G1 X330.166Y208.208
G1 X329.959Y208.272
G1 X329.772Y208.374
G1 X329.609Y208.508
G1 X329.475Y208.671
G1 X329.374Y208.858
G1 X329.31Y209.064
G1 X329.287Y209.286
G1 X329.31Y209.508
G1 X329.374Y209.714
G1 X329.475Y209.901
G1 X329.609Y210.064
G1 X329.772Y210.198
G1 X329.959Y210.299
G1 X330.166Y210.364
G1 X330.387Y210.386
G1 X330.609Y210.364
G1 X330.815Y210.299
G1 X331.002Y210.198
G1 X331.165Y210.064
G1 X331.299Y209.901
G1 X331.401Y209.714
G1 X331.465Y209.508
G1 X331.487Y209.286
G0 X248.703Y241.114
; Layer C01 Pass 1 of 2
G1 X248.68Y240.892
G1 X248.616Y240.686
G1 X248.515Y240.499
G1 X248.381Y240.336
G1 X248.218Y240.202
G1 X248.031Y240.101
G1 X247.824Y240.036
G1 X247.603Y240.014
G1 X247.381Y240.036
G1 X247.175Y240.101
G1 X246.988Y240.202
G1 X246.825Y240.336
G1 X246.691Y240.499
G1 X246.589Y240.686
G1 X246.525Y240.892
G1 X246.503Y241.114
G1 X246.525Y241.336
G1 X246.589Y241.542
G1 X246.691Y241.729
G1 X246.825Y241.892
G1 X246.988Y242.026
G1 X247.175Y242.128
G1 X247.381Y242.192
G1 X247.603Y242.214
G1 X247.824Y242.192
G1 X248.031Y242.128
G1 X248.218Y242.026
G1 X248.381Y241.892
G1 X248.515Y241.729
G1 X248.616Y241.542
G1 X248.68Y241.336
G1 X248.703Y241.114
; Layer C01 Pass 2 of 2
G1 X248.68Y240.892
G1 X248.616Y240.686
G1 X248.515Y240.499
G1 X248.381Y240.336
G1 X248.218Y240.202
G1 X248.031Y240.101
G1 X247.824Y240.036
G1 X247.603Y240.014
G1 X247.381Y240.036
G1 X247.175Y240.101
G1 X246.988Y240.202
G1 X246.825Y240.336
G1 X246.691Y240.499
G1 X246.589Y240.686
G1 X246.525Y240.892
G1 X246.503Y241.114
G1 X246.525Y241.336
G1 X246.589Y241.542
G1 X246.691Y241.729
G1 X246.825Y241.892
G1 X246.988Y242.026
G1 X247.175Y242.128
G1 X247.381Y242.192
G1 X247.603Y242.214
G1 X247.824Y242.192
G1 X248.031Y242.128
G1 X248.218Y242.026
G1 X248.381Y241.892
G1 X248.515Y241.729
G1 X248.616Y241.542
G1 X248.68Y241.336
G1 X248.703Y241.114
G0 X153.497Y241.114
; Layer C01 Pass 1 of 2
G1 X153.475Y240.892
G1 X153.411Y240.686
G1 X153.309Y240.499
G1 X153.175Y240.336
G1 X153.012Y240.202
G1 X152.825Y240.101
G1 X152.619Y240.036
G1 X152.397Y240.014
G1 X152.176Y240.036
G1 X151.969Y240.101
G1 X151.782Y240.202
G1 X151.619Y240.336
G1 X151.485Y240.499
G1 X151.384Y240.686
G1 X151.32Y240.892
G1 X151.297Y241.114
G1 X151.32Y241.336
G1 X151.384Y241.542
G1 X151.485Y241.729
G1 X151.619Y241.892
G1 X151.782Y242.026
G1 X151.969Y242.128
G1 X152.176Y242.192
G1 X152.397Y242.214
G1 X152.619Y242.192
G1 X152.825Y242.128
G1 X153.012Y242.026
G1 X153.175Y241.892
G1 X153.309Y241.729
G1 X153.411Y241.542
G1 X153.475Y241.336
G1 X153.497Y241.114
; Layer C01 Pass 2 of 2
G1 X153.475Y240.892
G1 X153.411Y240.686
G1 X153.309Y240.499
G1 X153.175Y240.336
G1 X153.012Y240.202
G1 X152.825Y240.101
G1 X152.619Y240.036
G1 X152.397Y240.014
G1 X152.176Y240.036
G1 X151.969Y240.101
G1 X151.782Y240.202
G1 X151.619Y240.336
G1 X151.485Y240.499
G1 X151.384Y240.686
G1 X151.32Y240.892
G1 X151.297Y241.114
G1 X151.32Y241.336
G1 X151.384Y241.542
G1 X151.485Y241.729
G1 X151.619Y241.892
G1 X151.782Y242.026
G1 X151.969Y242.128
G1 X152.176Y242.192
G1 X152.397Y242.214
G1 X152.619Y242.192
G1 X152.825Y242.128
G1 X153.012Y242.026
G1 X153.175Y241.892
G1 X153.309Y241.729
G1 X153.411Y241.542
G1 X153.475Y241.336
G1 X153.497Y241.114
G0 X112.601Y228.014
; Layer C01 Pass 1 of 2
G1 X112.579Y227.792
G1 X112.515Y227.586
G1 X112.413Y227.399
G1 X112.279Y227.236
G1 X112.116Y227.102
G1 X111.929Y227.001
G1 X111.723Y226.936
G1 X111.501Y226.914
G1 X111.28Y226.936
G1 X111.073Y227.001
G1 X110.886Y227.102
G1 X110.723Y227.236
G1 X110.589Y227.399
G1 X110.488Y227.586
G1 X110.424Y227.792
G1 X110.401Y228.014
G1 X110.424Y228.236
G1 X110.488Y228.442
G1 X110.589Y228.629
G1 X110.723Y228.792
G1 X110.886Y228.926
G1 X111.073Y229.028
G1 X111.28Y229.092
G1 X111.501Y229.114
G1 X111.723Y229.092
G1 X111.929Y229.028
G1 X112.116Y228.926
G1 X112.279Y228.792
G1 X112.413Y228.629
G1 X112.515Y228.442
G1 X112.579Y228.236
G1 X112.601Y228.014
; Layer C01 Pass 2 of 2
G1 X112.579Y227.792
G1 X112.515Y227.586
G1 X112.413Y227.399
G1 X112.279Y227.236
G1 X112.116Y227.102
G1 X111.929Y227.001
G1 X111.723Y226.936
G1 X111.501Y226.914
G1 X111.28Y226.936
G1 X111.073Y227.001
G1 X110.886Y227.102
G1 X110.723Y227.236
G1 X110.589Y227.399
G1 X110.488Y227.586
G1 X110.424Y227.792
G1 X110.401Y228.014
G1 X110.424Y228.236
G1 X110.488Y228.442
G1 X110.589Y228.629
G1 X110.723Y228.792
G1 X110.886Y228.926
G1 X111.073Y229.028
G1 X111.28Y229.092
G1 X111.501Y229.114
G1 X111.723Y229.092
G1 X111.929Y229.028
G1 X112.116Y228.926
G1 X112.279Y228.792
G1 X112.413Y228.629
G1 X112.515Y228.442
G1 X112.579Y228.236
G1 X112.601Y228.014
G0 X75.344Y235.551
; Layer C01 Pass 1 of 2
G1 X75.322Y235.329
G1 X75.257Y235.123
G1 X75.156Y234.936
G1 X75.022Y234.773
G1 X74.859Y234.639
G1 X74.672Y234.537
G1 X74.466Y234.473
G1 X74.244Y234.451
G1 X74.022Y234.473
G1 X73.816Y234.537
G1 X73.629Y234.639
G1 X73.466Y234.773
G1 X73.332Y234.936
G1 X73.23Y235.123
G1 X73.166Y235.329
G1 X73.144Y235.551
G1 X73.166Y235.772
G1 X73.23Y235.979
G1 X73.332Y236.166
G1 X73.466Y236.329
G1 X73.629Y236.463
G1 X73.816Y236.564
G1 X74.022Y236.628
G1 X74.244Y236.651
G1 X74.466Y236.628
G1 X74.672Y236.564
G1 X74.859Y236.463
G1 X75.022Y236.329
G1 X75.156Y236.166
G1 X75.257Y235.979
G1 X75.322Y235.772
G1 X75.344Y235.551
; Layer C01 Pass 2 of 2
G1 X75.322Y235.329
G1 X75.257Y235.123
G1 X75.156Y234.936
G1 X75.022Y234.773
G1 X74.859Y234.639
G1 X74.672Y234.537
G1 X74.466Y234.473
G1 X74.244Y234.451
G1 X74.022Y234.473
G1 X73.816Y234.537
G1 X73.629Y234.639
G1 X73.466Y234.773
G1 X73.332Y234.936
G1 X73.23Y235.123
G1 X73.166Y235.329
G1 X73.144Y235.551
G1 X73.166Y235.772
G1 X73.23Y235.979
G1 X73.332Y236.166
G1 X73.466Y236.329
G1 X73.629Y236.463
G1 X73.816Y236.564
G1 X74.022Y236.628
G1 X74.244Y236.651
G1 X74.466Y236.628
G1 X74.672Y236.564
G1 X74.859Y236.463
G1 X75.022Y236.329
G1 X75.156Y236.166
G1 X75.257Y235.979
G1 X75.322Y235.772
G1 X75.344Y235.551
G0 X70.713Y209.286
; Layer C01 Pass 1 of 2
G1 X70.69Y209.064
G1 X70.626Y208.858
G1 X70.525Y208.671
G1 X70.391Y208.508
G1 X70.228Y208.374
G1 X70.041Y208.272
G1 X69.834Y208.208
G1 X69.613Y208.186
G1 X69.391Y208.208
G1 X69.185Y208.272
G1 X68.998Y208.374
G1 X68.835Y208.508
G1 X68.701Y208.671
G1 X68.599Y208.858
G1 X68.535Y209.064
G1 X68.513Y209.286
G1 X68.535Y209.508
G1 X68.599Y209.714
G1 X68.701Y209.901
G1 X68.835Y210.064
G1 X68.998Y210.198
G1 X69.185Y210.299
G1 X69.391Y210.364
G1 X69.613Y210.386
G1 X69.834Y210.364
G1 X70.041Y210.299
G1 X70.228Y210.198
G1 X70.391Y210.064
G1 X70.525Y209.901
G1 X70.626Y209.714
G1 X70.69Y209.508
G1 X70.713Y209.286
; Layer C01 Pass 2 of 2
G1 X70.69Y209.064
G1 X70.626Y208.858
G1 X70.525Y208.671
G1 X70.391Y208.508
G1 X70.228Y208.374
G1 X70.041Y208.272
G1 X69.834Y208.208
G1 X69.613Y208.186
G1 X69.391Y208.208
G1 X69.185Y208.272
G1 X68.998Y208.374
G1 X68.835Y208.508
G1 X68.701Y208.671
G1 X68.599Y208.858
G1 X68.535Y209.064
G1 X68.513Y209.286
G1 X68.535Y209.508
G1 X68.599Y209.714
G1 X68.701Y209.901
G1 X68.835Y210.064
G1 X68.998Y210.198
G1 X69.185Y210.299
G1 X69.391Y210.364
G1 X69.613Y210.386
G1 X69.834Y210.364
G1 X70.041Y210.299
G1 X70.228Y210.198
G1 X70.391Y210.064
G1 X70.525Y209.901
G1 X70.626Y209.714
G1 X70.69Y209.508
G1 X70.713Y209.286
G0 X145.558Y196.089
; Layer C01 Pass 1 of 2
G1 X145.536Y195.867
G1 X145.472Y195.661
G1 X145.37Y195.474
G1 X145.236Y195.311
G1 X145.073Y195.177
G1 X144.886Y195.075
G1 X144.68Y195.011
G1 X144.458Y194.989
G1 X144.236Y195.011
G1 X144.03Y195.075
G1 X143.843Y195.177
G1 X143.68Y195.311
G1 X143.546Y195.474
G1 X143.445Y195.661
G1 X143.38Y195.867
G1 X143.358Y196.089
G1 X143.38Y196.31
G1 X143.445Y196.517
G1 X143.546Y196.704
G1 X143.68Y196.866
G1 X143.843Y197.001
G1 X144.03Y197.102
G1 X144.236Y197.166
G1 X144.458Y197.189
G1 X144.68Y197.166
G1 X144.886Y197.102
G1 X145.073Y197.001
G1 X145.236Y196.866
G1 X145.37Y196.704
G1 X145.472Y196.517
G1 X145.536Y196.31
G1 X145.558Y196.089
; Layer C01 Pass 2 of 2
G1 X145.536Y195.867
G1 X145.472Y195.661
G1 X145.37Y195.474
G1 X145.236Y195.311
G1 X145.073Y195.177
G1 X144.886Y195.075
G1 X144.68Y195.011
G1 X144.458Y194.989
G1 X144.236Y195.011
G1 X144.03Y195.075
G1 X143.843Y195.177
G1 X143.68Y195.311
G1 X143.546Y195.474
G1 X143.445Y195.661
G1 X143.38Y195.867
G1 X143.358Y196.089
G1 X143.38Y196.31
G1 X143.445Y196.517
G1 X143.546Y196.704
G1 X143.68Y196.866
G1 X143.843Y197.001
G1 X144.03Y197.102
G1 X144.236Y197.166
G1 X144.458Y197.189
G1 X144.68Y197.166
G1 X144.886Y197.102
G1 X145.073Y197.001
G1 X145.236Y196.866
G1 X145.37Y196.704
G1 X145.472Y196.517
G1 X145.536Y196.31
G1 X145.558Y196.089
; Cut @ 5 mm/sec, 90% power
M8
G0 X251.437Y162.384
; Layer C00 Pass 1 of 2
G1 X251.451Y161.167S900
G1 X251.432Y160.854
G1 X251.371Y160.552
G1 X251.268Y160.263
G1 X251.127Y159.993
G1 X250.95Y159.745
G1 X250.74Y159.522
G1 X250.498Y159.33
G1 X250.216Y159.165
G1 X232.25Y150.402
G1 X232.022Y150.306
G1 X231.786Y150.237
G1 X231.543Y150.194
G1 X231.285Y150.179
G1 X168.715
G1 X168.465Y150.193
G1 X168.22Y150.236
G1 X167.981Y150.305
G1 X167.75Y150.402
G1 X149.784Y159.165
G1 X149.511Y159.323
G1 X149.268Y159.515
G1 X149.055Y159.738
G1 X148.877Y159.987
G1 X148.734Y160.259
G1 X148.631Y160.548
G1 X148.568Y160.853
G1 X148.549Y161.167
G1 X148.563Y162.384
G1 X148.559Y162.538
G1 X148.542Y162.689
G1 X148.513Y162.837
G1 X148.472Y162.98
G1 X148.356Y163.252
G1 X148.198Y163.5
G1 X148.003Y163.719
G1 X147.772Y163.904
G1 X147.646Y163.983
G1 X147.512Y164.051
G1 X147.371Y164.108
G1 X147.224Y164.154
G1 X132.405Y168.125
G1 X132.194Y168.193
G1 X131.994Y168.28
G1 X131.807Y168.385
G1 X131.632Y168.507
G1 X131.472Y168.643
G1 X131.326Y168.794
G1 X131.196Y168.957
G1 X131.081Y169.131
G1 X130.984Y169.315
G1 X130.904Y169.508
G1 X130.842Y169.708
G1 X130.8Y169.915
G1 X130.778Y170.126
G1 Y170.341
G1 X130.796Y170.557
G1 X130.838Y170.775
G1 X136.175Y192.485
G1 X136.211Y192.669
G1 X136.227Y192.854
G1 Y193.039
G1 X136.204Y193.222
G1 X136.164Y193.401
G1 X136.106Y193.577
G1 X136.03Y193.746
G1 X135.936Y193.908
G1 X135.826Y194.059
G1 X135.701Y194.197
G1 X135.564Y194.321
G1 X135.416Y194.429
G1 X135.257Y194.523
G1 X135.089Y194.599
G1 X134.913Y194.658
G1 X134.73Y194.699
G1 X125.252Y196.371
G1 X125.037Y196.42
G1 X124.832Y196.489
G1 X124.637Y196.576
G1 X124.454Y196.681
G1 X124.283Y196.802
G1 X124.125Y196.938
G1 X123.981Y197.087
G1 X123.852Y197.249
G1 X123.738Y197.423
G1 X123.642Y197.606
G1 X123.562Y197.799
G1 X123.501Y197.999
G1 X123.459Y198.206
G1 X123.438Y198.419
G1 Y198.635
G1 X123.458Y198.855
G1 X123.583Y199.716
G1 X123.602Y199.897
G1 Y200.075
G1 X123.584Y200.25
G1 X123.55Y200.421
G1 X123.501Y200.586
G1 X123.436Y200.745
G1 X123.356Y200.897
G1 X123.263Y201.04
G1 X123.156Y201.173
G1 X123.038Y201.296
G1 X122.907Y201.408
G1 X122.766Y201.508
G1 X122.615Y201.594
G1 X122.454Y201.665
G1 X122.285Y201.721
G1 X122.107Y201.761
G1 X111.317Y203.664
G1 X111.137Y203.687
G1 X110.958Y203.693
G1 X110.783Y203.68
G1 X110.611Y203.651
G1 X110.444Y203.606
G1 X110.284Y203.546
G1 X110.13Y203.471
G1 X109.985Y203.381
G1 X109.848Y203.279
G1 X109.721Y203.164
G1 X109.606Y203.037
G1 X109.503Y202.899
G1 X109.412Y202.75
G1 X109.336Y202.591
G1 X109.275Y202.423
G1 X109.23Y202.247
G1 X109.054Y201.395
G1 X108.998Y201.181
G1 X108.923Y200.978
G1 X108.83Y200.786
G1 X108.72Y200.606
G1 X108.594Y200.438
G1 X108.454Y200.284
G1 X108.3Y200.145
G1 X108.134Y200.021
G1 X107.958Y199.912
G1 X107.771Y199.821
G1 X107.576Y199.747
G1 X107.374Y199.692
G1 X107.166Y199.657
G1 X106.953Y199.641
G1 X106.736Y199.647
G1 X106.518Y199.674
G1 X91.779Y202.273
G1 X91.598Y202.297
G1 X91.42Y202.302
G1 X91.244Y202.289
G1 X91.073Y202.26
G1 X90.906Y202.215
G1 X90.746Y202.155
G1 X90.592Y202.08
G1 X90.446Y201.99
G1 X90.31Y201.888
G1 X90.183Y201.773
G1 X90.068Y201.646
G1 X89.964Y201.508
G1 X89.874Y201.359
G1 X89.798Y201.2
G1 X89.737Y201.033
G1 X89.692Y200.856
G1 X89.516Y200.004
G1 X89.46Y199.79
G1 X89.385Y199.587
G1 X89.292Y199.395
G1 X89.182Y199.215
G1 X89.056Y199.047
G1 X88.916Y198.894
G1 X88.762Y198.754
G1 X88.596Y198.63
G1 X88.419Y198.522
G1 X88.233Y198.43
G1 X88.038Y198.357
G1 X87.836Y198.302
G1 X87.627Y198.266
G1 X87.414Y198.25
G1 X87.198Y198.256
G1 X86.979Y198.283
G1 X49.637Y204.868
G1 X49.418Y204.918
G1 X49.209Y204.989
G1 X49.01Y205.079
G1 X48.824Y205.187
G1 X48.651Y205.312
G1 X48.492Y205.452
G1 X48.347Y205.606
G1 X48.218Y205.773
G1 X48.105Y205.951
G1 X48.01Y206.14
G1 X47.933Y206.338
G1 X47.875Y206.543
G1 X47.837Y206.755
G1 X47.82Y206.972
G1 X47.825Y207.193
G1 X47.853Y207.416
G1 X54.436Y244.75
G1 X54.486Y244.969
G1 X54.557Y245.179
G1 X54.647Y245.377
G1 X54.755Y245.563
G1 X54.88Y245.736
G1 X55.02Y245.896
G1 X55.174Y246.04
G1 X55.341Y246.169
G1 X55.519Y246.282
G1 X55.708Y246.377
G1 X55.905Y246.455
G1 X56.111Y246.512
G1 X56.323Y246.55
G1 X56.54Y246.567
G1 X56.76Y246.562
G1 X56.984Y246.535
G1 X90.332Y240.654
G1 X90.509Y240.631
G1 X90.686Y240.626
G1 X90.862Y240.638
G1 X91.036Y240.667
G1 X91.206Y240.713
G1 X91.371Y240.776
G1 X91.53Y240.855
G1 X91.681Y240.95
G1 X91.822Y241.059
G1 X91.951Y241.181
G1 X92.067Y241.314
G1 X92.169Y241.457
G1 X92.257Y241.61
G1 X92.329Y241.771
G1 X92.386Y241.939
G1 X92.426Y242.113
G1 X95.984Y261.617
G1 X96.035Y261.835
G1 X96.107Y262.043
G1 X96.198Y262.24
G1 X96.306Y262.425
G1 X96.431Y262.597
G1 X96.571Y262.756
G1 X96.725Y262.899
G1 X96.892Y263.028
G1 X97.07Y263.139
G1 X97.259Y263.234
G1 X97.456Y263.31
G1 X97.661Y263.367
G1 X97.872Y263.405
G1 X98.088Y263.421
G1 X98.308Y263.416
G1 X98.53Y263.389
G1 X113.224Y260.798
G1 X113.404Y260.774
G1 X113.582Y260.769
G1 X113.758Y260.781
G1 X113.93Y260.81
G1 X114.096Y260.855
G1 X114.257Y260.916
G1 X114.41Y260.991
G1 X114.556Y261.08
G1 X114.693Y261.183
G1 X114.819Y261.298
G1 X114.935Y261.425
G1 X115.038Y261.563
G1 X115.128Y261.712
G1 X115.204Y261.87
G1 X115.265Y262.038
G1 X115.31Y262.214
G1 X115.486Y263.067
G1 X115.542Y263.28
G1 X115.617Y263.484
G1 X115.71Y263.676
G1 X115.82Y263.856
G1 X115.946Y264.023
G1 X116.086Y264.177
G1 X116.24Y264.317
G1 X116.406Y264.441
G1 X116.583Y264.549
G1 X116.769Y264.641
G1 X116.964Y264.714
G1 X117.166Y264.769
G1 X117.375Y264.805
G1 X117.587Y264.82
G1 X117.804Y264.815
G1 X118.023Y264.788
G1 X136.73Y261.488
G1 X136.942Y261.438
G1 X137.145Y261.369
G1 X137.337Y261.282
G1 X137.518Y261.177
G1 X137.687Y261.057
G1 X137.842Y260.923
G1 X137.985Y260.775
G1 X138.112Y260.614
G1 X138.224Y260.443
G1 X138.32Y260.261
G1 X138.399Y260.071
G1 X138.46Y259.873
G1 X138.502Y259.669
G1 X138.524Y259.459
G1 Y259.245
G1 X138.505Y259.008
G1 X138.38Y258.147
G1 X138.362Y257.966
G1 Y257.788
G1 X138.378Y257.613
G1 X138.412Y257.442
G1 X138.462Y257.277
G1 X138.527Y257.118
G1 X138.606Y256.966
G1 X138.7Y256.823
G1 X138.806Y256.69
G1 X138.925Y256.566
G1 X139.055Y256.455
G1 X139.196Y256.355
G1 X139.348Y256.269
G1 X139.508Y256.198
G1 X139.678Y256.142
G1 X139.855Y256.102
G1 X154.595Y253.503
G1 X154.81Y253.454
G1 X155.016Y253.385
G1 X155.21Y253.298
G1 X155.394Y253.193
G1 X155.565Y253.072
G1 X155.723Y252.936
G1 X155.867Y252.787
G1 X155.996Y252.625
G1 X156.11Y252.451
G1 X156.206Y252.267
G1 X156.286Y252.075
G1 X156.347Y251.874
G1 X156.388Y251.667
G1 X156.41Y251.455
G1 Y251.238
G1 X156.39Y251.019
G1 X156.264Y250.157
G1 X156.246Y249.976
G1 Y249.798
G1 X156.263Y249.623
G1 X156.297Y249.452
G1 X156.347Y249.287
G1 X156.412Y249.128
G1 X156.491Y248.977
G1 X156.585Y248.834
G1 X156.691Y248.7
G1 X156.81Y248.577
G1 X156.94Y248.465
G1 X157.081Y248.366
G1 X157.233Y248.28
G1 X157.393Y248.209
G1 X157.563Y248.152
G1 X157.74Y248.113
G1 X174.213Y245.208
G1 X174.372Y245.186
G1 X174.532Y245.18
G1 X225.468
G1 X225.628Y245.186
G1 X225.787Y245.208
G1 X242.26Y248.113
G1 X242.438Y248.153
G1 X242.607Y248.209
G1 X242.768Y248.28
G1 X242.919Y248.366
G1 X243.06Y248.465
G1 X243.191Y248.577
G1 X243.309Y248.7
G1 X243.416Y248.834
G1 X243.509Y248.977
G1 X243.588Y249.128
G1 X243.653Y249.287
G1 X243.703Y249.453
G1 X243.737Y249.623
G1 X243.754Y249.798
G1 Y249.977
G1 X243.736Y250.158
G1 X243.61Y251.019
G1 X243.589Y251.238
G1 Y251.455
G1 X243.612Y251.667
G1 X243.654Y251.874
G1 X243.715Y252.075
G1 X243.794Y252.267
G1 X243.891Y252.451
G1 X244.004Y252.624
G1 X244.133Y252.787
G1 X244.277Y252.936
G1 X244.435Y253.072
G1 X244.606Y253.193
G1 X244.79Y253.298
G1 X244.984Y253.385
G1 X245.19Y253.454
G1 X245.405Y253.503
G1 X260.145Y256.102
G1 X260.322Y256.142
G1 X260.491Y256.198
G1 X260.652Y256.269
G1 X260.803Y256.355
G1 X260.945Y256.455
G1 X261.075Y256.566
G1 X261.193Y256.69
G1 X261.3Y256.823
G1 X261.393Y256.966
G1 X261.472Y257.118
G1 X261.537Y257.277
G1 X261.587Y257.442
G1 X261.621Y257.613
G1 X261.638Y257.788
G1 Y257.966
G1 X261.62Y258.147
G1 X261.495Y259.008
G1 X261.475Y259.199
G1 X261.472Y259.388
G1 X261.485Y259.574
G1 X261.514Y259.757
G1 X261.558Y259.936
G1 X261.616Y260.11
G1 X261.688Y260.278
G1 X261.774Y260.439
G1 X261.873Y260.592
G1 X261.984Y260.737
G1 X262.108Y260.873
G1 X262.243Y260.998
G1 X262.389Y261.113
G1 X262.545Y261.215
G1 X262.711Y261.305
G1 X262.887Y261.381
G1 X263.085Y261.448
G1 X263.289Y261.493
G1 X281.977Y264.788
G1 X282.196Y264.815
G1 X282.412Y264.821
G1 X282.625Y264.805
G1 X282.834Y264.769
G1 X283.036Y264.714
G1 X283.231Y264.641
G1 X283.417Y264.549
G1 X283.594Y264.441
G1 X283.76Y264.317
G1 X283.914Y264.177
G1 X284.054Y264.023
G1 X284.18Y263.856
G1 X284.29Y263.676
G1 X284.383Y263.484
G1 X284.458Y263.28
G1 X284.514Y263.067
G1 X284.69Y262.214
G1 X284.735Y262.038
G1 X284.796Y261.87
G1 X284.872Y261.712
G1 X284.962Y261.563
G1 X285.066Y261.424
G1 X285.181Y261.297
G1 X285.308Y261.182
G1 X285.444Y261.08
G1 X285.59Y260.99
G1 X285.744Y260.915
G1 X285.904Y260.855
G1 X286.071Y260.81
G1 X286.243Y260.781
G1 X286.418Y260.769
G1 X286.597Y260.774
G1 X286.777Y260.798
G1 X301.47Y263.389
G1 X301.663Y263.414
G1 X301.855Y263.422
G1 X302.044Y263.414
G1 X302.231Y263.39
G1 X302.414Y263.349
G1 X302.591Y263.294
G1 X302.763Y263.225
G1 X302.929Y263.141
G1 X303.086Y263.043
G1 X303.235Y262.933
G1 X303.375Y262.81
G1 X303.504Y262.675
G1 X303.622Y262.528
G1 X303.728Y262.371
G1 X303.821Y262.203
G1 X303.9Y262.024
G1 X303.96Y261.821
G1 X304.016Y261.617
G1 X307.574Y242.113
G1 X307.614Y241.939
G1 X307.67Y241.771
G1 X307.742Y241.61
G1 X307.83Y241.457
G1 X307.932Y241.313
G1 X308.048Y241.18
G1 X308.177Y241.058
G1 X308.318Y240.949
G1 X308.47Y240.854
G1 X308.629Y240.776
G1 X308.794Y240.713
G1 X308.964Y240.667
G1 X309.138Y240.638
G1 X309.314Y240.626
G1 X309.491Y240.632
G1 X309.668Y240.654
G1 X343.016Y246.535
G1 X343.24Y246.562
G1 X343.46Y246.567
G1 X343.677Y246.55
G1 X343.889Y246.512
G1 X344.095Y246.454
G1 X344.292Y246.377
G1 X344.481Y246.282
G1 X344.66Y246.169
G1 X344.827Y246.04
G1 X344.981Y245.895
G1 X345.121Y245.736
G1 X345.245Y245.563
G1 X345.353Y245.377
G1 X345.443Y245.179
G1 X345.514Y244.969
G1 X345.564Y244.75
G1 X352.147Y207.416
G1 X352.175Y207.193
G1 X352.18Y206.972
G1 X352.163Y206.755
G1 X352.125Y206.543
G1 X352.067Y206.337
G1 X351.99Y206.14
G1 X351.895Y205.951
G1 X351.782Y205.772
G1 X351.653Y205.605
G1 X351.508Y205.451
G1 X351.349Y205.311
G1 X351.176Y205.187
G1 X350.99Y205.079
G1 X350.791Y204.989
G1 X350.582Y204.918
G1 X350.363Y204.868
G1 X313.021Y198.283
G1 X312.802Y198.256
G1 X312.586Y198.251
G1 X312.373Y198.266
G1 X312.165Y198.302
G1 X311.963Y198.357
G1 X311.768Y198.431
G1 X311.581Y198.522
G1 X311.404Y198.63
G1 X311.239Y198.754
G1 X311.085Y198.894
G1 X310.944Y199.048
G1 X310.818Y199.215
G1 X310.708Y199.395
G1 X310.615Y199.587
G1 X310.54Y199.79
G1 X310.484Y200.004
G1 X310.308Y200.856
G1 X310.263Y201.033
G1 X310.202Y201.2
G1 X310.126Y201.359
G1 X310.036Y201.508
G1 X309.932Y201.646
G1 X309.817Y201.773
G1 X309.69Y201.888
G1 X309.554Y201.99
G1 X309.408Y202.079
G1 X309.254Y202.154
G1 X309.094Y202.215
G1 X308.927Y202.26
G1 X308.756Y202.289
G1 X308.58Y202.302
G1 X308.402Y202.297
G1 X308.221Y202.273
G1 X293.482Y199.674
G1 X293.264Y199.647
G1 X293.047Y199.641
G1 X292.834Y199.657
G1 X292.626Y199.693
G1 X292.424Y199.748
G1 X292.229Y199.821
G1 X292.043Y199.913
G1 X291.866Y200.021
G1 X291.7Y200.145
G1 X291.546Y200.285
G1 X291.406Y200.439
G1 X291.28Y200.606
G1 X291.17Y200.786
G1 X291.077Y200.978
G1 X291.002Y201.182
G1 X290.946Y201.395
G1 X290.77Y202.247
G1 X290.725Y202.423
G1 X290.664Y202.591
G1 X290.588Y202.75
G1 X290.497Y202.898
G1 X290.394Y203.037
G1 X290.278Y203.164
G1 X290.152Y203.279
G1 X290.015Y203.381
G1 X289.87Y203.47
G1 X289.716Y203.545
G1 X289.556Y203.606
G1 X289.389Y203.651
G1 X289.217Y203.68
G1 X289.042Y203.692
G1 X288.863Y203.687
G1 X288.683Y203.664
G1 X277.893Y201.761
G1 X277.715Y201.721
G1 X277.546Y201.665
G1 X277.385Y201.594
G1 X277.234Y201.508
G1 X277.092Y201.408
G1 X276.962Y201.296
G1 X276.844Y201.173
G1 X276.737Y201.04
G1 X276.644Y200.897
G1 X276.564Y200.745
G1 X276.499Y200.586
G1 X276.45Y200.421
G1 X276.416Y200.25
G1 X276.398Y200.075
G1 Y199.897
G1 X276.417Y199.716
G1 X276.542Y198.855
G1 X276.563Y198.635
G1 Y198.419
G1 X276.54Y198.207
G1 X276.499Y198
G1 X276.438Y197.799
G1 X276.358Y197.607
G1 X276.261Y197.423
G1 X276.148Y197.25
G1 X276.019Y197.087
G1 X275.875Y196.938
G1 X275.717Y196.802
G1 X275.546Y196.681
G1 X275.363Y196.576
G1 X275.168Y196.489
G1 X274.963Y196.42
G1 X274.748Y196.371
G1 X265.27Y194.699
G1 X265.087Y194.658
G1 X264.911Y194.599
G1 X264.743Y194.523
G1 X264.584Y194.43
G1 X264.436Y194.321
G1 X264.298Y194.197
G1 X264.174Y194.059
G1 X264.064Y193.908
G1 X263.97Y193.746
G1 X263.894Y193.577
G1 X263.836Y193.402
G1 X263.796Y193.222
G1 X263.775Y193.039
G1 X263.772Y192.854
G1 X263.789Y192.669
G1 X263.825Y192.485
G1 X269.162Y170.775
G1 X269.204Y170.557
G1 X269.224Y170.34
G1 Y170.126
G1 X269.2Y169.915
G1 X269.158Y169.708
G1 X269.096Y169.508
G1 X269.016Y169.315
G1 X268.919Y169.131
G1 X268.804Y168.957
G1 X268.674Y168.794
G1 X268.528Y168.643
G1 X268.368Y168.507
G1 X268.193Y168.385
G1 X268.006Y168.28
G1 X267.806Y168.193
G1 X267.595Y168.125
G1 X252.776Y164.154
G1 X252.629Y164.109
G1 X252.488Y164.051
G1 X252.354Y163.983
G1 X252.227Y163.905
G1 X251.997Y163.719
G1 X251.802Y163.5
G1 X251.644Y163.252
G1 X251.528Y162.98
G1 X251.487Y162.837
G1 X251.458Y162.689
G1 X251.441Y162.538
G1 X251.437Y162.384
; Layer C00 Pass 2 of 2
G1 X251.451Y161.167
G1 X251.432Y160.854
G1 X251.371Y160.552
G1 X251.268Y160.263
G1 X251.127Y159.993
G1 X250.95Y159.745
G1 X250.74Y159.522
G1 X250.498Y159.33
G1 X250.216Y159.165
G1 X232.25Y150.402
G1 X232.022Y150.306
G1 X231.786Y150.237
G1 X231.543Y150.194
G1 X231.285Y150.179
G1 X168.715
G1 X168.465Y150.193
G1 X168.22Y150.236
G1 X167.981Y150.305
G1 X167.75Y150.402
G1 X149.784Y159.165
G1 X149.511Y159.323
G1 X149.268Y159.515
G1 X149.055Y159.738
G1 X148.877Y159.987
G1 X148.734Y160.259
G1 X148.631Y160.548
G1 X148.568Y160.853
G1 X148.549Y161.167
G1 X148.563Y162.384
G1 X148.559Y162.538
G1 X148.542Y162.689
G1 X148.513Y162.837
G1 X148.472Y162.98
G1 X148.356Y163.252
G1 X148.198Y163.5
G1 X148.003Y163.719
G1 X147.772Y163.904
G1 X147.646Y163.983
G1 X147.512Y164.051
G1 X147.371Y164.108
G1 X147.224Y164.154
G1 X132.405Y168.125
G1 X132.194Y168.193
G1 X131.994Y168.28
G1 X131.807Y168.385
G1 X131.632Y168.507
G1 X131.472Y168.643
G1 X131.326Y168.794
G1 X131.196Y168.957
G1 X131.081Y169.131
G1 X130.984Y169.315
G1 X130.904Y169.508
G1 X130.842Y169.708
G1 X130.8Y169.915
G1 X130.778Y170.126
G1 Y170.341
G1 X130.796Y170.557
G1 X130.838Y170.775
G1 X136.175Y192.485
G1 X136.211Y192.669
G1 X136.227Y192.854
G1 Y193.039
G1 X136.204Y193.222
G1 X136.164Y193.401
G1 X136.106Y193.577
G1 X136.03Y193.746
G1 X135.936Y193.908
G1 X135.826Y194.059
G1 X135.701Y194.197
G1 X135.564Y194.321
G1 X135.416Y194.429
G1 X135.257Y194.523
G1 X135.089Y194.599
G1 X134.913Y194.658
G1 X134.73Y194.699
G1 X125.252Y196.371
G1 X125.037Y196.42
G1 X124.832Y196.489
G1 X124.637Y196.576
G1 X124.454Y196.681
G1 X124.283Y196.802
G1 X124.125Y196.938
G1 X123.981Y197.087
G1 X123.852Y197.249
G1 X123.738Y197.423
G1 X123.642Y197.606
G1 X123.562Y197.799
G1 X123.501Y197.999
G1 X123.459Y198.206
G1 X123.438Y198.419
G1 Y198.635
G1 X123.458Y198.855
G1 X123.583Y199.716
G1 X123.602Y199.897
G1 Y200.075
G1 X123.584Y200.25
G1 X123.55Y200.421
G1 X123.501Y200.586
G1 X123.436Y200.745
G1 X123.356Y200.897
G1 X123.263Y201.04
G1 X123.156Y201.173
G1 X123.038Y201.296
G1 X122.907Y201.408
G1 X122.766Y201.508
G1 X122.615Y201.594
G1 X122.454Y201.665
G1 X122.285Y201.721
G1 X122.107Y201.761
G1 X111.317Y203.664
G1 X111.137Y203.687
G1 X110.958Y203.693
G1 X110.783Y203.68
G1 X110.611Y203.651
G1 X110.444Y203.606
G1 X110.284Y203.546
G1 X110.13Y203.471
G1 X109.985Y203.381
G1 X109.848Y203.279
G1 X109.721Y203.164
G1 X109.606Y203.037
G1 X109.503Y202.899
G1 X109.412Y202.75
G1 X109.336Y202.591
G1 X109.275Y202.423
G1 X109.23Y202.247
G1 X109.054Y201.395
G1 X108.998Y201.181
G1 X108.923Y200.978
G1 X108.83Y200.786
G1 X108.72Y200.606
G1 X108.594Y200.438
G1 X108.454Y200.284
G1 X108.3Y200.145
G1 X108.134Y200.021
G1 X107.958Y199.912
G1 X107.771Y199.821
G1 X107.576Y199.747
G1 X107.374Y199.692
G1 X107.166Y199.657
G1 X106.953Y199.641
G1 X106.736Y199.647
G1 X106.518Y199.674
G1 X91.779Y202.273
G1 X91.598Y202.297
G1 X91.42Y202.302
G1 X91.244Y202.289
G1 X91.073Y202.26
G1 X90.906Y202.215
G1 X90.746Y202.155
G1 X90.592Y202.08
G1 X90.446Y201.99
G1 X90.31Y201.888
G1 X90.183Y201.773
G1 X90.068Y201.646
G1 X89.964Y201.508
G1 X89.874Y201.359
G1 X89.798Y201.2
G1 X89.737Y201.033
G1 X89.692Y200.856
G1 X89.516Y200.004
G1 X89.46Y199.79
G1 X89.385Y199.587
G1 X89.292Y199.395
G1 X89.182Y199.215
G1 X89.056Y199.047
G1 X88.916Y198.894
G1 X88.762Y198.754
G1 X88.596Y198.63
G1 X88.419Y198.522
G1 X88.233Y198.43
G1 X88.038Y198.357
G1 X87.836Y198.302
G1 X87.627Y198.266
G1 X87.414Y198.25
G1 X87.198Y198.256
G1 X86.979Y198.283
G1 X49.637Y204.868
G1 X49.418Y204.918
G1 X49.209Y204.989
G1 X49.01Y205.079
G1 X48.824Y205.187
G1 X48.651Y205.312
G1 X48.492Y205.452
G1 X48.347Y205.606
G1 X48.218Y205.773
G1 X48.105Y205.951
G1 X48.01Y206.14
G1 X47.933Y206.338
G1 X47.875Y206.543
G1 X47.837Y206.755
G1 X47.82Y206.972
G1 X47.825Y207.193
G1 X47.853Y207.416
G1 X54.436Y244.75
G1 X54.486Y244.969
G1 X54.557Y245.179
G1 X54.647Y245.377
G1 X54.755Y245.563
G1 X54.88Y245.736
G1 X55.02Y245.896
G1 X55.174Y246.04
G1 X55.341Y246.169
G1 X55.519Y246.282
G1 X55.708Y246.377
G1 X55.905Y246.455
G1 X56.111Y246.512
G1 X56.323Y246.55
G1 X56.54Y246.567
G1 X56.76Y246.562
G1 X56.984Y246.535
G1 X90.332Y240.654
G1 X90.509Y240.631
G1 X90.686Y240.626
G1 X90.862Y240.638
G1 X91.036Y240.667
G1 X91.206Y240.713
G1 X91.371Y240.776
G1 X91.53Y240.855
G1 X91.681Y240.95
G1 X91.822Y241.059
G1 X91.951Y241.181
G1 X92.067Y241.314
G1 X92.169Y241.457
G1 X92.257Y241.61
G1 X92.329Y241.771
G1 X92.386Y241.939
G1 X92.426Y242.113
G1 X95.984Y261.617
G1 X96.035Y261.835
G1 X96.107Y262.043
G1 X96.198Y262.24
G1 X96.306Y262.425
G1 X96.431Y262.597
G1 X96.571Y262.756
G1 X96.725Y262.899
G1 X96.892Y263.028
G1 X97.07Y263.139
G1 X97.259Y263.234
G1 X97.456Y263.31
G1 X97.661Y263.367
G1 X97.872Y263.405
G1 X98.088Y263.421
G1 X98.308Y263.416
G1 X98.53Y263.389
G1 X113.224Y260.798
G1 X113.404Y260.774
G1 X113.582Y260.769
G1 X113.758Y260.781
G1 X113.93Y260.81
G1 X114.096Y260.855
G1 X114.257Y260.916
G1 X114.41Y260.991
G1 X114.556Y261.08
G1 X114.693Y261.183
G1 X114.819Y261.298
G1 X114.935Y261.425
G1 X115.038Y261.563
G1 X115.128Y261.712
G1 X115.204Y261.87
G1 X115.265Y262.038
G1 X115.31Y262.214
G1 X115.486Y263.067
G1 X115.542Y263.28
G1 X115.617Y263.484
G1 X115.71Y263.676
G1 X115.82Y263.856
G1 X115.946Y264.023
G1 X116.086Y264.177
G1 X116.24Y264.317
G1 X116.406Y264.441
G1 X116.583Y264.549
G1 X116.769Y264.641
G1 X116.964Y264.714
G1 X117.166Y264.769
G1 X117.375Y264.805
G1 X117.587Y264.82
G1 X117.804Y264.815
G1 X118.023Y264.788
G1 X136.73Y261.488
G1 X136.942Y261.438
G1 X137.145Y261.369
G1 X137.337Y261.282
G1 X137.518Y261.177
G1 X137.687Y261.057
G1 X137.842Y260.923
G1 X137.985Y260.775
G1 X138.112Y260.614
G1 X138.224Y260.443
G1 X138.32Y260.261
G1 X138.399Y260.071
G1 X138.46Y259.873
G1 X138.502Y259.669
G1 X138.524Y259.459
G1 Y259.245
G1 X138.505Y259.008
G1 X138.38Y258.147
G1 X138.362Y257.966
G1 Y257.788
G1 X138.378Y257.613
G1 X138.412Y257.442
G1 X138.462Y257.277
G1 X138.527Y257.118
G1 X138.606Y256.966
G1 X138.7Y256.823
G1 X138.806Y256.69
G1 X138.925Y256.566
G1 X139.055Y256.455
G1 X139.196Y256.355
G1 X139.348Y256.269
G1 X139.508Y256.198
G1 X139.678Y256.142
G1 X139.855Y256.102
G1 X154.595Y253.503
G1 X154.81Y253.454
G1 X155.016Y253.385
G1 X155.21Y253.298
G1 X155.394Y253.193
G1 X155.565Y253.072
G1 X155.723Y252.936
G1 X155.867Y252.787
G1 X155.996Y252.625
G1 X156.11Y252.451
G1 X156.206Y252.267
G1 X156.286Y252.075
G1 X156.347Y251.874
G1 X156.388Y251.667
G1 X156.41Y251.455
G1 Y251.238
G1 X156.39Y251.019
G1 X156.264Y250.157
G1 X156.246Y249.976
G1 Y249.798
G1 X156.263Y249.623
G1 X156.297Y249.452
G1 X156.347Y249.287
G1 X156.412Y249.128
G1 X156.491Y248.977
G1 X156.585Y248.834
G1 X156.691Y248.7
G1 X156.81Y248.577
G1 X156.94Y248.465
G1 X157.081Y248.366
G1 X157.233Y248.28
G1 X157.393Y248.209
G1 X157.563Y248.152
G1 X157.74Y248.113
G1 X174.213Y245.208
G1 X174.372Y245.186
G1 X174.532Y245.18
G1 X225.468
G1 X225.628Y245.186
G1 X225.787Y245.208
G1 X242.26Y248.113
G1 X242.438Y248.153
G1 X242.607Y248.209
G1 X242.768Y248.28
G1 X242.919Y248.366
G1 X243.06Y248.465
G1 X243.191Y248.577
G1 X243.309Y248.7
G1 X243.416Y248.834
G1 X243.509Y248.977
G1 X243.588Y249.128
G1 X243.653Y249.287
G1 X243.703Y249.453
G1 X243.737Y249.623
G1 X243.754Y249.798
G1 Y249.977
G1 X243.736Y250.158
G1 X243.61Y251.019
G1 X243.589Y251.238
G1 Y251.455
G1 X243.612Y251.667
G1 X243.654Y251.874
G1 X243.715Y252.075
G1 X243.794Y252.267
G1 X243.891Y252.451
G1 X244.004Y252.624
G1 X244.133Y252.787
G1 X244.277Y252.936
G1 X244.435Y253.072
G1 X244.606Y253.193
G1 X244.79Y253.298
G1 X244.984Y253.385
G1 X245.19Y253.454
G1 X245.405Y253.503
G1 X260.145Y256.102
G1 X260.322Y256.142
G1 X260.491Y256.198
G1 X260.652Y256.269
G1 X260.803Y256.355
G1 X260.945Y256.455
G1 X261.075Y256.566
G1 X261.193Y256.69
G1 X261.3Y256.823
G1 X261.393Y256.966
G1 X261.472Y257.118
G1 X261.537Y257.277
G1 X261.587Y257.442
G1 X261.621Y257.613
G1 X261.638Y257.788
G1 Y257.966
G1 X261.62Y258.147
G1 X261.495Y259.008
G1 X261.475Y259.199
G1 X261.472Y259.388
G1 X261.485Y259.574
G1 X261.514Y259.757
G1 X261.558Y259.936
G1 X261.616Y260.11
G1 X261.688Y260.278
G1 X261.774Y260.439
G1 X261.873Y260.592
G1 X261.984Y260.737
G1 X262.108Y260.873
G1 X262.243Y260.998
G1 X262.389Y261.113
G1 X262.545Y261.215
G1 X262.711Y261.305
G1 X262.887Y261.381
G1 X263.085Y261.448
G1 X263.289Y261.493
G1 X281.977Y264.788
G1 X282.196Y264.815
G1 X282.412Y264.821
G1 X282.625Y264.805
G1 X282.834Y264.769
G1 X283.036Y264.714
G1 X283.231Y264.641
G1 X283.417Y264.549
G1 X283.594Y264.441
G1 X283.76Y264.317
G1 X283.914Y264.177
G1 X284.054Y264.023
G1 X284.18Y263.856
G1 X284.29Y263.676
G1 X284.383Y263.484
G1 X284.458Y263.28
G1 X284.514Y263.067
G1 X284.69Y262.214
G1 X284.735Y262.038
G1 X284.796Y261.87
G1 X284.872Y261.712
G1 X284.962Y261.563
G1 X285.066Y261.424
G1 X285.181Y261.297
G1 X285.308Y261.182
G1 X285.444Y261.08
G1 X285.59Y260.99
G1 X285.744Y260.915
G1 X285.904Y260.855
G1 X286.071Y260.81
G1 X286.243Y260.781
G1 X286.418Y260.769
G1 X286.597Y260.774
G1 X286.777Y260.798
G1 X301.47Y263.389
G1 X301.663Y263.414
G1 X301.855Y263.422
G1 X302.044Y263.414
G1 X302.231Y263.39
G1 X302.414Y263.349
G1 X302.591Y263.294
G1 X302.763Y263.225
G1 X302.929Y263.141
G1 X303.086Y263.043
G1 X303.235Y262.933
G1 X303.375Y262.81
G1 X303.504Y262.675
G1 X303.622Y262.528
G1 X303.728Y262.371
G1 X303.821Y262.203
G1 X303.9Y262.024
G1 X303.96Y261.821
G1 X304.016Y261.617
G1 X307.574Y242.113
G1 X307.614Y241.939
G1 X307.67Y241.771
G1 X307.742Y241.61
G1 X307.83Y241.457
G1 X307.932Y241.313
G1 X308.048Y241.18
G1 X308.177Y241.058
G1 X308.318Y240.949
G1 X308.47Y240.854
G1 X308.629Y240.776
G1 X308.794Y240.713
G1 X308.964Y240.667
G1 X309.138Y240.638
G1 X309.314Y240.626
G1 X309.491Y240.632
G1 X309.668Y240.654
G1 X343.016Y246.535
G1 X343.24Y246.562
G1 X343.46Y246.567
G1 X343.677Y246.55
G1 X343.889Y246.512
G1 X344.095Y246.454
G1 X344.292Y246.377
G1 X344.481Y246.282
G1 X344.66Y246.169
G1 X344.827Y246.04
G1 X344.981Y245.895
G1 X345.121Y245.736
G1 X345.245Y245.563
G1 X345.353Y245.377
G1 X345.443Y245.179
G1 X345.514Y244.969
G1 X345.564Y244.75
G1 X352.147Y207.416
G1 X352.175Y207.193
G1 X352.18Y206.972
G1 X352.163Y206.755
G1 X352.125Y206.543
G1 X352.067Y206.337
G1 X351.99Y206.14
G1 X351.895Y205.951
G1 X351.782Y205.772
G1 X351.653Y205.605
G1 X351.508Y205.451
G1 X351.349Y205.311
G1 X351.176Y205.187
G1 X350.99Y205.079
G1 X350.791Y204.989
G1 X350.582Y204.918
G1 X350.363Y204.868
G1 X313.021Y198.283
G1 X312.802Y198.256
G1 X312.586Y198.251
G1 X312.373Y198.266
G1 X312.165Y198.302
G1 X311.963Y198.357
G1 X311.768Y198.431
G1 X311.581Y198.522
G1 X311.404Y198.63
G1 X311.239Y198.754
G1 X311.085Y198.894
G1 X310.944Y199.048
G1 X310.818Y199.215
G1 X310.708Y199.395
G1 X310.615Y199.587
G1 X310.54Y199.79
G1 X310.484Y200.004
G1 X310.308Y200.856
G1 X310.263Y201.033
G1 X310.202Y201.2
G1 X310.126Y201.359
G1 X310.036Y201.508
G1 X309.932Y201.646
G1 X309.817Y201.773
G1 X309.69Y201.888
G1 X309.554Y201.99
G1 X309.408Y202.079
G1 X309.254Y202.154
G1 X309.094Y202.215
G1 X308.927Y202.26
G1 X308.756Y202.289
G1 X308.58Y202.302
G1 X308.402Y202.297
G1 X308.221Y202.273
G1 X293.482Y199.674
G1 X293.264Y199.647
G1 X293.047Y199.641
G1 X292.834Y199.657
G1 X292.626Y199.693
G1 X292.424Y199.748
G1 X292.229Y199.821
G1 X292.043Y199.913
G1 X291.866Y200.021
G1 X291.7Y200.145
G1 X291.546Y200.285
G1 X291.406Y200.439
G1 X291.28Y200.606
G1 X291.17Y200.786
G1 X291.077Y200.978
G1 X291.002Y201.182
G1 X290.946Y201.395
G1 X290.77Y202.247
G1 X290.725Y202.423
G1 X290.664Y202.591
G1 X290.588Y202.75
G1 X290.497Y202.898
G1 X290.394Y203.037
G1 X290.278Y203.164
G1 X290.152Y203.279
G1 X290.015Y203.381
G1 X289.87Y203.47
G1 X289.716Y203.545
G1 X289.556Y203.606
G1 X289.389Y203.651
G1 X289.217Y203.68
G1 X289.042Y203.692
G1 X288.863Y203.687
G1 X288.683Y203.664
G1 X277.893Y201.761
G1 X277.715Y201.721
G1 X277.546Y201.665
G1 X277.385Y201.594
G1 X277.234Y201.508
G1 X277.092Y201.408
G1 X276.962Y201.296
G1 X276.844Y201.173
G1 X276.737Y201.04
G1 X276.644Y200.897
G1 X276.564Y200.745
G1 X276.499Y200.586
G1 X276.45Y200.421
G1 X276.416Y200.25
G1 X276.398Y200.075
G1 Y199.897
G1 X276.417Y199.716
G1 X276.542Y198.855
G1 X276.563Y198.635
G1 Y198.419
G1 X276.54Y198.207
G1 X276.499Y198
G1 X276.438Y197.799
G1 X276.358Y197.607
G1 X276.261Y197.423
G1 X276.148Y197.25
G1 X276.019Y197.087
G1 X275.875Y196.938
G1 X275.717Y196.802
G1 X275.546Y196.681
G1 X275.363Y196.576
G1 X275.168Y196.489
G1 X274.963Y196.42
G1 X274.748Y196.371
G1 X265.27Y194.699
G1 X265.087Y194.658
G1 X264.911Y194.599
G1 X264.743Y194.523
G1 X264.584Y194.43
G1 X264.436Y194.321
G1 X264.298Y194.197
G1 X264.174Y194.059
G1 X264.064Y193.908
G1 X263.97Y193.746
G1 X263.894Y193.577
G1 X263.836Y193.402
G1 X263.796Y193.222
G1 X263.775Y193.039
G1 X263.772Y192.854
G1 X263.789Y192.669
G1 X263.825Y192.485
G1 X269.162Y170.775
G1 X269.204Y170.557
G1 X269.224Y170.34
G1 Y170.126
G1 X269.2Y169.915
G1 X269.158Y169.708
G1 X269.096Y169.508
G1 X269.016Y169.315
G1 X268.919Y169.131
G1 X268.804Y168.957
G1 X268.674Y168.794
G1 X268.528Y168.643
G1 X268.368Y168.507
G1 X268.193Y168.385
G1 X268.006Y168.28
G1 X267.806Y168.193
G1 X267.595Y168.125
G1 X252.776Y164.154
G1 X252.629Y164.109
G1 X252.488Y164.051
G1 X252.354Y163.983
G1 X252.227Y163.905
G1 X251.997Y163.719
G1 X251.802Y163.5
G1 X251.644Y163.252
G1 X251.528Y162.98
G1 X251.487Y162.837
G1 X251.458Y162.689
G1 X251.441Y162.538
G1 X251.437Y162.384
M9
G1 S0
M5
G90
; return to user-defined finish pos
G0 X0Y0
M2
