; LightBurn 1.7.08
; GRBL device profile, absolute coords
; Bounds: X48.02 Y150.38 to X351.98 Y264.62
G00 G17 G40 G21 G54
G90
M4
; Cut @ 12 mm/sec, 90% power
M8
G0 X159.998Y174.354
; Layer C00 Pass 1 of 2
G1 X171.682Y168.656S900F720
G1 X165.983Y156.971
G1 X154.299Y162.67
G1 X159.998Y174.354
; Layer C00 Pass 2 of 2
G1 X171.682Y168.656
G1 X165.983Y156.971
G1 X154.299Y162.67
G1 X159.998Y174.354
G0 X152.524Y181.504
; Layer C00 Pass 1 of 2
G1 X139.967Y184.868
G1 X136.602Y172.311
G1 X149.16Y168.947
G1 X152.524Y181.504
; Layer C00 Pass 2 of 2
G1 X139.967Y184.868
G1 X136.602Y172.311
G1 X149.16Y168.947
G1 X152.524Y181.504
G0 X146.608Y196.089
; Layer C00 Pass 1 of 2
G1 X146.564Y195.655
G1 X146.439Y195.252
G1 X146.241Y194.887
G1 X145.978Y194.568
G1 X145.66Y194.306
G1 X145.295Y194.108
G1 X144.891Y193.982
G1 X144.458Y193.939
G1 X144.025Y193.982
G1 X143.621Y194.108
G1 X143.256Y194.306
G1 X142.938Y194.568
G1 X142.675Y194.887
G1 X142.477Y195.252
G1 X142.352Y195.655
G1 X142.308Y196.089
G1 X142.352Y196.522
G1 X142.477Y196.926
G1 X142.675Y197.291
G1 X142.938Y197.609
G1 X143.256Y197.871
G1 X143.621Y198.07
G1 X144.025Y198.195
G1 X144.458Y198.239
G1 X144.891Y198.195
G1 X145.295Y198.07
G1 X145.66Y197.871
G1 X145.978Y197.609
G1 X146.241Y197.291
G1 X146.439Y196.926
G1 X146.564Y196.522
G1 X146.608Y196.089
; Layer C00 Pass 2 of 2
G1 X146.564Y195.655
G1 X146.439Y195.252
G1 X146.241Y194.887
G1 X145.978Y194.568
G1 X145.66Y194.306
G1 X145.295Y194.108
G1 X144.891Y193.982
G1 X144.458Y193.939
G1 X144.025Y193.982
G1 X143.621Y194.108
G1 X143.256Y194.306
G1 X142.938Y194.568
G1 X142.675Y194.887
G1 X142.477Y195.252
G1 X142.352Y195.655
G1 X142.308Y196.089
G1 X142.352Y196.522
G1 X142.477Y196.926
G1 X142.675Y197.291
G1 X142.938Y197.609
G1 X143.256Y197.871
G1 X143.621Y198.07
G1 X144.025Y198.195
G1 X144.458Y198.239
G1 X144.891Y198.195
G1 X145.295Y198.07
G1 X145.66Y197.871
G1 X145.978Y197.609
G1 X146.241Y197.291
G1 X146.439Y196.926
G1 X146.564Y196.522
G1 X146.608Y196.089
G0 X162.03Y203.459
; Layer C00 Pass 1 of 2
G1 X149.227Y205.717
G1 X146.97Y192.914
G1 X159.773Y190.657
G1 X162.03Y203.459
; Layer C00 Pass 2 of 2
G1 X149.227Y205.717
G1 X146.97Y192.914
G1 X159.773Y190.657
G1 X162.03Y203.459
G0 X165.338Y222.22
; Layer C00 Pass 1 of 2
G1 X152.535Y224.477
G1 X150.278Y211.675
G1 X163.081Y209.417
G1 X165.338Y222.22
; Layer C00 Pass 2 of 2
G1 X152.535Y224.477
G1 X150.278Y211.675
G1 X163.081Y209.417
G1 X165.338Y222.22
G0 X183.187Y221.99
; Layer C00 Pass 1 of 2
G1 X183.143Y221.557
G1 X183.018Y221.154
G1 X182.819Y220.788
G1 X182.557Y220.47
G1 X182.239Y220.208
G1 X181.873Y220.009
G1 X181.47Y219.884
G1 X181.037Y219.84
G1 X180.603Y219.884
G1 X180.2Y220.009
G1 X179.835Y220.208
G1 X179.516Y220.47
G1 X179.254Y220.788
G1 X179.056Y221.154
G1 X178.93Y221.557
G1 X178.887Y221.99
G1 X178.93Y222.424
G1 X179.056Y222.827
G1 X179.254Y223.192
G1 X179.516Y223.511
G1 X179.835Y223.773
G1 X180.2Y223.971
G1 X180.603Y224.097
G1 X181.037Y224.14
G1 X181.47Y224.097
G1 X181.873Y223.971
G1 X182.239Y223.773
G1 X182.557Y223.511
G1 X182.819Y223.192
G1 X183.018Y222.827
G1 X183.143Y222.424
G1 X183.187Y221.99
; Layer C00 Pass 2 of 2
G1 X183.143Y221.557
G1 X183.018Y221.154
G1 X182.819Y220.788
G1 X182.557Y220.47
G1 X182.239Y220.208
G1 X181.873Y220.009
G1 X181.47Y219.884
G1 X181.037Y219.84
G1 X180.603Y219.884
G1 X180.2Y220.009
G1 X179.835Y220.208
G1 X179.516Y220.47
G1 X179.254Y220.788
G1 X179.056Y221.154
G1 X178.93Y221.557
G1 X178.887Y221.99
G1 X178.93Y222.424
G1 X179.056Y222.827
G1 X179.254Y223.192
G1 X179.516Y223.511
G1 X179.835Y223.773
G1 X180.2Y223.971
G1 X180.603Y224.097
G1 X181.037Y224.14
G1 X181.47Y224.097
G1 X181.873Y223.971
G1 X182.239Y223.773
G1 X182.557Y223.511
G1 X182.819Y223.192
G1 X183.018Y222.827
G1 X183.143Y222.424
G1 X183.187Y221.99
G0 X168.646Y240.98
; Layer C00 Pass 1 of 2
G1 X155.843Y243.238
G1 X153.586Y230.435
G1 X166.389Y228.178
G1 X168.646Y240.98
; Layer C00 Pass 2 of 2
G1 X155.843Y243.238
G1 X153.586Y230.435
G1 X166.389Y228.178
G1 X168.646Y240.98
G0 X154.547Y241.114
; Layer C00 Pass 1 of 2
G1 X154.504Y240.681
G1 X154.378Y240.277
G1 X154.18Y239.912
G1 X153.918Y239.594
G1 X153.599Y239.331
G1 X153.234Y239.133
G1 X152.831Y239.008
G1 X152.397Y238.964
G1 X151.964Y239.008
G1 X151.56Y239.133
G1 X151.195Y239.331
G1 X150.877Y239.594
G1 X150.615Y239.912
G1 X150.416Y240.277
G1 X150.291Y240.681
G1 X150.247Y241.114
G1 X150.291Y241.547
G1 X150.416Y241.951
G1 X150.615Y242.316
G1 X150.877Y242.634
G1 X151.195Y242.897
G1 X151.56Y243.095
G1 X151.964Y243.22
G1 X152.397Y243.264
G1 X152.831Y243.22
G1 X153.234Y243.095
G1 X153.599Y242.897
G1 X153.918Y242.634
G1 X154.18Y242.316
G1 X154.378Y241.951
G1 X154.504Y241.547
G1 X154.547Y241.114
; Layer C00 Pass 2 of 2
G1 X154.504Y240.681
G1 X154.378Y240.277
G1 X154.18Y239.912
G1 X153.918Y239.594
G1 X153.599Y239.331
G1 X153.234Y239.133
G1 X152.831Y239.008
G1 X152.397Y238.964
G1 X151.964Y239.008
G1 X151.56Y239.133
G1 X151.195Y239.331
G1 X150.877Y239.594
G1 X150.615Y239.912
G1 X150.416Y240.277
G1 X150.291Y240.681
G1 X150.247Y241.114
G1 X150.291Y241.547
G1 X150.416Y241.951
G1 X150.615Y242.316
G1 X150.877Y242.634
G1 X151.195Y242.897
G1 X151.56Y243.095
G1 X151.964Y243.22
G1 X152.397Y243.264
G1 X152.831Y243.22
G1 X153.234Y243.095
G1 X153.599Y242.897
G1 X153.918Y242.634
G1 X154.18Y242.316
G1 X154.378Y241.951
G1 X154.504Y241.547
G1 X154.547Y241.114
G0 X137.959Y251.227
; Layer C00 Pass 1 of 2
G1 X150.762Y248.97
G1 X148.504Y236.167
G1 X135.702Y238.425
G1 X137.959Y251.227
; Layer C00 Pass 2 of 2
G1 X150.762Y248.97
G1 X148.504Y236.167
G1 X135.702Y238.425
G1 X137.959Y251.227
G0 X132.877Y256.959
; Layer C00 Pass 1 of 2
G1 X130.62Y244.157
G1 X117.817Y246.414
G1 X120.075Y259.217
G1 X132.877Y256.959
; Layer C00 Pass 2 of 2
G1 X130.62Y244.157
G1 X117.817Y246.414
G1 X120.075Y259.217
G1 X132.877Y256.959
G0 X129.569Y238.199
; Layer C00 Pass 1 of 2
G1 X127.312Y225.396
G1 X114.509Y227.654
G1 X116.767Y240.456
G1 X129.569Y238.199
; Layer C00 Pass 2 of 2
G1 X127.312Y225.396
G1 X114.509Y227.654
G1 X116.767Y240.456
G1 X129.569Y238.199
G0 X134.651Y232.467
; Layer C00 Pass 1 of 2
G1 X132.394Y219.664
G1 X145.196Y217.407
G1 X147.454Y230.209
G1 X134.651Y232.467
; Layer C00 Pass 2 of 2
G1 X132.394Y219.664
G1 X145.196Y217.407
G1 X147.454Y230.209
G1 X134.651Y232.467
G0 X126.261Y219.438
; Layer C00 Pass 1 of 2
G1 X124.004Y206.636
G1 X111.201Y208.893
G1 X113.459Y221.696
G1 X126.261Y219.438
; Layer C00 Pass 2 of 2
G1 X124.004Y206.636
G1 X111.201Y208.893
G1 X113.459Y221.696
G1 X126.261Y219.438
G0 X131.343Y213.706
; Layer C00 Pass 1 of 2
G1 X129.086Y200.904
G1 X141.888Y198.646
G1 X144.146Y211.449
G1 X131.343Y213.706
; Layer C00 Pass 2 of 2
G1 X129.086Y200.904
G1 X141.888Y198.646
G1 X144.146Y211.449
G1 X131.343Y213.706
G0 X106.723Y218.047
; Layer C00 Pass 1 of 2
G1 X93.92Y220.305
G1 X91.663Y207.502
G1 X104.466Y205.245
G1 X106.723Y218.047
; Layer C00 Pass 2 of 2
G1 X93.92Y220.305
G1 X91.663Y207.502
G1 X104.466Y205.245
G1 X106.723Y218.047
G0 X113.651Y228.014
; Layer C00 Pass 1 of 2
G1 X113.608Y227.581
G1 X113.482Y227.177
G1 X113.284Y226.812
G1 X113.021Y226.494
G1 X112.703Y226.231
G1 X112.338Y226.033
G1 X111.935Y225.908
G1 X111.501Y225.864
G1 X111.068Y225.908
G1 X110.664Y226.033
G1 X110.299Y226.231
G1 X109.981Y226.494
G1 X109.718Y226.812
G1 X109.52Y227.177
G1 X109.395Y227.581
G1 X109.351Y228.014
G1 X109.395Y228.447
G1 X109.52Y228.851
G1 X109.718Y229.216
G1 X109.981Y229.534
G1 X110.299Y229.797
G1 X110.664Y229.995
G1 X111.068Y230.12
G1 X111.501Y230.164
G1 X111.935Y230.12
G1 X112.338Y229.995
G1 X112.703Y229.797
G1 X113.021Y229.534
G1 X113.284Y229.216
G1 X113.482Y228.851
G1 X113.608Y228.447
G1 X113.651Y228.014
; Layer C00 Pass 2 of 2
G1 X113.608Y227.581
G1 X113.482Y227.177
G1 X113.284Y226.812
G1 X113.021Y226.494
G1 X112.703Y226.231
G1 X112.338Y226.033
G1 X111.935Y225.908
G1 X111.501Y225.864
G1 X111.068Y225.908
G1 X110.664Y226.033
G1 X110.299Y226.231
G1 X109.981Y226.494
G1 X109.718Y226.812
G1 X109.52Y227.177
G1 X109.395Y227.581
G1 X109.351Y228.014
G1 X109.395Y228.447
G1 X109.52Y228.851
G1 X109.718Y229.216
G1 X109.981Y229.534
G1 X110.299Y229.797
G1 X110.664Y229.995
G1 X111.068Y230.12
G1 X111.501Y230.164
G1 X111.935Y230.12
G1 X112.338Y229.995
G1 X112.703Y229.797
G1 X113.021Y229.534
G1 X113.284Y229.216
G1 X113.482Y228.851
G1 X113.608Y228.447
G1 X113.651Y228.014
G0 X97.228Y239.065
; Layer C00 Pass 1 of 2
G1 X110.031Y236.808
G1 X107.774Y224.006
G1 X94.971Y226.263
G1 X97.228Y239.065
; Layer C00 Pass 2 of 2
G1 X110.031Y236.808
G1 X107.774Y224.006
G1 X94.971Y226.263
G1 X97.228Y239.065
G0 X77.69Y237.675
; Layer C00 Pass 1 of 2
G1 X75.433Y224.872
G1 X88.235Y222.615
G1 X90.493Y235.417
G1 X77.69Y237.675
; Layer C00 Pass 2 of 2
G1 X75.433Y224.872
G1 X88.235Y222.615
G1 X90.493Y235.417
G1 X77.69Y237.675
G0 X76.394Y235.551
; Layer C00 Pass 1 of 2
G1 X76.35Y235.117
G1 X76.225Y234.714
G1 X76.027Y234.349
G1 X75.764Y234.03
G1 X75.446Y233.768
G1 X75.081Y233.57
G1 X74.677Y233.444
G1 X74.244Y233.401
G1 X73.811Y233.444
G1 X73.407Y233.57
G1 X73.042Y233.768
G1 X72.724Y234.03
G1 X72.461Y234.349
G1 X72.263Y234.714
G1 X72.138Y235.117
G1 X72.094Y235.551
G1 X72.138Y235.984
G1 X72.263Y236.388
G1 X72.461Y236.753
G1 X72.724Y237.071
G1 X73.042Y237.334
G1 X73.407Y237.532
G1 X73.811Y237.657
G1 X74.244Y237.701
G1 X74.677Y237.657
G1 X75.081Y237.532
G1 X75.446Y237.334
G1 X75.764Y237.071
G1 X76.027Y236.753
G1 X76.225Y236.388
G1 X76.35Y235.984
G1 X76.394Y235.551
; Layer C00 Pass 2 of 2
G1 X76.35Y235.117
G1 X76.225Y234.714
G1 X76.027Y234.349
G1 X75.764Y234.03
G1 X75.446Y233.768
G1 X75.081Y233.57
G1 X74.677Y233.444
G1 X74.244Y233.401
G1 X73.811Y233.444
G1 X73.407Y233.57
G1 X73.042Y233.768
G1 X72.724Y234.03
G1 X72.461Y234.349
G1 X72.263Y234.714
G1 X72.138Y235.117
G1 X72.094Y235.551
G1 X72.138Y235.984
G1 X72.263Y236.388
G1 X72.461Y236.753
G1 X72.724Y237.071
G1 X73.042Y237.334
G1 X73.407Y237.532
G1 X73.811Y237.657
G1 X74.244Y237.701
G1 X74.677Y237.657
G1 X75.081Y237.532
G1 X75.446Y237.334
G1 X75.764Y237.071
G1 X76.027Y236.753
G1 X76.225Y236.388
G1 X76.35Y235.984
G1 X76.394Y235.551
G0 X58.979Y240.974
; Layer C00 Pass 1 of 2
G1 X71.781Y238.716
G1 X69.524Y225.914
G1 X56.721Y228.171
G1 X58.979Y240.974
; Layer C00 Pass 2 of 2
G1 X71.781Y238.716
G1 X69.524Y225.914
G1 X56.721Y228.171
G1 X58.979Y240.974
G0 X55.671Y222.213
; Layer C00 Pass 1 of 2
G1 X68.473Y219.956
G1 X66.216Y207.153
G1 X53.413Y209.411
G1 X55.671Y222.213
; Layer C00 Pass 2 of 2
G1 X68.473Y219.956
G1 X66.216Y207.153
G1 X53.413Y209.411
G1 X55.671Y222.213
G0 X71.763Y209.286
; Layer C00 Pass 1 of 2
G1 X71.719Y208.853
G1 X71.594Y208.449
G1 X71.396Y208.084
G1 X71.133Y207.766
G1 X70.815Y207.503
G1 X70.45Y207.305
G1 X70.046Y207.18
G1 X69.613Y207.136
G1 X69.179Y207.18
G1 X68.776Y207.305
G1 X68.411Y207.503
G1 X68.092Y207.766
G1 X67.83Y208.084
G1 X67.632Y208.449
G1 X67.506Y208.853
G1 X67.463Y209.286
G1 X67.506Y209.719
G1 X67.632Y210.123
G1 X67.83Y210.488
G1 X68.092Y210.806
G1 X68.411Y211.069
G1 X68.776Y211.267
G1 X69.179Y211.392
G1 X69.613Y211.436
G1 X70.046Y211.392
G1 X70.45Y211.267
G1 X70.815Y211.069
G1 X71.133Y210.806
G1 X71.396Y210.488
G1 X71.594Y210.123
G1 X71.719Y209.719
G1 X71.763Y209.286
; Layer C00 Pass 2 of 2
G1 X71.719Y208.853
G1 X71.594Y208.449
G1 X71.396Y208.084
G1 X71.133Y207.766
G1 X70.815Y207.503
G1 X70.45Y207.305
G1 X70.046Y207.18
G1 X69.613Y207.136
G1 X69.179Y207.18
G1 X68.776Y207.305
G1 X68.411Y207.503
G1 X68.092Y207.766
G1 X67.83Y208.084
G1 X67.632Y208.449
G1 X67.506Y208.853
G1 X67.463Y209.286
G1 X67.506Y209.719
G1 X67.632Y210.123
G1 X67.83Y210.488
G1 X68.092Y210.806
G1 X68.411Y211.069
G1 X68.776Y211.267
G1 X69.179Y211.392
G1 X69.613Y211.436
G1 X70.046Y211.392
G1 X70.45Y211.267
G1 X70.815Y211.069
G1 X71.133Y210.806
G1 X71.396Y210.488
G1 X71.594Y210.123
G1 X71.719Y209.719
G1 X71.763Y209.286
G0 X87.185Y216.657
; Layer C00 Pass 1 of 2
G1 X74.382Y218.914
G1 X72.125Y206.112
G1 X84.927Y203.854
G1 X87.185Y216.657
; Layer C00 Pass 2 of 2
G1 X74.382Y218.914
G1 X72.125Y206.112
G1 X84.927Y203.854
G1 X87.185Y216.657
G0 X100.536Y257.826
; Layer C00 Pass 1 of 2
G1 X98.279Y245.024
G1 X111.081Y242.766
G1 X113.339Y255.569
G1 X100.536Y257.826
; Layer C00 Pass 2 of 2
G1 X98.279Y245.024
G1 X111.081Y242.766
G1 X113.339Y255.569
G1 X100.536Y257.826
G0 X221.113Y221.99
; Layer C00 Pass 1 of 2
G1 X221.07Y221.557
G1 X220.944Y221.154
G1 X220.746Y220.788
G1 X220.484Y220.47
G1 X220.165Y220.208
G1 X219.8Y220.009
G1 X219.397Y219.884
G1 X218.963Y219.84
G1 X218.53Y219.884
G1 X218.127Y220.009
G1 X217.761Y220.208
G1 X217.443Y220.47
G1 X217.181Y220.788
G1 X216.982Y221.154
G1 X216.857Y221.557
G1 X216.813Y221.99
G1 X216.857Y222.424
G1 X216.982Y222.827
G1 X217.181Y223.192
G1 X217.443Y223.511
G1 X217.761Y223.773
G1 X218.127Y223.971
G1 X218.53Y224.097
G1 X218.963Y224.14
G1 X219.397Y224.097
G1 X219.8Y223.971
G1 X220.165Y223.773
G1 X220.484Y223.511
G1 X220.746Y223.192
G1 X220.944Y222.827
G1 X221.07Y222.424
G1 X221.113Y221.99
; Layer C00 Pass 2 of 2
G1 X221.07Y221.557
G1 X220.944Y221.154
G1 X220.746Y220.788
G1 X220.484Y220.47
G1 X220.165Y220.208
G1 X219.8Y220.009
G1 X219.397Y219.884
G1 X218.963Y219.84
G1 X218.53Y219.884
G1 X218.127Y220.009
G1 X217.761Y220.208
G1 X217.443Y220.47
G1 X217.181Y220.788
G1 X216.982Y221.154
G1 X216.857Y221.557
G1 X216.813Y221.99
G1 X216.857Y222.424
G1 X216.982Y222.827
G1 X217.181Y223.192
G1 X217.443Y223.511
G1 X217.761Y223.773
G1 X218.127Y223.971
G1 X218.53Y224.097
G1 X218.963Y224.14
G1 X219.397Y224.097
G1 X219.8Y223.971
G1 X220.165Y223.773
G1 X220.484Y223.511
G1 X220.746Y223.192
G1 X220.944Y222.827
G1 X221.07Y222.424
G1 X221.113Y221.99
G0 X234.662Y222.22
; Layer C00 Pass 1 of 2
G1 X236.919Y209.417
G1 X249.722Y211.675
G1 X247.465Y224.477
G1 X234.662Y222.22
; Layer C00 Pass 2 of 2
G1 X236.919Y209.417
G1 X249.722Y211.675
G1 X247.465Y224.477
G1 X234.662Y222.22
G0 X255.854Y211.449
; Layer C00 Pass 1 of 2
G1 X258.112Y198.646
G1 X270.914Y200.904
G1 X268.657Y213.706
G1 X255.854Y211.449
; Layer C00 Pass 2 of 2
G1 X258.112Y198.646
G1 X270.914Y200.904
G1 X268.657Y213.706
G1 X255.854Y211.449
G0 X250.773Y205.717
; Layer C00 Pass 1 of 2
G1 X237.97Y203.459
G1 X240.227Y190.657
G1 X253.03Y192.914
G1 X250.773Y205.717
; Layer C00 Pass 2 of 2
G1 X237.97Y203.459
G1 X240.227Y190.657
G1 X253.03Y192.914
G1 X250.773Y205.717
G0 X257.692Y196.089
; Layer C00 Pass 1 of 2
G1 X257.648Y195.655
G1 X257.523Y195.252
G1 X257.325Y194.887
G1 X257.062Y194.568
G1 X256.744Y194.306
G1 X256.379Y194.108
G1 X255.975Y193.982
G1 X255.542Y193.939
G1 X255.109Y193.982
G1 X254.705Y194.108
G1 X254.34Y194.306
G1 X254.022Y194.568
G1 X253.759Y194.887
G1 X253.561Y195.252
G1 X253.436Y195.655
G1 X253.392Y196.089
G1 X253.436Y196.522
G1 X253.561Y196.926
G1 X253.759Y197.291
G1 X254.022Y197.609
G1 X254.34Y197.871
G1 X254.705Y198.07
G1 X255.109Y198.195
G1 X255.542Y198.239
G1 X255.975Y198.195
G1 X256.379Y198.07
G1 X256.744Y197.871
G1 X257.062Y197.609
G1 X257.325Y197.291
G1 X257.523Y196.926
G1 X257.648Y196.522
G1 X257.692Y196.089
; Layer C00 Pass 2 of 2
G1 X257.648Y195.655
G1 X257.523Y195.252
G1 X257.325Y194.887
G1 X257.062Y194.568
G1 X256.744Y194.306
G1 X256.379Y194.108
G1 X255.975Y193.982
G1 X255.542Y193.939
G1 X255.109Y193.982
G1 X254.705Y194.108
G1 X254.34Y194.306
G1 X254.022Y194.568
G1 X253.759Y194.887
G1 X253.561Y195.252
G1 X253.436Y195.655
G1 X253.392Y196.089
G1 X253.436Y196.522
G1 X253.561Y196.926
G1 X253.759Y197.291
G1 X254.022Y197.609
G1 X254.34Y197.871
G1 X254.705Y198.07
G1 X255.109Y198.195
G1 X255.542Y198.239
G1 X255.975Y198.195
G1 X256.379Y198.07
G1 X256.744Y197.871
G1 X257.062Y197.609
G1 X257.325Y197.291
G1 X257.523Y196.926
G1 X257.648Y196.522
G1 X257.692Y196.089
G0 X247.476Y181.504
; Layer C00 Pass 1 of 2
G1 X260.033Y184.868
G1 X263.398Y172.311
G1 X250.84Y168.947
G1 X247.476Y181.504
; Layer C00 Pass 2 of 2
G1 X260.033Y184.868
G1 X263.398Y172.311
G1 X250.84Y168.947
G1 X247.476Y181.504
G0 X240.002Y174.354
; Layer C00 Pass 1 of 2
G1 X228.318Y168.656
G1 X234.017Y156.971
G1 X245.701Y162.67
G1 X240.002Y174.354
; Layer C00 Pass 2 of 2
G1 X228.318Y168.656
G1 X234.017Y156.971
G1 X245.701Y162.67
G1 X240.002Y174.354
G0 X220.972Y185.359
; Layer C00 Pass 1 of 2
G1 X220.928Y184.926
G1 X220.803Y184.522
G1 X220.605Y184.157
G1 X220.342Y183.839
G1 X220.024Y183.577
G1 X219.659Y183.378
G1 X219.255Y183.253
G1 X218.822Y183.209
G1 X218.389Y183.253
G1 X217.985Y183.378
G1 X217.62Y183.577
G1 X217.302Y183.839
G1 X217.039Y184.157
G1 X216.841Y184.522
G1 X216.716Y184.926
G1 X216.672Y185.359
G1 X216.716Y185.793
G1 X216.841Y186.196
G1 X217.039Y186.561
G1 X217.302Y186.88
G1 X217.62Y187.142
G1 X217.985Y187.34
G1 X218.389Y187.466
G1 X218.822Y187.509
G1 X219.255Y187.466
G1 X219.659Y187.34
G1 X220.024Y187.142
G1 X220.342Y186.88
G1 X220.605Y186.561
G1 X220.803Y186.196
G1 X220.928Y185.793
G1 X220.972Y185.359
; Layer C00 Pass 2 of 2
G1 X220.928Y184.926
G1 X220.803Y184.522
G1 X220.605Y184.157
G1 X220.342Y183.839
G1 X220.024Y183.577
G1 X219.659Y183.378
G1 X219.255Y183.253
G1 X218.822Y183.209
G1 X218.389Y183.253
G1 X217.985Y183.378
G1 X217.62Y183.577
G1 X217.302Y183.839
G1 X217.039Y184.157
G1 X216.841Y184.522
G1 X216.716Y184.926
G1 X216.672Y185.359
G1 X216.716Y185.793
G1 X216.841Y186.196
G1 X217.039Y186.561
G1 X217.302Y186.88
G1 X217.62Y187.142
G1 X217.985Y187.34
G1 X218.389Y187.466
G1 X218.822Y187.509
G1 X219.255Y187.466
G1 X219.659Y187.34
G1 X220.024Y187.142
G1 X220.342Y186.88
G1 X220.605Y186.561
G1 X220.803Y186.196
G1 X220.928Y185.793
G1 X220.972Y185.359
G0 X202.15Y165.663
; Layer C00 Pass 1 of 2
G1 X202.106Y165.229
G1 X201.981Y164.826
G1 X201.783Y164.461
G1 X201.52Y164.143
G1 X201.202Y163.88
G1 X200.837Y163.682
G1 X200.433Y163.556
G1 X200Y163.513
G1 X199.567Y163.556
G1 X199.163Y163.682
G1 X198.798Y163.88
G1 X198.48Y164.143
G1 X198.217Y164.461
G1 X198.019Y164.826
G1 X197.894Y165.229
G1 X197.85Y165.663
G1 X197.894Y166.096
G1 X198.019Y166.5
G1 X198.217Y166.865
G1 X198.48Y167.183
G1 X198.798Y167.446
G1 X199.163Y167.644
G1 X199.567Y167.769
G1 X200Y167.813
G1 X200.433Y167.769
G1 X200.837Y167.644
G1 X201.202Y167.446
G1 X201.52Y167.183
G1 X201.783Y166.865
G1 X201.981Y166.5
G1 X202.106Y166.096
G1 X202.15Y165.663
; Layer C00 Pass 2 of 2
G1 X202.106Y165.229
G1 X201.981Y164.826
G1 X201.783Y164.461
G1 X201.52Y164.143
G1 X201.202Y163.88
G1 X200.837Y163.682
G1 X200.433Y163.556
G1 X200Y163.513
G1 X199.567Y163.556
G1 X199.163Y163.682
G1 X198.798Y163.88
G1 X198.48Y164.143
G1 X198.217Y164.461
G1 X198.019Y164.826
G1 X197.894Y165.229
G1 X197.85Y165.663
G1 X197.894Y166.096
G1 X198.019Y166.5
G1 X198.217Y166.865
G1 X198.48Y167.183
G1 X198.798Y167.446
G1 X199.163Y167.644
G1 X199.567Y167.769
G1 X200Y167.813
G1 X200.433Y167.769
G1 X200.837Y167.644
G1 X201.202Y167.446
G1 X201.52Y167.183
G1 X201.783Y166.865
G1 X201.981Y166.5
G1 X202.106Y166.096
G1 X202.15Y165.663
G0 X183.328Y185.359
; Layer C00 Pass 1 of 2
G1 X183.284Y184.926
G1 X183.159Y184.522
G1 X182.961Y184.157
G1 X182.698Y183.839
G1 X182.38Y183.577
G1 X182.015Y183.378
G1 X181.611Y183.253
G1 X181.178Y183.209
G1 X180.745Y183.253
G1 X180.341Y183.378
G1 X179.976Y183.577
G1 X179.658Y183.839
G1 X179.395Y184.157
G1 X179.197Y184.522
G1 X179.072Y184.926
G1 X179.028Y185.359
G1 X179.072Y185.793
G1 X179.197Y186.196
G1 X179.395Y186.561
G1 X179.658Y186.88
G1 X179.976Y187.142
G1 X180.341Y187.34
G1 X180.745Y187.466
G1 X181.178Y187.509
G1 X181.611Y187.466
G1 X182.015Y187.34
G1 X182.38Y187.142
G1 X182.698Y186.88
G1 X182.961Y186.561
G1 X183.159Y186.196
G1 X183.284Y185.793
G1 X183.328Y185.359
; Layer C00 Pass 2 of 2
G1 X183.284Y184.926
G1 X183.159Y184.522
G1 X182.961Y184.157
G1 X182.698Y183.839
G1 X182.38Y183.577
G1 X182.015Y183.378
G1 X181.611Y183.253
G1 X181.178Y183.209
G1 X180.745Y183.253
G1 X180.341Y183.378
G1 X179.976Y183.577
G1 X179.658Y183.839
G1 X179.395Y184.157
G1 X179.197Y184.522
G1 X179.072Y184.926
G1 X179.028Y185.359
G1 X179.072Y185.793
G1 X179.197Y186.196
G1 X179.395Y186.561
G1 X179.658Y186.88
G1 X179.976Y187.142
G1 X180.341Y187.34
G1 X180.745Y187.466
G1 X181.178Y187.509
G1 X181.611Y187.466
G1 X182.015Y187.34
G1 X182.38Y187.142
G1 X182.698Y186.88
G1 X182.961Y186.561
G1 X183.159Y186.196
G1 X183.284Y185.793
G1 X183.328Y185.359
G0 X273.739Y219.438
; Layer C00 Pass 1 of 2
G1 X286.541Y221.696
G1 X288.799Y208.893
G1 X275.996Y206.636
G1 X273.739Y219.438
; Layer C00 Pass 2 of 2
G1 X286.541Y221.696
G1 X288.799Y208.893
G1 X275.996Y206.636
G1 X273.739Y219.438
G0 X293.277Y218.047
; Layer C00 Pass 1 of 2
G1 X295.535Y205.245
G1 X308.337Y207.502
G1 X306.08Y220.305
G1 X293.277Y218.047
; Layer C00 Pass 2 of 2
G1 X295.535Y205.245
G1 X308.337Y207.502
G1 X306.08Y220.305
G1 X293.277Y218.047
G0 X290.649Y228.014
; Layer C00 Pass 1 of 2
G1 X290.605Y227.581
G1 X290.48Y227.177
G1 X290.282Y226.812
G1 X290.019Y226.494
G1 X289.701Y226.231
G1 X289.336Y226.033
G1 X288.932Y225.908
G1 X288.499Y225.864
G1 X288.065Y225.908
G1 X287.662Y226.033
G1 X287.297Y226.231
G1 X286.979Y226.494
G1 X286.716Y226.812
G1 X286.518Y227.177
G1 X286.392Y227.581
G1 X286.349Y228.014
G1 X286.392Y228.447
G1 X286.518Y228.851
G1 X286.716Y229.216
G1 X286.979Y229.534
G1 X287.297Y229.797
G1 X287.662Y229.995
G1 X288.065Y230.12
G1 X288.499Y230.164
G1 X288.932Y230.12
G1 X289.336Y229.995
G1 X289.701Y229.797
G1 X290.019Y229.534
G1 X290.282Y229.216
G1 X290.48Y228.851
G1 X290.605Y228.447
G1 X290.649Y228.014
; Layer C00 Pass 2 of 2
G1 X290.605Y227.581
G1 X290.48Y227.177
G1 X290.282Y226.812
G1 X290.019Y226.494
G1 X289.701Y226.231
G1 X289.336Y226.033
G1 X288.932Y225.908
G1 X288.499Y225.864
G1 X288.065Y225.908
G1 X287.662Y226.033
G1 X287.297Y226.231
G1 X286.979Y226.494
G1 X286.716Y226.812
G1 X286.518Y227.177
G1 X286.392Y227.581
G1 X286.349Y228.014
G1 X286.392Y228.447
G1 X286.518Y228.851
G1 X286.716Y229.216
G1 X286.979Y229.534
G1 X287.297Y229.797
G1 X287.662Y229.995
G1 X288.065Y230.12
G1 X288.499Y230.164
G1 X288.932Y230.12
G1 X289.336Y229.995
G1 X289.701Y229.797
G1 X290.019Y229.534
G1 X290.282Y229.216
G1 X290.48Y228.851
G1 X290.605Y228.447
G1 X290.649Y228.014
G0 X289.969Y236.808
; Layer C00 Pass 1 of 2
G1 X292.227Y224.006
G1 X305.029Y226.263
G1 X302.772Y239.065
G1 X289.969Y236.808
; Layer C00 Pass 2 of 2
G1 X292.227Y224.006
G1 X305.029Y226.263
G1 X302.772Y239.065
G1 X289.969Y236.808
G0 X283.233Y240.456
; Layer C00 Pass 1 of 2
G1 X270.431Y238.199
G1 X272.688Y225.396
G1 X285.491Y227.654
G1 X283.233Y240.456
; Layer C00 Pass 2 of 2
G1 X270.431Y238.199
G1 X272.688Y225.396
G1 X285.491Y227.654
G1 X283.233Y240.456
G0 X265.349Y232.467
; Layer C00 Pass 1 of 2
G1 X252.546Y230.209
G1 X254.804Y217.407
G1 X267.606Y219.664
G1 X265.349Y232.467
; Layer C00 Pass 2 of 2
G1 X252.546Y230.209
G1 X254.804Y217.407
G1 X267.606Y219.664
G1 X265.349Y232.467
G0 X249.753Y241.114
; Layer C00 Pass 1 of 2
G1 X249.709Y240.681
G1 X249.584Y240.277
G1 X249.386Y239.912
G1 X249.123Y239.594
G1 X248.805Y239.331
G1 X248.44Y239.133
G1 X248.036Y239.008
G1 X247.603Y238.964
G1 X247.169Y239.008
G1 X246.766Y239.133
G1 X246.401Y239.331
G1 X246.082Y239.594
G1 X245.82Y239.912
G1 X245.622Y240.277
G1 X245.496Y240.681
G1 X245.453Y241.114
G1 X245.496Y241.547
G1 X245.622Y241.951
G1 X245.82Y242.316
G1 X246.082Y242.634
G1 X246.401Y242.897
G1 X246.766Y243.095
G1 X247.169Y243.22
G1 X247.603Y243.264
G1 X248.036Y243.22
G1 X248.44Y243.095
G1 X248.805Y242.897
G1 X249.123Y242.634
G1 X249.386Y242.316
G1 X249.584Y241.951
G1 X249.709Y241.547
G1 X249.753Y241.114
; Layer C00 Pass 2 of 2
G1 X249.709Y240.681
G1 X249.584Y240.277
G1 X249.386Y239.912
G1 X249.123Y239.594
G1 X248.805Y239.331
G1 X248.44Y239.133
G1 X248.036Y239.008
G1 X247.603Y238.964
G1 X247.169Y239.008
G1 X246.766Y239.133
G1 X246.401Y239.331
G1 X246.082Y239.594
G1 X245.82Y239.912
G1 X245.622Y240.277
G1 X245.496Y240.681
G1 X245.453Y241.114
G1 X245.496Y241.547
G1 X245.622Y241.951
G1 X245.82Y242.316
G1 X246.082Y242.634
G1 X246.401Y242.897
G1 X246.766Y243.095
G1 X247.169Y243.22
G1 X247.603Y243.264
G1 X248.036Y243.22
G1 X248.44Y243.095
G1 X248.805Y242.897
G1 X249.123Y242.634
G1 X249.386Y242.316
G1 X249.584Y241.951
G1 X249.709Y241.547
G1 X249.753Y241.114
G0 X244.157Y243.238
; Layer C00 Pass 1 of 2
G1 X231.354Y240.98
G1 X233.611Y228.178
G1 X246.414Y230.435
G1 X244.157Y243.238
; Layer C00 Pass 2 of 2
G1 X231.354Y240.98
G1 X233.611Y228.178
G1 X246.414Y230.435
G1 X244.157Y243.238
G0 X262.041Y251.227
; Layer C00 Pass 1 of 2
G1 X264.298Y238.425
G1 X251.496Y236.167
G1 X249.238Y248.97
G1 X262.041Y251.227
; Layer C00 Pass 2 of 2
G1 X264.298Y238.425
G1 X251.496Y236.167
G1 X249.238Y248.97
G1 X262.041Y251.227
G0 X267.123Y256.959
; Layer C00 Pass 1 of 2
G1 X269.38Y244.157
G1 X282.183Y246.414
G1 X279.925Y259.217
G1 X267.123Y256.959
; Layer C00 Pass 2 of 2
G1 X269.38Y244.157
G1 X282.183Y246.414
G1 X279.925Y259.217
G1 X267.123Y256.959
G0 X299.464Y257.826
; Layer C00 Pass 1 of 2
G1 X301.721Y245.024
G1 X288.919Y242.766
G1 X286.661Y255.569
G1 X299.464Y257.826
; Layer C00 Pass 2 of 2
G1 X301.721Y245.024
G1 X288.919Y242.766
G1 X286.661Y255.569
G1 X299.464Y257.826
G0 X322.31Y237.675
; Layer C00 Pass 1 of 2
G1 X324.567Y224.872
G1 X311.765Y222.615
G1 X309.507Y235.417
G1 X322.31Y237.675
; Layer C00 Pass 2 of 2
G1 X324.567Y224.872
G1 X311.765Y222.615
G1 X309.507Y235.417
G1 X322.31Y237.675
G0 X328.219Y238.716
; Layer C00 Pass 1 of 2
G1 X330.476Y225.914
G1 X343.279Y228.171
G1 X341.021Y240.974
G1 X328.219Y238.716
; Layer C00 Pass 2 of 2
G1 X330.476Y225.914
G1 X343.279Y228.171
G1 X341.021Y240.974
G1 X328.219Y238.716
G0 X327.906Y235.551
; Layer C00 Pass 1 of 2
G1 X327.862Y235.117
G1 X327.737Y234.714
G1 X327.539Y234.349
G1 X327.276Y234.03
G1 X326.958Y233.768
G1 X326.593Y233.57
G1 X326.189Y233.444
G1 X325.756Y233.401
G1 X325.323Y233.444
G1 X324.919Y233.57
G1 X324.554Y233.768
G1 X324.236Y234.03
G1 X323.973Y234.349
G1 X323.775Y234.714
G1 X323.65Y235.117
G1 X323.606Y235.551
G1 X323.65Y235.984
G1 X323.775Y236.388
G1 X323.973Y236.753
G1 X324.236Y237.071
G1 X324.554Y237.334
G1 X324.919Y237.532
G1 X325.323Y237.657
G1 X325.756Y237.701
G1 X326.189Y237.657
G1 X326.593Y237.532
G1 X326.958Y237.334
G1 X327.276Y237.071
G1 X327.539Y236.753
G1 X327.737Y236.388
G1 X327.862Y235.984
G1 X327.906Y235.551
; Layer C00 Pass 2 of 2
G1 X327.862Y235.117
G1 X327.737Y234.714
G1 X327.539Y234.349
G1 X327.276Y234.03
G1 X326.958Y233.768
G1 X326.593Y233.57
G1 X326.189Y233.444
G1 X325.756Y233.401
G1 X325.323Y233.444
G1 X324.919Y233.57
G1 X324.554Y233.768
G1 X324.236Y234.03
G1 X323.973Y234.349
G1 X323.775Y234.714
G1 X323.65Y235.117
G1 X323.606Y235.551
G1 X323.65Y235.984
G1 X323.775Y236.388
G1 X323.973Y236.753
G1 X324.236Y237.071
G1 X324.554Y237.334
G1 X324.919Y237.532
G1 X325.323Y237.657
G1 X325.756Y237.701
G1 X326.189Y237.657
G1 X326.593Y237.532
G1 X326.958Y237.334
G1 X327.276Y237.071
G1 X327.539Y236.753
G1 X327.737Y236.388
G1 X327.862Y235.984
G1 X327.906Y235.551
G0 X344.329Y222.213
; Layer C00 Pass 1 of 2
G1 X331.527Y219.956
G1 X333.784Y207.153
G1 X346.587Y209.411
G1 X344.329Y222.213
; Layer C00 Pass 2 of 2
G1 X331.527Y219.956
G1 X333.784Y207.153
G1 X346.587Y209.411
G1 X344.329Y222.213
G0 X332.537Y209.286
; Layer C00 Pass 1 of 2
G1 X332.494Y208.853
G1 X332.368Y208.449
G1 X332.17Y208.084
G1 X331.908Y207.766
G1 X331.589Y207.503
G1 X331.224Y207.305
G1 X330.821Y207.18
G1 X330.387Y207.136
G1 X329.954Y207.18
G1 X329.55Y207.305
G1 X329.185Y207.503
G1 X328.867Y207.766
G1 X328.604Y208.084
G1 X328.406Y208.449
G1 X328.281Y208.853
G1 X328.237Y209.286
G1 X328.281Y209.719
G1 X328.406Y210.123
G1 X328.604Y210.488
G1 X328.867Y210.806
G1 X329.185Y211.069
G1 X329.55Y211.267
G1 X329.954Y211.392
G1 X330.387Y211.436
G1 X330.821Y211.392
G1 X331.224Y211.267
G1 X331.589Y211.069
G1 X331.908Y210.806
G1 X332.17Y210.488
G1 X332.368Y210.123
G1 X332.494Y209.719
G1 X332.537Y209.286
; Layer C00 Pass 2 of 2
G1 X332.494Y208.853
G1 X332.368Y208.449
G1 X332.17Y208.084
G1 X331.908Y207.766
G1 X331.589Y207.503
G1 X331.224Y207.305
G1 X330.821Y207.18
G1 X330.387Y207.136
G1 X329.954Y207.18
G1 X329.55Y207.305
G1 X329.185Y207.503
G1 X328.867Y207.766
G1 X328.604Y208.084
G1 X328.406Y208.449
G1 X328.281Y208.853
G1 X328.237Y209.286
G1 X328.281Y209.719
G1 X328.406Y210.123
G1 X328.604Y210.488
G1 X328.867Y210.806
G1 X329.185Y211.069
G1 X329.55Y211.267
G1 X329.954Y211.392
G1 X330.387Y211.436
G1 X330.821Y211.392
G1 X331.224Y211.267
G1 X331.589Y211.069
G1 X331.908Y210.806
G1 X332.17Y210.488
G1 X332.368Y210.123
G1 X332.494Y209.719
G1 X332.537Y209.286
G0 X312.815Y216.657
; Layer C00 Pass 1 of 2
G1 X325.618Y218.914
G1 X327.875Y206.112
G1 X315.073Y203.854
G1 X312.815Y216.657
; Layer C00 Pass 2 of 2
G1 X325.618Y218.914
G1 X327.875Y206.112
G1 X315.073Y203.854
G1 X312.815Y216.657
G0 X251.237Y162.391
; Layer C00 Pass 1 of 2
G1 X251.251Y161.165
G1 X251.234Y160.879
G1 X251.177Y160.602
G1 X251.083Y160.339
G1 X250.954Y160.092
G1 X250.791Y159.865
G1 X250.598Y159.663
G1 X250.376Y159.488
G1 X250.128Y159.344
G1 X232.162Y150.581
G1 X231.953Y150.494
G1 X231.735Y150.43
G1 X231.512Y150.392
G1 X231.285Y150.379
G1 X168.715
G1 X168.488Y150.392
G1 X168.265Y150.43
G1 X168.048Y150.494
G1 X167.838Y150.581
G1 X149.872Y159.344
G1 X149.624Y159.488
G1 X149.402Y159.663
G1 X149.209Y159.865
G1 X149.046Y160.092
G1 X148.917Y160.339
G1 X148.823Y160.602
G1 X148.766Y160.879
G1 X148.749Y161.165
G1 X148.763Y162.391
G1 X148.739Y162.727
G1 X148.66Y163.049
G1 X148.532Y163.349
G1 X148.357Y163.622
G1 X148.141Y163.864
G1 X147.886Y164.069
G1 X147.599Y164.232
G1 X147.281Y164.346
G1 X132.457Y168.318
G1 X132.083Y168.459
G1 X131.754Y168.665
G1 X131.475Y168.926
G1 X131.253Y169.232
G1 X131.091Y169.575
G1 X130.997Y169.945
G1 X130.976Y170.332
G1 X131.032Y170.728
G1 X136.372Y192.447
G1 X136.428Y192.854
G1 X136.401Y193.259
G1 X136.293Y193.651
G1 X136.105Y194.017
G1 X135.847Y194.336
G1 X135.532Y194.593
G1 X135.172Y194.782
G1 X134.777Y194.894
G1 X125.287Y196.567
G1 X124.905Y196.675
G1 X124.561Y196.849
G1 X124.261Y197.082
G1 X124.013Y197.366
G1 X123.822Y197.691
G1 X123.694Y198.048
G1 X123.637Y198.43
G1 X123.655Y198.826
G1 X123.782Y199.698
G1 X123.801Y200.094
G1 X123.743Y200.476
G1 X123.616Y200.833
G1 X123.425Y201.158
G1 X123.176Y201.441
G1 X122.877Y201.675
G1 X122.533Y201.849
G1 X122.151Y201.956
G1 X111.342Y203.862
G1 X110.946Y203.892
G1 X110.563Y203.846
G1 X110.202Y203.729
G1 X109.872Y203.548
G1 X109.581Y203.308
G1 X109.339Y203.016
G1 X109.155Y202.677
G1 X109.036Y202.298
G1 X108.858Y201.435
G1 X108.74Y201.056
G1 X108.555Y200.718
G1 X108.313Y200.425
G1 X108.022Y200.186
G1 X107.692Y200.004
G1 X107.331Y199.887
G1 X106.948Y199.841
G1 X106.552Y199.871
G1 X91.804Y202.471
G1 X91.408Y202.502
G1 X91.025Y202.455
G1 X90.664Y202.338
G1 X90.334Y202.157
G1 X90.043Y201.917
G1 X89.801Y201.625
G1 X89.616Y201.286
G1 X89.498Y200.907
G1 X89.32Y200.044
G1 X89.201Y199.665
G1 X89.017Y199.327
G1 X88.775Y199.035
G1 X88.484Y198.795
G1 X88.154Y198.613
G1 X87.793Y198.496
G1 X87.41Y198.45
G1 X87.014Y198.48
G1 X49.672Y205.065
G1 X49.282Y205.175
G1 X48.932Y205.354
G1 X48.63Y205.595
G1 X48.381Y205.887
G1 X48.192Y206.221
G1 X48.069Y206.587
G1 X48.019Y206.977
G1 X48.049Y207.381
G1 X54.632Y244.715
G1 X54.742Y245.105
G1 X54.922Y245.455
G1 X55.163Y245.757
G1 X55.455Y246.007
G1 X55.789Y246.196
G1 X56.155Y246.318
G1 X56.545Y246.368
G1 X56.949Y246.338
G1 X90.306Y240.456
G1 X90.708Y240.426
G1 X91.097Y240.475
G1 X91.462Y240.596
G1 X91.796Y240.784
G1 X92.087Y241.031
G1 X92.328Y241.332
G1 X92.509Y241.679
G1 X92.621Y242.067
G1 X96.181Y261.581
G1 X96.292Y261.969
G1 X96.473Y262.316
G1 X96.714Y262.617
G1 X97.006Y262.864
G1 X97.339Y263.052
G1 X97.705Y263.173
G1 X98.093Y263.222
G1 X98.495Y263.192
G1 X113.198Y260.599
G1 X113.594Y260.569
G1 X113.977Y260.616
G1 X114.338Y260.733
G1 X114.668Y260.914
G1 X114.959Y261.154
G1 X115.201Y261.446
G1 X115.386Y261.785
G1 X115.504Y262.164
G1 X115.682Y263.026
G1 X115.801Y263.405
G1 X115.985Y263.744
G1 X116.227Y264.036
G1 X116.518Y264.276
G1 X116.848Y264.458
G1 X117.209Y264.575
G1 X117.592Y264.621
G1 X117.988Y264.591
G1 X136.676Y261.296
G1 X137.058Y261.189
G1 X137.402Y261.014
G1 X137.702Y260.781
G1 X137.95Y260.497
G1 X138.141Y260.172
G1 X138.269Y259.815
G1 X138.326Y259.434
G1 X138.308Y259.037
G1 X138.18Y258.165
G1 X138.162Y257.769
G1 X138.22Y257.387
G1 X138.347Y257.03
G1 X138.538Y256.705
G1 X138.787Y256.422
G1 X139.086Y256.188
G1 X139.43Y256.014
G1 X139.812Y255.907
G1 X154.56Y253.306
G1 X154.943Y253.199
G1 X155.287Y253.025
G1 X155.586Y252.791
G1 X155.834Y252.508
G1 X156.025Y252.183
G1 X156.153Y251.826
G1 X156.211Y251.444
G1 X156.192Y251.048
G1 X156.065Y250.176
G1 X156.046Y249.779
G1 X156.104Y249.398
G1 X156.232Y249.04
G1 X156.423Y248.716
G1 X156.671Y248.432
G1 X156.97Y248.199
G1 X157.314Y248.024
G1 X157.697Y247.917
G1 X174.185Y245.01
G1 X174.358Y244.987
G1 X174.532Y244.98
G1 X179
G1 Y239.708
G1 X190.4
G1 Y210.947
G1 X194.4
G1 Y244.98
G1 X205.6
G1 Y210.947
G1 X209.6
G1 Y239.708
G1 X221
G1 Y244.98
G1 X225.468
G1 X225.642Y244.987
G1 X225.815Y245.01
G1 X242.303Y247.917
G1 X242.686Y248.024
G1 X243.03Y248.199
G1 X243.329Y248.432
G1 X243.577Y248.716
G1 X243.768Y249.04
G1 X243.896Y249.398
G1 X243.954Y249.779
G1 X243.935Y250.176
G1 X243.808Y251.048
G1 X243.789Y251.444
G1 X243.847Y251.826
G1 X243.975Y252.183
G1 X244.166Y252.508
G1 X244.414Y252.791
G1 X244.713Y253.025
G1 X245.057Y253.199
G1 X245.44Y253.306
G1 X260.188Y255.907
G1 X260.57Y256.014
G1 X260.914Y256.188
G1 X261.213Y256.422
G1 X261.462Y256.705
G1 X261.653Y257.03
G1 X261.78Y257.387
G1 X261.838Y257.769
G1 X261.82Y258.165
G1 X261.692Y259.037
G1 X261.674Y259.434
G1 X261.731Y259.815
G1 X261.859Y260.172
G1 X262.05Y260.497
G1 X262.298Y260.781
G1 X262.598Y261.014
G1 X262.942Y261.189
G1 X263.324Y261.296
G1 X282.012Y264.591
G1 X282.408Y264.621
G1 X282.791Y264.575
G1 X283.152Y264.458
G1 X283.482Y264.276
G1 X283.773Y264.036
G1 X284.015Y263.744
G1 X284.199Y263.405
G1 X284.318Y263.026
G1 X284.496Y262.164
G1 X284.614Y261.785
G1 X284.799Y261.446
G1 X285.041Y261.154
G1 X285.332Y260.914
G1 X285.662Y260.733
G1 X286.023Y260.616
G1 X286.406Y260.569
G1 X286.802Y260.599
G1 X301.505Y263.192
G1 X301.907Y263.222
G1 X302.296Y263.173
G1 X302.661Y263.052
G1 X302.994Y262.864
G1 X303.286Y262.617
G1 X303.527Y262.316
G1 X303.708Y261.969
G1 X303.819Y261.581
G1 X307.379Y242.067
G1 X307.491Y241.679
G1 X307.672Y241.332
G1 X307.913Y241.031
G1 X308.204Y240.784
G1 X308.538Y240.596
G1 X308.903Y240.475
G1 X309.292Y240.426
G1 X309.694Y240.456
G1 X343.051Y246.338
G1 X343.455Y246.368
G1 X343.845Y246.318
G1 X344.211Y246.196
G1 X344.545Y246.007
G1 X344.837Y245.757
G1 X345.078Y245.455
G1 X345.258Y245.105
G1 X345.368Y244.715
G1 X351.951Y207.381
G1 X351.981Y206.977
G1 X351.931Y206.587
G1 X351.808Y206.221
G1 X351.619Y205.887
G1 X351.37Y205.595
G1 X351.068Y205.354
G1 X350.718Y205.175
G1 X350.328Y205.065
G1 X312.986Y198.48
G1 X312.59Y198.45
G1 X312.207Y198.496
G1 X311.846Y198.613
G1 X311.516Y198.795
G1 X311.225Y199.035
G1 X310.983Y199.327
G1 X310.799Y199.665
G1 X310.68Y200.044
G1 X310.502Y200.907
G1 X310.384Y201.286
G1 X310.199Y201.625
G1 X309.957Y201.917
G1 X309.666Y202.157
G1 X309.336Y202.338
G1 X308.975Y202.455
G1 X308.592Y202.502
G1 X308.196Y202.471
G1 X293.448Y199.871
G1 X293.052Y199.841
G1 X292.669Y199.887
G1 X292.308Y200.004
G1 X291.978Y200.186
G1 X291.687Y200.425
G1 X291.445Y200.718
G1 X291.26Y201.056
G1 X291.142Y201.435
G1 X290.964Y202.298
G1 X290.845Y202.677
G1 X290.661Y203.016
G1 X290.419Y203.308
G1 X290.128Y203.548
G1 X289.798Y203.729
G1 X289.437Y203.846
G1 X289.054Y203.892
G1 X288.658Y203.862
G1 X277.849Y201.956
G1 X277.467Y201.849
G1 X277.123Y201.675
G1 X276.824Y201.441
G1 X276.575Y201.158
G1 X276.384Y200.833
G1 X276.257Y200.476
G1 X276.199Y200.094
G1 X276.218Y199.698
G1 X276.345Y198.826
G1 X276.363Y198.43
G1 X276.306Y198.048
G1 X276.178Y197.691
G1 X275.987Y197.366
G1 X275.739Y197.082
G1 X275.439Y196.849
G1 X275.095Y196.675
G1 X274.713Y196.567
G1 X265.223Y194.894
G1 X264.828Y194.782
G1 X264.468Y194.593
G1 X264.153Y194.336
G1 X263.895Y194.017
G1 X263.707Y193.651
G1 X263.599Y193.259
G1 X263.572Y192.854
G1 X263.628Y192.447
G1 X268.968Y170.728
G1 X269.024Y170.332
G1 X269.003Y169.945
G1 X268.909Y169.575
G1 X268.747Y169.232
G1 X268.525Y168.926
G1 X268.246Y168.665
G1 X267.917Y168.459
G1 X267.543Y168.318
G1 X252.719Y164.346
G1 X252.402Y164.232
G1 X252.114Y164.069
G1 X251.859Y163.864
G1 X251.643Y163.622
G1 X251.468Y163.349
G1 X251.34Y163.049
G1 X251.261Y162.727
G1 X251.237Y162.391
; Layer C00 Pass 2 of 2
G1 X251.251Y161.165
G1 X251.234Y160.879
G1 X251.177Y160.602
G1 X251.083Y160.339
G1 X250.954Y160.092
G1 X250.791Y159.865
G1 X250.598Y159.663
G1 X250.376Y159.488
G1 X250.128Y159.344
G1 X232.162Y150.581
G1 X231.953Y150.494
G1 X231.735Y150.43
G1 X231.512Y150.392
G1 X231.285Y150.379
G1 X168.715
G1 X168.488Y150.392
G1 X168.265Y150.43
G1 X168.048Y150.494
G1 X167.838Y150.581
G1 X149.872Y159.344
G1 X149.624Y159.488
G1 X149.402Y159.663
G1 X149.209Y159.865
G1 X149.046Y160.092
G1 X148.917Y160.339
G1 X148.823Y160.602
G1 X148.766Y160.879
G1 X148.749Y161.165
G1 X148.763Y162.391
G1 X148.739Y162.727
G1 X148.66Y163.049
G1 X148.532Y163.349
G1 X148.357Y163.622
G1 X148.141Y163.864
G1 X147.886Y164.069
G1 X147.599Y164.232
G1 X147.281Y164.346
G1 X132.457Y168.318
G1 X132.083Y168.459
G1 X131.754Y168.665
G1 X131.475Y168.926
G1 X131.253Y169.232
G1 X131.091Y169.575
G1 X130.997Y169.945
G1 X130.976Y170.332
G1 X131.032Y170.728
G1 X136.372Y192.447
G1 X136.428Y192.854
G1 X136.401Y193.259
G1 X136.293Y193.651
G1 X136.105Y194.017
G1 X135.847Y194.336
G1 X135.532Y194.593
G1 X135.172Y194.782
G1 X134.777Y194.894
G1 X125.287Y196.567
G1 X124.905Y196.675
G1 X124.561Y196.849
G1 X124.261Y197.082
G1 X124.013Y197.366
G1 X123.822Y197.691
G1 X123.694Y198.048
G1 X123.637Y198.43
G1 X123.655Y198.826
G1 X123.782Y199.698
G1 X123.801Y200.094
G1 X123.743Y200.476
G1 X123.616Y200.833
G1 X123.425Y201.158
G1 X123.176Y201.441
G1 X122.877Y201.675
G1 X122.533Y201.849
G1 X122.151Y201.956
G1 X111.342Y203.862
G1 X110.946Y203.892
G1 X110.563Y203.846
G1 X110.202Y203.729
G1 X109.872Y203.548
G1 X109.581Y203.308
G1 X109.339Y203.016
G1 X109.155Y202.677
G1 X109.036Y202.298
G1 X108.858Y201.435
G1 X108.74Y201.056
G1 X108.555Y200.718
G1 X108.313Y200.425
G1 X108.022Y200.186
G1 X107.692Y200.004
G1 X107.331Y199.887
G1 X106.948Y199.841
G1 X106.552Y199.871
G1 X91.804Y202.471
G1 X91.408Y202.502
G1 X91.025Y202.455
G1 X90.664Y202.338
G1 X90.334Y202.157
G1 X90.043Y201.917
G1 X89.801Y201.625
G1 X89.616Y201.286
G1 X89.498Y200.907
G1 X89.32Y200.044
G1 X89.201Y199.665
G1 X89.017Y199.327
G1 X88.775Y199.035
G1 X88.484Y198.795
G1 X88.154Y198.613
G1 X87.793Y198.496
G1 X87.41Y198.45
G1 X87.014Y198.48
G1 X49.672Y205.065
G1 X49.282Y205.175
G1 X48.932Y205.354
G1 X48.63Y205.595
G1 X48.381Y205.887
G1 X48.192Y206.221
G1 X48.069Y206.587
G1 X48.019Y206.977
G1 X48.049Y207.381
G1 X54.632Y244.715
G1 X54.742Y245.105
G1 X54.922Y245.455
G1 X55.163Y245.757
G1 X55.455Y246.007
G1 X55.789Y246.196
G1 X56.155Y246.318
G1 X56.545Y246.368
G1 X56.949Y246.338
G1 X90.306Y240.456
G1 X90.708Y240.426
G1 X91.097Y240.475
G1 X91.462Y240.596
G1 X91.796Y240.784
G1 X92.087Y241.031
G1 X92.328Y241.332
G1 X92.509Y241.679
G1 X92.621Y242.067
G1 X96.181Y261.581
G1 X96.292Y261.969
G1 X96.473Y262.316
G1 X96.714Y262.617
G1 X97.006Y262.864
G1 X97.339Y263.052
G1 X97.705Y263.173
G1 X98.093Y263.222
G1 X98.495Y263.192
G1 X113.198Y260.599
G1 X113.594Y260.569
G1 X113.977Y260.616
G1 X114.338Y260.733
G1 X114.668Y260.914
G1 X114.959Y261.154
G1 X115.201Y261.446
G1 X115.386Y261.785
G1 X115.504Y262.164
G1 X115.682Y263.026
G1 X115.801Y263.405
G1 X115.985Y263.744
G1 X116.227Y264.036
G1 X116.518Y264.276
G1 X116.848Y264.458
G1 X117.209Y264.575
G1 X117.592Y264.621
G1 X117.988Y264.591
G1 X136.676Y261.296
G1 X137.058Y261.189
G1 X137.402Y261.014
G1 X137.702Y260.781
G1 X137.95Y260.497
G1 X138.141Y260.172
G1 X138.269Y259.815
G1 X138.326Y259.434
G1 X138.308Y259.037
G1 X138.18Y258.165
G1 X138.162Y257.769
G1 X138.22Y257.387
G1 X138.347Y257.03
G1 X138.538Y256.705
G1 X138.787Y256.422
G1 X139.086Y256.188
G1 X139.43Y256.014
G1 X139.812Y255.907
G1 X154.56Y253.306
G1 X154.943Y253.199
G1 X155.287Y253.025
G1 X155.586Y252.791
G1 X155.834Y252.508
G1 X156.025Y252.183
G1 X156.153Y251.826
G1 X156.211Y251.444
G1 X156.192Y251.048
G1 X156.065Y250.176
G1 X156.046Y249.779
G1 X156.104Y249.398
G1 X156.232Y249.04
G1 X156.423Y248.716
G1 X156.671Y248.432
G1 X156.97Y248.199
G1 X157.314Y248.024
G1 X157.697Y247.917
G1 X174.185Y245.01
G1 X174.358Y244.987
G1 X174.532Y244.98
G1 X179
G1 Y239.708
G1 X190.4
G1 Y210.947
G1 X194.4
G1 Y244.98
G1 X205.6
G1 Y210.947
G1 X209.6
G1 Y239.708
G1 X221
G1 Y244.98
G1 X225.468
G1 X225.642Y244.987
G1 X225.815Y245.01
G1 X242.303Y247.917
G1 X242.686Y248.024
G1 X243.03Y248.199
G1 X243.329Y248.432
G1 X243.577Y248.716
G1 X243.768Y249.04
G1 X243.896Y249.398
G1 X243.954Y249.779
G1 X243.935Y250.176
G1 X243.808Y251.048
G1 X243.789Y251.444
G1 X243.847Y251.826
G1 X243.975Y252.183
G1 X244.166Y252.508
G1 X244.414Y252.791
G1 X244.713Y253.025
G1 X245.057Y253.199
G1 X245.44Y253.306
G1 X260.188Y255.907
G1 X260.57Y256.014
G1 X260.914Y256.188
G1 X261.213Y256.422
G1 X261.462Y256.705
G1 X261.653Y257.03
G1 X261.78Y257.387
G1 X261.838Y257.769
G1 X261.82Y258.165
G1 X261.692Y259.037
G1 X261.674Y259.434
G1 X261.731Y259.815
G1 X261.859Y260.172
G1 X262.05Y260.497
G1 X262.298Y260.781
G1 X262.598Y261.014
G1 X262.942Y261.189
G1 X263.324Y261.296
G1 X282.012Y264.591
G1 X282.408Y264.621
G1 X282.791Y264.575
G1 X283.152Y264.458
G1 X283.482Y264.276
G1 X283.773Y264.036
G1 X284.015Y263.744
G1 X284.199Y263.405
G1 X284.318Y263.026
G1 X284.496Y262.164
G1 X284.614Y261.785
G1 X284.799Y261.446
G1 X285.041Y261.154
G1 X285.332Y260.914
G1 X285.662Y260.733
G1 X286.023Y260.616
G1 X286.406Y260.569
G1 X286.802Y260.599
G1 X301.505Y263.192
G1 X301.907Y263.222
G1 X302.296Y263.173
G1 X302.661Y263.052
G1 X302.994Y262.864
G1 X303.286Y262.617
G1 X303.527Y262.316
G1 X303.708Y261.969
G1 X303.819Y261.581
G1 X307.379Y242.067
G1 X307.491Y241.679
G1 X307.672Y241.332
G1 X307.913Y241.031
G1 X308.204Y240.784
G1 X308.538Y240.596
G1 X308.903Y240.475
G1 X309.292Y240.426
G1 X309.694Y240.456
G1 X343.051Y246.338
G1 X343.455Y246.368
G1 X343.845Y246.318
G1 X344.211Y246.196
G1 X344.545Y246.007
G1 X344.837Y245.757
G1 X345.078Y245.455
G1 X345.258Y245.105
G1 X345.368Y244.715
G1 X351.951Y207.381
G1 X351.981Y206.977
G1 X351.931Y206.587
G1 X351.808Y206.221
G1 X351.619Y205.887
G1 X351.37Y205.595
G1 X351.068Y205.354
G1 X350.718Y205.175
G1 X350.328Y205.065
G1 X312.986Y198.48
G1 X312.59Y198.45
G1 X312.207Y198.496
G1 X311.846Y198.613
G1 X311.516Y198.795
G1 X311.225Y199.035
G1 X310.983Y199.327
G1 X310.799Y199.665
G1 X310.68Y200.044
G1 X310.502Y200.907
G1 X310.384Y201.286
G1 X310.199Y201.625
G1 X309.957Y201.917
G1 X309.666Y202.157
G1 X309.336Y202.338
G1 X308.975Y202.455
G1 X308.592Y202.502
G1 X308.196Y202.471
G1 X293.448Y199.871
G1 X293.052Y199.841
G1 X292.669Y199.887
G1 X292.308Y200.004
G1 X291.978Y200.186
G1 X291.687Y200.425
G1 X291.445Y200.718
G1 X291.26Y201.056
G1 X291.142Y201.435
G1 X290.964Y202.298
G1 X290.845Y202.677
G1 X290.661Y203.016
G1 X290.419Y203.308
G1 X290.128Y203.548
G1 X289.798Y203.729
G1 X289.437Y203.846
G1 X289.054Y203.892
G1 X288.658Y203.862
G1 X277.849Y201.956
G1 X277.467Y201.849
G1 X277.123Y201.675
G1 X276.824Y201.441
G1 X276.575Y201.158
G1 X276.384Y200.833
G1 X276.257Y200.476
G1 X276.199Y200.094
G1 X276.218Y199.698
G1 X276.345Y198.826
G1 X276.363Y198.43
G1 X276.306Y198.048
G1 X276.178Y197.691
G1 X275.987Y197.366
G1 X275.739Y197.082
G1 X275.439Y196.849
G1 X275.095Y196.675
G1 X274.713Y196.567
G1 X265.223Y194.894
G1 X264.828Y194.782
G1 X264.468Y194.593
G1 X264.153Y194.336
G1 X263.895Y194.017
G1 X263.707Y193.651
G1 X263.599Y193.259
G1 X263.572Y192.854
G1 X263.628Y192.447
G1 X268.968Y170.728
G1 X269.024Y170.332
G1 X269.003Y169.945
G1 X268.909Y169.575
G1 X268.747Y169.232
G1 X268.525Y168.926
G1 X268.246Y168.665
G1 X267.917Y168.459
G1 X267.543Y168.318
G1 X252.719Y164.346
G1 X252.402Y164.232
G1 X252.114Y164.069
G1 X251.859Y163.864
G1 X251.643Y163.622
G1 X251.468Y163.349
G1 X251.34Y163.049
G1 X251.261Y162.727
G1 X251.237Y162.391
M9
G1 S0
M5
G90
; return to user-defined finish pos
G0 X0Y0
M2
