; LightBurn 1.7.08
; GRBL device profile, absolute coords
; Bounds: X48.02 Y150.38 to X351.98 Y264.62
G00 G17 G40 G21 G54
G90
M4
; Cut @ 12 mm/sec, 90% power
M8
G0 X159.767Y175.023
; Layer C00
G1 X172.351Y168.886S900F720
G1 X166.213Y156.303
G1 X153.63Y162.44
G1 X159.767Y175.023
G0 X139.614Y185.481
G1 X153.137Y181.857
G1 X149.513Y168.334
G1 X135.99Y171.958
G1 X139.614Y185.481
G0 X146.608Y196.089
G1 X146.564Y195.655
G1 X146.439Y195.252
G1 X146.241Y194.887
G1 X145.978Y194.568
G1 X145.66Y194.306
G1 X145.295Y194.108
G1 X144.891Y193.982
G1 X144.458Y193.939
G1 X144.025Y193.982
G1 X143.621Y194.108
G1 X143.256Y194.306
G1 X142.938Y194.568
G1 X142.675Y194.887
G1 X142.477Y195.252
G1 X142.352Y195.655
G1 X142.308Y196.089
G1 X142.352Y196.522
G1 X142.477Y196.926
G1 X142.675Y197.291
G1 X142.938Y197.609
G1 X143.256Y197.871
G1 X143.621Y198.07
G1 X144.025Y198.195
G1 X144.458Y198.239
G1 X144.891Y198.195
G1 X145.295Y198.07
G1 X145.66Y197.871
G1 X145.978Y197.609
G1 X146.241Y197.291
G1 X146.439Y196.926
G1 X146.564Y196.522
G1 X146.608Y196.089
G0 X148.822Y206.296
G1 X162.609Y203.865
G1 X160.178Y190.078
G1 X146.391Y192.509
G1 X148.822Y206.296
G0 X130.938Y214.285
G1 X144.725Y211.854
G1 X142.294Y198.067
G1 X128.506Y200.498
G1 X130.938Y214.285
G0 X126.84Y219.844
G1 X113.053Y222.275
G1 X110.622Y208.488
G1 X124.409Y206.057
G1 X126.84Y219.844
G0 X113.651Y228.014
G1 X113.608Y227.581
G1 X113.482Y227.177
G1 X113.284Y226.812
G1 X113.021Y226.494
G1 X112.703Y226.231
G1 X112.338Y226.033
G1 X111.935Y225.908
G1 X111.501Y225.864
G1 X111.068Y225.908
G1 X110.664Y226.033
G1 X110.299Y226.231
G1 X109.981Y226.494
G1 X109.718Y226.812
G1 X109.52Y227.177
G1 X109.395Y227.581
G1 X109.351Y228.014
G1 X109.395Y228.447
G1 X109.52Y228.851
G1 X109.718Y229.216
G1 X109.981Y229.534
G1 X110.299Y229.797
G1 X110.664Y229.995
G1 X111.068Y230.12
G1 X111.501Y230.164
G1 X111.935Y230.12
G1 X112.338Y229.995
G1 X112.703Y229.797
G1 X113.021Y229.534
G1 X113.284Y229.216
G1 X113.482Y228.851
G1 X113.608Y228.447
G1 X113.651Y228.014
G0 X110.61Y237.214
G1 X96.823Y239.645
G1 X94.392Y225.857
G1 X108.179Y223.426
G1 X110.61Y237.214
G0 X116.361Y241.035
G1 X130.148Y238.604
G1 X127.717Y224.817
G1 X113.93Y227.248
G1 X116.361Y241.035
G0 X134.246Y233.046
G1 X148.033Y230.615
G1 X145.602Y216.828
G1 X131.814Y219.259
G1 X134.246Y233.046
G0 X152.13Y225.057
G1 X165.917Y222.625
G1 X163.486Y208.838
G1 X149.699Y211.269
G1 X152.13Y225.057
G0 X154.547Y241.114
G1 X154.504Y240.681
G1 X154.378Y240.277
G1 X154.18Y239.912
G1 X153.918Y239.594
G1 X153.599Y239.331
G1 X153.234Y239.133
G1 X152.831Y239.008
G1 X152.397Y238.964
G1 X151.964Y239.008
G1 X151.56Y239.133
G1 X151.195Y239.331
G1 X150.877Y239.594
G1 X150.615Y239.912
G1 X150.416Y240.277
G1 X150.291Y240.681
G1 X150.247Y241.114
G1 X150.291Y241.547
G1 X150.416Y241.951
G1 X150.615Y242.316
G1 X150.877Y242.634
G1 X151.195Y242.897
G1 X151.56Y243.095
G1 X151.964Y243.22
G1 X152.397Y243.264
G1 X152.831Y243.22
G1 X153.234Y243.095
G1 X153.599Y242.897
G1 X153.918Y242.634
G1 X154.18Y242.316
G1 X154.378Y241.951
G1 X154.504Y241.547
G1 X154.547Y241.114
G0 X151.341Y249.376
G1 X137.554Y251.807
G1 X135.122Y238.019
G1 X148.91Y235.588
G1 X151.341Y249.376
G0 X169.225Y241.386
G1 X166.794Y227.599
G1 X153.007Y230.03
G1 X155.438Y243.817
G1 X169.225Y241.386
G0 X119.669Y259.796
G1 X133.456Y257.365
G1 X131.025Y243.578
G1 X117.238Y246.009
G1 X119.669Y259.796
G0 X113.918Y255.974
G1 X111.487Y242.187
G1 X97.7Y244.618
G1 X100.131Y258.405
G1 X113.918Y255.974
G0 X91.072Y235.823
G1 X77.285Y238.254
G1 X74.853Y224.467
G1 X88.641Y222.035
G1 X91.072Y235.823
G0 X76.394Y235.551
G1 X76.35Y235.117
G1 X76.225Y234.714
G1 X76.027Y234.349
G1 X75.764Y234.03
G1 X75.446Y233.768
G1 X75.081Y233.57
G1 X74.677Y233.444
G1 X74.244Y233.401
G1 X73.811Y233.444
G1 X73.407Y233.57
G1 X73.042Y233.768
G1 X72.724Y234.03
G1 X72.461Y234.349
G1 X72.263Y234.714
G1 X72.138Y235.117
G1 X72.094Y235.551
G1 X72.138Y235.984
G1 X72.263Y236.388
G1 X72.461Y236.753
G1 X72.724Y237.071
G1 X73.042Y237.334
G1 X73.407Y237.532
G1 X73.811Y237.657
G1 X74.244Y237.701
G1 X74.677Y237.657
G1 X75.081Y237.532
G1 X75.446Y237.334
G1 X75.764Y237.071
G1 X76.027Y236.753
G1 X76.225Y236.388
G1 X76.35Y235.984
G1 X76.394Y235.551
G0 X58.573Y241.553
G1 X72.36Y239.122
G1 X69.929Y225.335
G1 X56.142Y227.766
G1 X58.573Y241.553
G0 X69.052Y220.361
G1 X55.265Y222.793
G1 X52.834Y209.005
G1 X66.621Y206.574
G1 X69.052Y220.361
G0 X71.763Y209.286
G1 X71.719Y208.853
G1 X71.594Y208.449
G1 X71.396Y208.084
G1 X71.133Y207.766
G1 X70.815Y207.503
G1 X70.45Y207.305
G1 X70.046Y207.18
G1 X69.613Y207.136
G1 X69.179Y207.18
G1 X68.776Y207.305
G1 X68.411Y207.503
G1 X68.092Y207.766
G1 X67.83Y208.084
G1 X67.632Y208.449
G1 X67.506Y208.853
G1 X67.463Y209.286
G1 X67.506Y209.719
G1 X67.632Y210.123
G1 X67.83Y210.488
G1 X68.092Y210.806
G1 X68.411Y211.069
G1 X68.776Y211.267
G1 X69.179Y211.392
G1 X69.613Y211.436
G1 X70.046Y211.392
G1 X70.45Y211.267
G1 X70.815Y211.069
G1 X71.133Y210.806
G1 X71.396Y210.488
G1 X71.594Y210.123
G1 X71.719Y209.719
G1 X71.763Y209.286
G0 X87.764Y217.062
G1 X85.333Y203.275
G1 X71.545Y205.706
G1 X73.977Y219.493
G1 X87.764Y217.062
G0 X93.515Y220.884
G1 X107.302Y218.453
G1 X104.871Y204.666
G1 X91.084Y207.097
G1 X93.515Y220.884
G0 X202.15Y165.663
G1 X202.106Y165.229
G1 X201.981Y164.826
G1 X201.783Y164.461
G1 X201.52Y164.143
G1 X201.202Y163.88
G1 X200.837Y163.682
G1 X200.433Y163.556
G1 X200Y163.513
G1 X199.567Y163.556
G1 X199.163Y163.682
G1 X198.798Y163.88
G1 X198.48Y164.143
G1 X198.217Y164.461
G1 X198.019Y164.826
G1 X197.894Y165.229
G1 X197.85Y165.663
G1 X197.894Y166.096
G1 X198.019Y166.5
G1 X198.217Y166.865
G1 X198.48Y167.183
G1 X198.798Y167.446
G1 X199.163Y167.644
G1 X199.567Y167.769
G1 X200Y167.813
G1 X200.433Y167.769
G1 X200.837Y167.644
G1 X201.202Y167.446
G1 X201.52Y167.183
G1 X201.783Y166.865
G1 X201.981Y166.5
G1 X202.106Y166.096
G1 X202.15Y165.663
G0 X240.233Y175.023
G1 X227.649Y168.886
G1 X233.787Y156.303
G1 X246.37Y162.44
G1 X240.233Y175.023
G0 X246.863Y181.857
G1 X250.487Y168.334
G1 X264.01Y171.958
G1 X260.386Y185.481
G1 X246.863Y181.857
G0 X257.692Y196.089
G1 X257.648Y195.655
G1 X257.523Y195.252
G1 X257.325Y194.887
G1 X257.062Y194.568
G1 X256.744Y194.306
G1 X256.379Y194.108
G1 X255.975Y193.982
G1 X255.542Y193.939
G1 X255.109Y193.982
G1 X254.705Y194.108
G1 X254.34Y194.306
G1 X254.022Y194.568
G1 X253.759Y194.887
G1 X253.561Y195.252
G1 X253.436Y195.655
G1 X253.392Y196.089
G1 X253.436Y196.522
G1 X253.561Y196.926
G1 X253.759Y197.291
G1 X254.022Y197.609
G1 X254.34Y197.871
G1 X254.705Y198.07
G1 X255.109Y198.195
G1 X255.542Y198.239
G1 X255.975Y198.195
G1 X256.379Y198.07
G1 X256.744Y197.871
G1 X257.062Y197.609
G1 X257.325Y197.291
G1 X257.523Y196.926
G1 X257.648Y196.522
G1 X257.692Y196.089
G0 X251.178Y206.296
G1 X237.391Y203.865
G1 X239.822Y190.078
G1 X253.609Y192.509
G1 X251.178Y206.296
G0 X255.275Y211.854
G1 X257.706Y198.067
G1 X271.494Y200.498
G1 X269.063Y214.285
G1 X255.275Y211.854
G0 X273.159Y219.844
G1 X275.591Y206.057
G1 X289.378Y208.488
G1 X286.947Y222.275
G1 X273.159Y219.844
G0 X292.698Y218.453
G1 X295.129Y204.666
G1 X308.916Y207.097
G1 X306.485Y220.884
G1 X292.698Y218.453
G0 X290.649Y228.014
G1 X290.605Y227.581
G1 X290.48Y227.177
G1 X290.282Y226.812
G1 X290.019Y226.494
G1 X289.701Y226.231
G1 X289.336Y226.033
G1 X288.932Y225.908
G1 X288.499Y225.864
G1 X288.065Y225.908
G1 X287.662Y226.033
G1 X287.297Y226.231
G1 X286.979Y226.494
G1 X286.716Y226.812
G1 X286.518Y227.177
G1 X286.392Y227.581
G1 X286.349Y228.014
G1 X286.392Y228.447
G1 X286.518Y228.851
G1 X286.716Y229.216
G1 X286.979Y229.534
G1 X287.297Y229.797
G1 X287.662Y229.995
G1 X288.065Y230.12
G1 X288.499Y230.164
G1 X288.932Y230.12
G1 X289.336Y229.995
G1 X289.701Y229.797
G1 X290.019Y229.534
G1 X290.282Y229.216
G1 X290.48Y228.851
G1 X290.605Y228.447
G1 X290.649Y228.014
G0 X303.177Y239.645
G1 X289.39Y237.214
G1 X291.821Y223.426
G1 X305.608Y225.857
G1 X303.177Y239.645
G0 X308.928Y235.823
G1 X311.359Y222.035
G1 X325.147Y224.467
G1 X322.716Y238.254
G1 X308.928Y235.823
G0 X327.906Y235.551
G1 X327.862Y235.117
G1 X327.737Y234.714
G1 X327.539Y234.349
G1 X327.276Y234.03
G1 X326.958Y233.768
G1 X326.593Y233.57
G1 X326.189Y233.444
G1 X325.756Y233.401
G1 X325.323Y233.444
G1 X324.919Y233.57
G1 X324.554Y233.768
G1 X324.236Y234.03
G1 X323.973Y234.349
G1 X323.775Y234.714
G1 X323.65Y235.117
G1 X323.606Y235.551
G1 X323.65Y235.984
G1 X323.775Y236.388
G1 X323.973Y236.753
G1 X324.236Y237.071
G1 X324.554Y237.334
G1 X324.919Y237.532
G1 X325.323Y237.657
G1 X325.756Y237.701
G1 X326.189Y237.657
G1 X326.593Y237.532
G1 X326.958Y237.334
G1 X327.276Y237.071
G1 X327.539Y236.753
G1 X327.737Y236.388
G1 X327.862Y235.984
G1 X327.906Y235.551
G0 X341.427Y241.553
G1 X327.64Y239.122
G1 X330.071Y225.335
G1 X343.858Y227.766
G1 X341.427Y241.553
G0 X330.948Y220.361
G1 X344.735Y222.793
G1 X347.166Y209.005
G1 X333.379Y206.574
G1 X330.948Y220.361
G0 X326.023Y219.493
G1 X312.236Y217.062
G1 X314.667Y203.275
G1 X328.455Y205.706
G1 X326.023Y219.493
G0 X332.537Y209.286
G1 X332.494Y208.853
G1 X332.368Y208.449
G1 X332.17Y208.084
G1 X331.908Y207.766
G1 X331.589Y207.503
G1 X331.224Y207.305
G1 X330.821Y207.18
G1 X330.387Y207.136
G1 X329.954Y207.18
G1 X329.55Y207.305
G1 X329.185Y207.503
G1 X328.867Y207.766
G1 X328.604Y208.084
G1 X328.406Y208.449
G1 X328.281Y208.853
G1 X328.237Y209.286
G1 X328.281Y209.719
G1 X328.406Y210.123
G1 X328.604Y210.488
G1 X328.867Y210.806
G1 X329.185Y211.069
G1 X329.55Y211.267
G1 X329.954Y211.392
G1 X330.387Y211.436
G1 X330.821Y211.392
G1 X331.224Y211.267
G1 X331.589Y211.069
G1 X331.908Y210.806
G1 X332.17Y210.488
G1 X332.368Y210.123
G1 X332.494Y209.719
G1 X332.537Y209.286
G0 X265.754Y233.046
G1 X251.967Y230.615
G1 X254.398Y216.828
G1 X268.186Y219.259
G1 X265.754Y233.046
G0 X269.852Y238.604
G1 X283.639Y241.035
G1 X286.07Y227.248
G1 X272.283Y224.817
G1 X269.852Y238.604
G0 X249.753Y241.114
G1 X249.709Y240.681
G1 X249.584Y240.277
G1 X249.386Y239.912
G1 X249.123Y239.594
G1 X248.805Y239.331
G1 X248.44Y239.133
G1 X248.036Y239.008
G1 X247.603Y238.964
G1 X247.169Y239.008
G1 X246.766Y239.133
G1 X246.401Y239.331
G1 X246.082Y239.594
G1 X245.82Y239.912
G1 X245.622Y240.277
G1 X245.496Y240.681
G1 X245.453Y241.114
G1 X245.496Y241.547
G1 X245.622Y241.951
G1 X245.82Y242.316
G1 X246.082Y242.634
G1 X246.401Y242.897
G1 X246.766Y243.095
G1 X247.169Y243.22
G1 X247.603Y243.264
G1 X248.036Y243.22
G1 X248.44Y243.095
G1 X248.805Y242.897
G1 X249.123Y242.634
G1 X249.386Y242.316
G1 X249.584Y241.951
G1 X249.709Y241.547
G1 X249.753Y241.114
G0 X244.562Y243.817
G1 X230.775Y241.386
G1 X233.206Y227.599
G1 X246.993Y230.03
G1 X244.562Y243.817
G0 X248.659Y249.376
G1 X251.09Y235.588
G1 X264.878Y238.019
G1 X262.446Y251.807
G1 X248.659Y249.376
G0 X280.331Y259.796
G1 X266.544Y257.365
G1 X268.975Y243.578
G1 X282.762Y246.009
G1 X280.331Y259.796
G0 X286.082Y255.974
G1 X288.513Y242.187
G1 X302.3Y244.618
G1 X299.869Y258.405
G1 X286.082Y255.974
G0 X234.083Y222.625
G1 X236.514Y208.838
G1 X250.301Y211.269
G1 X247.87Y225.057
G1 X234.083Y222.625
G0 X251.237Y162.391
G1 X251.251Y161.165
G1 X251.234Y160.879
G1 X251.177Y160.602
G1 X251.083Y160.339
G1 X250.954Y160.092
G1 X250.791Y159.865
G1 X250.598Y159.663
G1 X250.376Y159.488
G1 X250.128Y159.344
G1 X232.162Y150.581
G1 X231.953Y150.494
G1 X231.735Y150.43
G1 X231.512Y150.392
G1 X231.285Y150.379
G1 X168.715
G1 X168.488Y150.392
G1 X168.265Y150.43
G1 X168.048Y150.494
G1 X167.838Y150.581
G1 X149.872Y159.344
G1 X149.624Y159.488
G1 X149.402Y159.663
G1 X149.209Y159.865
G1 X149.046Y160.092
G1 X148.917Y160.339
G1 X148.823Y160.602
G1 X148.766Y160.879
G1 X148.749Y161.165
G1 X148.763Y162.391
G1 X148.739Y162.727
G1 X148.66Y163.049
G1 X148.532Y163.349
G1 X148.357Y163.622
G1 X148.141Y163.864
G1 X147.886Y164.069
G1 X147.599Y164.232
G1 X147.281Y164.346
G1 X132.457Y168.318
G1 X132.083Y168.459
G1 X131.754Y168.665
G1 X131.475Y168.926
G1 X131.253Y169.232
G1 X131.091Y169.575
G1 X130.997Y169.945
G1 X130.976Y170.332
G1 X131.032Y170.728
G1 X136.372Y192.447
G1 X136.428Y192.854
G1 X136.401Y193.259
G1 X136.293Y193.651
G1 X136.105Y194.017
G1 X135.847Y194.336
G1 X135.532Y194.593
G1 X135.172Y194.782
G1 X134.777Y194.894
G1 X125.287Y196.567
G1 X124.905Y196.675
G1 X124.561Y196.849
G1 X124.261Y197.082
G1 X124.013Y197.366
G1 X123.822Y197.691
G1 X123.694Y198.048
G1 X123.637Y198.43
G1 X123.655Y198.826
G1 X123.782Y199.698
G1 X123.801Y200.094
G1 X123.743Y200.476
G1 X123.616Y200.833
G1 X123.425Y201.158
G1 X123.176Y201.441
G1 X122.877Y201.675
G1 X122.533Y201.849
G1 X122.151Y201.956
G1 X111.342Y203.862
G1 X110.946Y203.892
G1 X110.563Y203.846
G1 X110.202Y203.729
G1 X109.872Y203.548
G1 X109.581Y203.308
G1 X109.339Y203.016
G1 X109.155Y202.677
G1 X109.036Y202.298
G1 X108.858Y201.435
G1 X108.74Y201.056
G1 X108.555Y200.718
G1 X108.313Y200.425
G1 X108.022Y200.186
G1 X107.692Y200.004
G1 X107.331Y199.887
G1 X106.948Y199.841
G1 X106.552Y199.871
G1 X91.804Y202.471
G1 X91.408Y202.502
G1 X91.025Y202.455
G1 X90.664Y202.338
G1 X90.334Y202.157
G1 X90.043Y201.917
G1 X89.801Y201.625
G1 X89.616Y201.286
G1 X89.498Y200.907
G1 X89.32Y200.044
G1 X89.201Y199.665
G1 X89.017Y199.327
G1 X88.775Y199.035
G1 X88.484Y198.795
G1 X88.154Y198.613
G1 X87.793Y198.496
G1 X87.41Y198.45
G1 X87.014Y198.48
G1 X49.672Y205.065
G1 X49.282Y205.175
G1 X48.932Y205.354
G1 X48.63Y205.595
G1 X48.381Y205.887
G1 X48.192Y206.221
G1 X48.069Y206.587
G1 X48.019Y206.977
G1 X48.049Y207.381
G1 X54.632Y244.715
G1 X54.742Y245.105
G1 X54.922Y245.455
G1 X55.163Y245.757
G1 X55.455Y246.007
G1 X55.789Y246.196
G1 X56.155Y246.318
G1 X56.545Y246.368
G1 X56.949Y246.338
G1 X90.306Y240.456
G1 X90.708Y240.426
G1 X91.097Y240.475
G1 X91.462Y240.596
G1 X91.796Y240.784
G1 X92.087Y241.031
G1 X92.328Y241.332
G1 X92.509Y241.679
G1 X92.621Y242.067
G1 X96.181Y261.581
G1 X96.292Y261.969
G1 X96.473Y262.316
G1 X96.714Y262.617
G1 X97.006Y262.864
G1 X97.339Y263.052
G1 X97.705Y263.173
G1 X98.093Y263.222
G1 X98.495Y263.192
G1 X113.198Y260.599
G1 X113.594Y260.569
G1 X113.977Y260.616
G1 X114.338Y260.733
G1 X114.668Y260.914
G1 X114.959Y261.154
G1 X115.201Y261.446
G1 X115.386Y261.785
G1 X115.504Y262.164
G1 X115.682Y263.026
G1 X115.801Y263.405
G1 X115.985Y263.744
G1 X116.227Y264.036
G1 X116.518Y264.276
G1 X116.848Y264.458
G1 X117.209Y264.575
G1 X117.592Y264.621
G1 X117.988Y264.591
G1 X136.676Y261.296
G1 X137.058Y261.189
G1 X137.402Y261.014
G1 X137.702Y260.781
G1 X137.95Y260.497
G1 X138.141Y260.172
G1 X138.269Y259.815
G1 X138.326Y259.434
G1 X138.308Y259.037
G1 X138.18Y258.165
G1 X138.162Y257.769
G1 X138.22Y257.387
G1 X138.347Y257.03
G1 X138.538Y256.705
G1 X138.787Y256.422
G1 X139.086Y256.188
G1 X139.43Y256.014
G1 X139.812Y255.907
G1 X154.56Y253.306
G1 X154.943Y253.199
G1 X155.287Y253.025
G1 X155.586Y252.791
G1 X155.834Y252.508
G1 X156.025Y252.183
G1 X156.153Y251.826
G1 X156.211Y251.444
G1 X156.192Y251.048
G1 X156.065Y250.176
G1 X156.046Y249.779
G1 X156.104Y249.398
G1 X156.232Y249.04
G1 X156.423Y248.716
G1 X156.671Y248.432
G1 X156.97Y248.199
G1 X157.314Y248.024
G1 X157.697Y247.917
G1 X174.185Y245.01
G1 X174.358Y244.987
G1 X174.532Y244.98
G1 X176
G1 Y181.447
G1 X176.013Y181.192
G1 X176.051Y180.944
G1 X176.112Y180.704
G1 X176.196Y180.474
G1 X176.427Y180.05
G1 X176.732Y179.68
G1 X177.102Y179.374
G1 X177.527Y179.144
G1 X177.757Y179.06
G1 X177.996Y178.998
G1 X178.244Y178.96
G1 X178.5Y178.947
G1 X221.5
G1 X221.756Y178.96
G1 X222.004Y178.998
G1 X222.243Y179.06
G1 X222.473Y179.144
G1 X222.898Y179.374
G1 X223.268Y179.68
G1 X223.573Y180.05
G1 X223.804Y180.474
G1 X223.888Y180.704
G1 X223.949Y180.944
G1 X223.987Y181.192
G1 X224Y181.447
G1 Y244.98
G1 X225.468
G1 X225.642Y244.987
G1 X225.815Y245.01
G1 X242.303Y247.917
G1 X242.686Y248.024
G1 X243.03Y248.199
G1 X243.329Y248.432
G1 X243.577Y248.716
G1 X243.768Y249.04
G1 X243.896Y249.398
G1 X243.954Y249.779
G1 X243.935Y250.176
G1 X243.808Y251.048
G1 X243.789Y251.444
G1 X243.847Y251.826
G1 X243.975Y252.183
G1 X244.166Y252.508
G1 X244.414Y252.791
G1 X244.713Y253.025
G1 X245.057Y253.199
G1 X245.44Y253.306
G1 X260.188Y255.907
G1 X260.57Y256.014
G1 X260.914Y256.188
G1 X261.213Y256.422
G1 X261.462Y256.705
G1 X261.653Y257.03
G1 X261.78Y257.387
G1 X261.838Y257.769
G1 X261.82Y258.165
G1 X261.692Y259.037
G1 X261.674Y259.434
G1 X261.731Y259.815
G1 X261.859Y260.172
G1 X262.05Y260.497
G1 X262.298Y260.781
G1 X262.598Y261.014
G1 X262.942Y261.189
G1 X263.324Y261.296
G1 X282.012Y264.591
G1 X282.408Y264.621
G1 X282.791Y264.575
G1 X283.152Y264.458
G1 X283.482Y264.276
G1 X283.773Y264.036
G1 X284.015Y263.744
G1 X284.199Y263.405
G1 X284.318Y263.026
G1 X284.496Y262.164
G1 X284.614Y261.785
G1 X284.799Y261.446
G1 X285.041Y261.154
G1 X285.332Y260.914
G1 X285.662Y260.733
G1 X286.023Y260.616
G1 X286.406Y260.569
G1 X286.802Y260.599
G1 X301.505Y263.192
G1 X301.907Y263.222
G1 X302.296Y263.173
G1 X302.661Y263.052
G1 X302.994Y262.864
G1 X303.286Y262.617
G1 X303.527Y262.316
G1 X303.708Y261.969
G1 X303.819Y261.581
G1 X307.379Y242.067
G1 X307.491Y241.679
G1 X307.672Y241.332
G1 X307.913Y241.031
G1 X308.204Y240.784
G1 X308.538Y240.596
G1 X308.903Y240.475
G1 X309.292Y240.426
G1 X309.694Y240.456
G1 X343.051Y246.338
G1 X343.455Y246.368
G1 X343.845Y246.318
G1 X344.211Y246.196
G1 X344.545Y246.007
G1 X344.837Y245.757
G1 X345.078Y245.455
G1 X345.258Y245.105
G1 X345.368Y244.715
G1 X351.951Y207.381
G1 X351.981Y206.977
G1 X351.931Y206.587
G1 X351.808Y206.221
G1 X351.619Y205.887
G1 X351.37Y205.595
G1 X351.068Y205.354
G1 X350.718Y205.175
G1 X350.328Y205.065
G1 X312.986Y198.48
G1 X312.59Y198.45
G1 X312.207Y198.496
G1 X311.846Y198.613
G1 X311.516Y198.795
G1 X311.225Y199.035
G1 X310.983Y199.327
G1 X310.799Y199.665
G1 X310.68Y200.044
G1 X310.502Y200.907
G1 X310.384Y201.286
G1 X310.199Y201.625
G1 X309.957Y201.917
G1 X309.666Y202.157
G1 X309.336Y202.338
G1 X308.975Y202.455
G1 X308.592Y202.502
G1 X308.196Y202.471
G1 X293.448Y199.871
G1 X293.052Y199.841
G1 X292.669Y199.887
G1 X292.308Y200.004
G1 X291.978Y200.186
G1 X291.687Y200.425
G1 X291.445Y200.718
G1 X291.26Y201.056
G1 X291.142Y201.435
G1 X290.964Y202.298
G1 X290.845Y202.677
G1 X290.661Y203.016
G1 X290.419Y203.308
G1 X290.128Y203.548
G1 X289.798Y203.729
G1 X289.437Y203.846
G1 X289.054Y203.892
G1 X288.658Y203.862
G1 X277.849Y201.956
G1 X277.467Y201.849
G1 X277.123Y201.675
G1 X276.824Y201.441
G1 X276.575Y201.158
G1 X276.384Y200.833
G1 X276.257Y200.476
G1 X276.199Y200.094
G1 X276.218Y199.698
G1 X276.345Y198.826
G1 X276.363Y198.43
G1 X276.306Y198.048
G1 X276.178Y197.691
G1 X275.987Y197.366
G1 X275.739Y197.082
G1 X275.439Y196.849
G1 X275.095Y196.675
G1 X274.713Y196.567
G1 X265.223Y194.894
G1 X264.828Y194.782
G1 X264.468Y194.593
G1 X264.153Y194.336
G1 X263.895Y194.017
G1 X263.707Y193.651
G1 X263.599Y193.259
G1 X263.572Y192.854
G1 X263.628Y192.447
G1 X268.968Y170.728
G1 X269.024Y170.332
G1 X269.003Y169.945
G1 X268.909Y169.575
G1 X268.747Y169.232
G1 X268.525Y168.926
G1 X268.246Y168.665
G1 X267.917Y168.459
G1 X267.543Y168.318
G1 X252.719Y164.346
G1 X252.402Y164.232
G1 X252.114Y164.069
G1 X251.859Y163.864
G1 X251.643Y163.622
G1 X251.468Y163.349
G1 X251.34Y163.049
G1 X251.261Y162.727
G1 X251.237Y162.391
M9
G1 S0
M5
G90
; return to user-defined finish pos
G0 X0Y0
M2
